,id,name,place_type,address,transport,accesible_category,wheelchair_accesibility_level,movement_accesibility_level,eye_accesibility_level,ear_accesibility_level,mental_accesibility_level,link,lat,lon
6,1,"Детский сад п. Карповка, структурное подразделение муниципального бюджетного дошкольного образовательного учреждения ""Новорогачинский детский сад ""Золотой петушок""",детский сад,"Городищенский район, с. Карповка, ул. Новая, д. 4",х,дети,2,2,0,0,0,https://zhit-vmeste.ru/map/,48.70475589999999,43.9774129
7,2,"Детский сад п. Самофаловка, структурное подразделение муниципального бюджетного дошкольного образовательного учреждения ""Городищенский детский сад ""Аленушка""",детский сад,"Городищенский район, п.Самофаловка, ул. Новостроевская, д.16",х,дети,2,2,0,0,0,https://zhit-vmeste.ru/map/,48.9471403,44.2142482
8,3,"Детский сад р.п. Городище,  структурное подразделение  муниципального  бюджетного дошкольного образовательного учреждения ""Городищенский детский сад ""Радуга""",детский сад,"Городищенский район, р.п. Городище, пр. Ленина, 3 а
",х,дети,2,2,0,0,0,https://zhit-vmeste.ru/map/,48.8095279,44.4809592
9,4,Муниципальное казенное дошкольное образовательное учреждение детский сад № 3 г. Дубовки Дубовского муниципального района Волгоградской области,детский сад,"Дубовский район, г. Дубовка, ул.Котовского, д. 13",х,дети,0,0,1,1,0,https://zhit-vmeste.ru/map/,49.041533,44.8146224
10,5,Муниципальное казенное дошкольное образовательное учреждение детский сад № 4 г. Дубовки Дубовского муниципального района Волгоградской области,детский сад,"Дубовский район, г. Дубовка, ул.Республиканская, д. 27",х,дети,1,1,1,1,1,https://zhit-vmeste.ru/map/,49.0532628,44.8265815
11,6,"Муниципальное бюджетное дошкольное образовательное учреждение ""Еланский детский сад № 3 ""Алёнушка"" Еланского муниципального района Волгоградской области",детский сад,"Еланский район, р.п. Елань, ул.Красная, д. 18",х,дети,0,0,1,0,0,https://zhit-vmeste.ru/map/,50.9450882,43.7409257
12,7,"Дошкольное образовательное учреждение муниципальный детский сад № 9 ""Золотой ключик"" города Жирновска Волгоградской области",детский сад,"Жирновский район, г. Жирновск, ул.Ломоносова, д. 3",х,дети,0,0,0,0,0,https://zhit-vmeste.ru/map/,50.9815795,44.771724
13,8,"Муниципальное бюджетное дошкольное образовательное учреждение центр развития ребенка – детский сад ""Тюльпан"" Иловлинского муниципального района Волгоградской области",детский сад,"Иловлинский район, р.п. Иловля, ул.Буденного, д. 8",х,дети,1,0,1,1,0,https://zhit-vmeste.ru/map/,49.3104267,43.9860088
14,9,"Муниципальное бюджетное дошкольное образовательное учреждение Логовский детский сад ""Сказка"" Иловлинского муниципального района Волгоградской области",детский сад,"Иловлинский район, с. Лог, ул. Новая, д. 17 а",х,дети,1,0,1,1,0,https://zhit-vmeste.ru/map/,49.4774391,43.8548862
15,10,Муниципальное бюджетное дошкольное образовательное учреждение Детский сад № 1 городского округа – город Камышин,детский сад,"г. Камышин, ул. Гоголя, д. 31",х,дети,0,0,0,0,0,https://zhit-vmeste.ru/map/,50.0845867,45.40932170000001
16,11,Муниципальное бюджетное дошкольное образовательное учреждение Детский сад № 47 городского округа - город Камышин,детский сад,"г. Камышин, 6 микрорайон, д. 16 а",х,дети,1,1,1,1,1,https://zhit-vmeste.ru/map/,50.0909762,45.4170779
17,12,"Муниципальное казенное дошкольное образовательное учреждение ""Преображенский детский сад № 1 ""Аленушка"" ",детский сад,"Киквидзенский район, ст.Преображенская, ул. Мира, д. 73 в",х,дети,1,1,1,1,1,https://zhit-vmeste.ru/map/,50.7395599,43.0479415
18,13,"Муниципальное автономное дошкольное образовательное учреждение детский сад ""Сказка"" Котельниковского муниципального района Волгоградской области",детский сад,"Котельниковский район, г.Котельниково, ул. Строителей, д. 1",х,     дети,0,0,0,0,0,https://zhit-vmeste.ru/map/,47.6340372,43.1461629
19,14,Муниципальное дошкольное образовательное учреждение – детский сад № 8 г. Котово Волгоградской области,детский сад,"Котовский район, г.Котово, ул.Нефтяников, д. 9",х,дети,1,1,2,2,0,https://zhit-vmeste.ru/map/,50.3187428,44.7988621
20,15,"Структурное подразделение ""Радуга"" МБДОУ ""Детский сад ""Лукоморье"" городского округа город Михайловка Волгоградской области""",детский сад,"г. Михайловка, ул. Коммуны, д. 160 а",х,дети,1,0,1,2,0,https://zhit-vmeste.ru/map/,50.075545,43.2376405
21,16,"Структурное подразделение ""Созвездие"" МБДОУ ""Детский сад ""Лукоморье"" городского округа город Михайловка Волгоградской области""",детский сад,"г. Михайловка, ул. Республиканская, д.46 а",х,дети,0,0,1,2,0,https://zhit-vmeste.ru/map/,50.0656151,43.2263695
22,17,"Муниципальное казенное дошкольное образовательное учреждение Нехаевский детский сад ""Колосок"" Нехаевского муниципального района Волгоградской области",детский сад,"Нехаевский район, ст. Нехаевская, ул.Мира, д. 42",х,дети,0,0,0,0,0,https://zhit-vmeste.ru/map/,50.405938,41.76523299999999
23,18,Муниципальное казенное дошкольное образовательное учреждение Новоаннинский детский сад № 4 Новоаннинского муниципального района Волгоградской области,детский сад,"Новоаннинский район, г.Новоаннинский, ул. Киквидзе, д. 105 ",х,дети,1,1,2,1,1,https://zhit-vmeste.ru/map/,50.5240854,42.6795932
24,19,Муниципальное казенное дошкольное образовательное учреждение Новоаннинский детский сад № 5 Новоаннинского муниципального района Волгоградской области,детский сад,"Новоаннинский район, г. Новоаннинский, ул. Пионерская, д.111д",х,дети,1,1,2,1,1,https://zhit-vmeste.ru/map/,50.5315598,42.6921201
25,20,"Муниципальное казенное дошкольное образовательное учреждение ""Новониколаевский детский сад № 1"" Новониколаевского муниципального района Волгоградской области",детский сад,"Новониколаевский район, р.п.Новониколаевский, ул. Левченко, д. 8",х,дети,1,0,0,0,0,https://zhit-vmeste.ru/map/,50.9777205,42.3615238
26,21,"Муниципальное автономное дошкольное образовательное учреждение ""Новониколаевский детский сад № 3"" Новониколаевского муниципального района Волгоградской области",детский сад,"Новониколаевский район, р.п.Новониколаевский, ул. Сиреневая, д.84",х,дети,0,0,0,0,0,https://zhit-vmeste.ru/map/,50.9649331,42.3444648
27,22,"Муниципальное казенное общеобразовательное учреждение  ""Зензеватская средняя школа"" Ольховского муниципального района Волгоградской области (дошкольные группы)",детский сад," Ольховский район, с. Зензеватка, ул.Октябрьская, д. 2 а",х,дети,1,1,1,1,1,https://zhit-vmeste.ru/map/,49.806529,44.53635999999999
28,23,"Муниципальное казенное дошкольное образовательное учреждение ""Детский сад ""Золотой ключик"" п. Новостройка Палласовского  района Волгоградской области",детский сад,"Палласовский район, п. Новостройка, ул. Весенняя, д. 1",х,дети,2,2,2,2,2,https://zhit-vmeste.ru/map/,50.0253709,46.8813162
29,24,"Муниципальное казенное дошкольное образовательное учреждение ""Руднянский детский сад ""Сказка"" Руднянского муниципального района Волгоградской области",детский сад,"Руднянский район, р.п. Рудня, ул.Пионерская, д. 97",х,дети,1,0,1,1,0,https://zhit-vmeste.ru/map/,50.8079342,44.55615479999999
30,25,"Муниципальное казенное дошкольное образовательное учреждение ""Руднянский детский сад ""Огонек"" Руднянского муниципального района Волгоградской области",детский сад,"Руднянский район, р.п. Рудня, ул.Толстого, д. 72",х,дети,0,1,1,1,0,https://zhit-vmeste.ru/map/,50.7940444,44.5606167
31,26,"Муниципальное казенное образовательное учреждение ""Матышевская средняя общеобразовательная школа"" (дошкольная группа) Руднянского муниципального района Волгоградской области",детский сад,"Руднянский район, с. Матышево, ул.Московская, д. 60",х,дети,1,0,2,2,0,https://zhit-vmeste.ru/map/,50.8253066,44.1979621
32,27,"Муниципальное автономное дошкольное образовательное учреждение ""Светлоярский детский сад № 5"" Светлоярского муниципального района Волгоградской области",детский сад,"Светлоярский район, р.п. Светлый Яр, ул. Мира, д. 3",х,дети ,2,2,2,2,2,https://zhit-vmeste.ru/map/,48.47576830000001,44.779811
33,28,"Муниципальное бюджетное дошкольное образовательное учреждение ""Светлоярский детский сад № 7"" Светлоярского муниципального района Волгоградской области",детский сад,"Светлоярский район, р.п. Светлый Яр, микрорайон № 1, д. 22 а",х,дети ,2,2,2,2,2,https://zhit-vmeste.ru/map/,48.47576830000001,44.779811
34,29,"Муниципальное дошкольное образовательное учреждение ""Детский сад ""Золотой петушок"" 
р.п. Средняя Ахтуба Среднеахтубинского района Волгоградской области
",детский сад,"Среднеахтубинский район, р.п. Средняя Ахтуба, ул. Октябрьская, д.89а",х,дети,1,1,1,1,1,https://zhit-vmeste.ru/map/,48.7166589,44.8621366
35,30,"Муниципальное дошкольное образовательное учреждение ""Детский сад ""Семицветик"" 
г. Краснослободска Среднеахтубинского района Волгоградской области

",детский сад,"Среднеахтубинский район, г. Краснослободск, пер. Дачный-50, 10",х,дети,1,1,1,1,0,https://zhit-vmeste.ru/map/,48.7049743,44.5711686
36,31,"Муниципальное дошкольное образовательное учреждение ""Детский сад ""Водник"" г. Краснослободска Среднеахтубинского района Волгоградской области ",детский сад,"Среднеахтубинский район, г. Краснослободск, ул. Шестакова, д. 5 а",х,дети,0,0,1,1,0,https://zhit-vmeste.ru/map/,48.70983589999999,44.573032
37,32,"Муниципальное общеобразовательное учреждение ""Средняя общеобразовательная школа"" х. Лебяжья Поляна Среднеахтубинского района Волгоградской области (дошкольные группы)",детский сад,"Среднеахтубинский район, х. Лебяжья Поляна, ул. Широкая, д. 7",х,дети,2,2,2,2,2,https://zhit-vmeste.ru/map/,48.76820590000001,44.703957
38,33,"Муниципальное автономное дошкольное образовательное учреждение ""Детский сад  ""Непоседа"" г. Суровикино Волгоградской области",детский сад,"Суровикинский район, г. Суровикино мкр. 1-й, д. 58",х,дети,1,1,1,1,1,https://zhit-vmeste.ru/map/,48.6102216,42.8528334
39,34,"Муниципальное автономное дошкольное образовательное учреждение ""Детский сад № 2 ""Сказка"" городского округа город Урюпинск Волгоградской области",детский сад,"Урюпинский район, г. Урюпинск, пр.Строителей, д. 6 ",х,дети,0,0,0,0,0,https://zhit-vmeste.ru/map/,50.7882176,42.05207559999999
40,35,"Муниципальное автономное дошкольное образовательное учреждение ""Детский сад 
№ 8 ""Чебурашка"" городского округа город Урюпинск Волгоградской области
",детский сад,"Урюпинский район, г. Урюпинск, ул.Октябрьская, д. 158",х,дети,1,1,2,2,2,https://zhit-vmeste.ru/map/,50.8133736,42.0019395
41,36,"Муниципальное дошкольное образовательное учреждение ""Шуруповский детский сад ""Дюймовочка"" Фроловского муниципального района Волгоградской области",детский сад,"Фроловский район, х. Шуруповский, ул. Седова, д. 11 а",х,дети,1,1,1,1,0,https://zhit-vmeste.ru/map/,49.7317887,43.7048843
42,37,"Муниципальное казенное общебразовательное учреждение ""Чернышковский детский сад № 1 ""Солнышко"" Чернышковского муниципального района Волгоградской области",детский сад,"Чернышковский район, р.п. Чернышковский, ул. Цимлянская, д. 12",х,дети,0,0,0,0,0,https://zhit-vmeste.ru/map/,48.42726560000001,42.2178657
43,38,"Муниципальное дошкольное образовательное учреждение ""Детский сад № 19 Ворошиловского района Волгограда""",детский сад,"г. Волгоград, ул. Козловская, д. 18 а",х,дети,2,1,2,2,1,https://zhit-vmeste.ru/map/,48.696951,44.493026
44,39,"Муниципальное дошкольное образовательное учреждение ""Центр развития ребенка № 6 Дзержинского района Волгограда""",детский сад,"г. Волгоград, ул. 8-й Воздушной Армии, д. 23 а",х,дети,0,0,0,2,2,https://zhit-vmeste.ru/map/,48.7547,44.49703299999999
45,40,"Муниципальное дошкольное образовательное учреждение ""Детский сад № 31 Дзержинского района Волгограда""",детский сад,"г. Волгоград, ул. им. Покрышкина, д. 5 ",х,     дети,1,2,2,2,2,https://zhit-vmeste.ru/map/,48.7461056,44.51123140000001
46,41,"Муниципальное дошкольное образовательное учреждение ""Детский сад № 32 Дзержинского района Волгограда""",детский сад,"г. Волгоград, ул. Космонавтов, д. 30 а",х,дети,1,2,2,2,2,https://zhit-vmeste.ru/map/,48.764483,44.5080694
47,42,"Муниципальное дошкольное образовательное учреждение ""Детский сад № 32 Дзержинского района Волгограда""",детский сад,"г. Волгоград, ул. Восточно-Казахстанская, д. 4",х,дети,2,2,2,2,2,https://zhit-vmeste.ru/map/,48.7644002,44.4986207
48,43,"Муниципальное дошкольное образовательное учреждение ""Детский сад № 3 Кировского района Волгограда""",детский сад,"г. Волгоград, ул. гвардии майора Маресьева, зд. 2",х,дети,2,2,1,0,1,https://zhit-vmeste.ru/map/,48.708048,44.5133034
49,44,"Муниципальное дошкольное образовательное учреждение ""Детский сад № 377 Кировского района Волгограда""",детский сад,"г. Волгоград, ул. Колосовая, зд. 6 а",х,дети,0,2,1,1,1,https://zhit-vmeste.ru/map/,48.595254,44.4210368
50,45,"Муниципальное дошкольное образовательное учреждение ""Детский сад № 279 Красноармейского района Волгограда""",детский сад,"г. Волгоград, ул. 50 лет Октября, д. 9",х,дети,0,0,0,2,0,https://zhit-vmeste.ru/map/,48.5183159,44.5600541
51,46,"Муниципальное дошкольное образовательное учреждение ""Детский сад № 374 Красноармейского района Волгограда""",детский сад,"г. Волгоград, б-р им. Энгельса, д. 12",х,дети,0,0,0,2,2,https://zhit-vmeste.ru/map/,48.51427349999999,44.5417502
52,47,"Муниципальное дошкольное образовательное учреждение ""Детский сад № 165 Краснооктябрьского района Волгограда""",детский сад,"г. Волгоград, пос. Мирный, д. 69 а",х,дети,1,1,3,2,2,https://zhit-vmeste.ru/map/,48.788021,44.577169
53,48,"Муниципальное дошкольное образовательное учреждение ""Детский сад № 283 Краснооктябрьского района Волгограда""",детский сад,"г. Волгоград, ул. им. генерала Штеменко, д. 12 а",х,дети,1,1,0,0,0,https://zhit-vmeste.ru/map/,48.7745098,44.5635233
54,49,"Муниципальное дошкольное образовательное учреждение ""Детский сад № 375 Краснооктябрьского района Волгограда""",детский сад,"г. Волгоград, ул. Триумфальная, д. 20",,дети,0,0,1,0,0,https://zhit-vmeste.ru/map/,48.7835535,44.5573044
55,50,"Муниципальное дошкольное образовательное учреждение ""Детский сад № 7 ""Долина детства"" Советского района Волгограда""",детский сад,"г. Волгоград, ул. им. полковника Добрушина, д. 3",х,дети,0,0,1,0,1,https://zhit-vmeste.ru/map/,48.6600414,44.4111564
56,51,"Муниципальное дошкольное образовательное учреждение ""Детский сад № 7 ""Долина детства"" Советского района Волгограда""
",детский сад,"г. Волгоград, ул. им. полковника Добрушина, д. 27",х,дети,0,1,1,1,1,https://zhit-vmeste.ru/map/,48.6620236,44.4079839
57,52,"Муниципальное дошкольное образовательное учреждение ""Детский сад № 8 Советского района Волгограда""",детский сад,"г. Волгоград, пос. Горная Поляна, ул.им. Григория Засекина, д. 3 ",х,дети,0,0,1,0,1,https://zhit-vmeste.ru/map/,48.6306678,44.3968834
58,53,"Муниципальное дошкольное образовательное учреждение ""Детский сад № 36 Советского района Волгограда""",детский сад,"г. Волгоград, ул. им. Маршала Воронова, д. 16",х,дети,2,2,2,2,2,https://zhit-vmeste.ru/map/,48.64505399999999,44.411707
59,54,"Муниципальное дошкольное образовательное учреждение ""Детский сад № 246 Советского района Волгограда""",детский сад,"г. Волгоград, ул. Даугавская, д. 7",х,дети,2,2,2,2,2,https://zhit-vmeste.ru/map/,48.6571626,44.4409231
60,55,"Муниципальное дошкольное образовательное учреждение ""Детский сад № 201 Тракторозаводского района Волгограда""",детский сад," Волгоград, ул. Героев Тулы, д. 11 а",х,дети,1,1,2,2,1,https://zhit-vmeste.ru/map/,48.840234,44.644457
61,56,"Муниципальное дошкольное образовательное учреждение ""Детский сад № 220 Тракторозаводского района Волгограда""",детский сад,"г. Волгоград, ул. Загорская, д. 11",х,дети,0,0,0,1,0,https://zhit-vmeste.ru/map/,48.7903398,44.5892819
62,57,"Муниципальное дошкольное образовательное учреждение ""Детский сад № 47 Центрального района Волгограда""",детский сад,"г. Волгоград, ул. Советская, д. 28",х,дети,2,2,2,2,0,https://zhit-vmeste.ru/map/,48.7136795,44.5303665
63,58,"Муниципальное дошкольное образовательное учреждение ""Детский сад № 71 Центрального района Волгограда""",детский сад,"г. Волгоград, ул. 7-й Гвардейской, д. 7",х,дети,0,0,2,0,0,https://zhit-vmeste.ru/map/,48.76227009999999,44.5317924
64,59,"Муниципальное дошкольное образовательное учреждение ""Детский сад № 97 Центрального района  Волгограда""",детский сад,"г. Волгоград, ул. Новороссийская, д. 30",х,дети,0,2,2,0,2,https://zhit-vmeste.ru/map/,48.7178214,44.5151966
65,60,"Муниципальное дошкольное образовательное учреждение ""Детский сад № 2 ""Калейдоскоп"" г. Волжского Волгоградской области""",детский сад,"г. Волжский, ул. им. Ю.П. Харламова, д. 6",х,дети,2,2,2,2,2,https://zhit-vmeste.ru/map/,48.7633562,44.7886511
66,61,"Муниципальное дошкольное образовательное учреждение ""Детский сад № 3 ""Вундеркинд""
г. Волжского Волгоградской области""
",детский сад,"г. Волжский, пр. им. Ленина, д. 403",х,дети,1,1,1,1,1,https://zhit-vmeste.ru/map/,48.7495784,44.8047183
67,62,"Муниципальное дошкольное образовательное учреждение ""Детский сад № 3 ""Вундеркинд""
г. Волжского Волгоградской области""
",детский сад,"г. Волжский, п. Металлург, ул. Иртышская, д.16",х,дети,1,1,1,1,1,https://zhit-vmeste.ru/map/,48.7351914,44.8258014
68,63,"Муниципальное дошкольное образовательное учреждение ""Детский сад № 8 ""Матрешка""
г. Волжского Волгоградской области""
",детский сад,"г. Волжский, ул. Волжской Военной Флотилии, д. 74",х,дети,1,1,1,1,1,https://zhit-vmeste.ru/map/,48.7551105,44.8251658
69,64,"Муниципальное дошкольное образовательное учреждение ""Детский сад № 65 ""Калинка""
г. Волжского Волгоградской области""
",детский сад,"г. Волжский, пр. им. Ленина, д. 125",х,дети,1,0,1,1,0,https://zhit-vmeste.ru/map/,48.778729,44.7618057
70,65,"Муниципальное дошкольное образовательное учреждение ""Детский сад № 5 ""Улыбка""                             г. Волжского Волгоградской области"" ",детский сад,"г. Волжский, пр. Дружбы, д. 125",х,дети,0,0,2,2,0,https://zhit-vmeste.ru/map/,48.7563685,44.813183
71,66,"Муниципальное дошкольное образовательное учреждение ""Детский сад № 92 ""Черемушка""
г. Волжского Волгоградской области""
",детский сад,"г. Волжский, ул. Пушкина, д. 146",х,дети,1,1,1,1,1,https://zhit-vmeste.ru/map/,48.7721873,44.8133637
72,67,"Муниципальное дошкольное образовательное учреждение ""Детский сад № 104 ""Звоночек"" г. Волжского Волгоградской области"" ",детский сад,"г. Волжский, ул. Пушкина, д. 164",х,дети,1,1,2,1,2,https://zhit-vmeste.ru/map/,48.767134,44.81895
73,68,"Муниципальное дошкольное образовательное учреждение ""Детский сад № 107 ""Искорка""
г. Волжского Волгоградской области""
",детский сад,"г. Волжский, 
ул. 40 лет Победы, д. 74
",х,дети,0,0,2,0,2,https://zhit-vmeste.ru/map/,48.760228,44.820354
74,69,"Муниципальное дошкольное образовательное учреждение ""Детский сад № 112 ""Почемучки""
г. Волжского Волгоградской области""
",детский сад,"г. Волжский, ул. Оломоуцкая, д. 6",х,дети,0,0,2,1,1,https://zhit-vmeste.ru/map/,48.7566183,44.7954698
75,70,"Муниципальное бюджетное общеобразовательное учреждение ""Алексеевская средняя школа имени И.В. Мушкетова"" Алексеевского муниципального района Волгоградской области",школа,"Алексеевский район, ст. Алексеевская, ул. Ленина, д. 44 а",х,дети,2,2,0,0,0,https://zhit-vmeste.ru/map/,50.2929627,42.1836052
76,71,"Муниципальное казенное общеобразовательное учреждение ""Быковская средняя школа № 1 имени Героя России Арефьева Сергея Анатольевича"" Быковского муниципального района Волгоградской области",школа,"Быковский район, р.п. Быково, ул.Мира, д. 23 а",х,дети,0,0,2,2,0,https://zhit-vmeste.ru/map/,49.77236809999999,45.3876692
77,72,"Муниципальное казенное общеобразовательное учреждение ""Быковская средняя школа № 3"" Быковского муниципального района Волгоградской области",школа,"Быковский район, р.п. Быково, ул.Щербакова, д. 3",х,дети,0,0,2,2,0,https://zhit-vmeste.ru/map/,49.7667516,45.3841451
78,73,"Муниципальное казенное общеобразовательное учреждение ""Красносельцевская средняя школа"" Быковского муниципального района Волгоградской области",школа,"Быковский район, с. Красноселец, ул.Новостройка, д. 18",х,дети,0,0,2,2,0,https://zhit-vmeste.ru/map/,49.6608321,45.7378157
79,74,"Муниципальное казенное общеобразовательное учреждение ""Новоникольская средняя школа"" Быковского муниципального района Волгоградской области",школа,"Быковский район, с. Новоникольское, ул. Шурухина, д. 40",х,дети,0,0,0,0,0,https://zhit-vmeste.ru/map/,49.1948702,45.0128522
80,75,"Муниципальное казенное общеобразовательное учреждение ""Приморская средняя школа с углубленным изучением отдельных предметов им. Героя Советского Союза Семенова П.А."" Быковского муниципального района Волгоградской области",школа,"Быковский район, п. Приморск, ул.Пионерская, д. 6",х,дети,0,0,0,0,0,https://zhit-vmeste.ru/map/,49.2680248,45.0321868
81,76,"Муниципальное бюджетное общеобразовательное учреждение ""Городищенская средняя школа № 1""",школа,"Городищенский район, р.п. Городище, ул. Чуйкова, д. 6 а",х,дети,1,1,0,0,0,https://zhit-vmeste.ru/map/,48.8079407,44.4781778
82,77,"Муниципальное бюджетное общеобразовательное учреждение ""Новорогачинская средняя школа""",школа,"Городищенский район, р.п. Новый Рогачик, ул. Озерная, д. 2",х,дети,1,1,0,0,0,https://zhit-vmeste.ru/map/,48.67313000000001,44.0554633
83,78,"Муниципальное бюджетное общеобразовательное учреждение ""Новожизненская средняя школа""",школа,"Городищенский район, п. Областной сельскохозяйственной опытной станции, ул. Дачная, д. 103",х,дети,1,1,0,0,0,https://zhit-vmeste.ru/map/,48.8821233,44.3876764
84,79,"Муниципальное бюджетное общеобразовательное учреждение ""Ерзовская средняя школа имени Героя Советского Союза Гончарова Петра Алексеевича""",школа,"Городищенский район, р.п. Ерзовка, ул. Школьная, д. 2",х,дети,1,1,0,0,0,https://zhit-vmeste.ru/map/,48.9349827,44.63550679999999
85,80,"Муниципальное бюджетное общеобразовательное учреждение ""Россошинская средняя школа имени Героя Советского Союза И.Ф. Бибишева""",школа,"Городищенский район, п. Степной, ул.Центральная, д. 1",х,дети,2,2,0,0,0,https://zhit-vmeste.ru/map/,48.8522132,44.2202145
86,81,Муниципальное казенное общеобразовательное учреждение Березовская кадетская (казачья) средняя школа-интернат Даниловского муниципального района Волгоградской области,школа-интернат,"Даниловский район, ст. Березовская,           ул. Центральная, д. 7",х,дети,0,1,1,1,0,https://zhit-vmeste.ru/map/,56.0373026,93.1267384
87,82,Муниципальное казенное общеобразовательное учреждение средняя школа № 1 г. Дубовки Дубовского муниципального района Волгоградской области,школа,"Дубовский район, г. Дубовка, ул.Советская, 62 (корпус 1)",х,дети,1,1,1,1,1,https://zhit-vmeste.ru/map/,49.0575834,44.8279795
88,83,Муниципальное казенное общеобразовательное учреждение средняя школа № 1 г. Дубовки Дубовского муниципального района Волгоградской области,школа,"Дубовский район, г. Дубовка, ул.Московская, 14 (корпус 2)",х,дети,1,1,1,1,1,https://zhit-vmeste.ru/map/,49.0507376,44.8315061
89,84,Муниципальное казенное общеобразовательное учреждение Прямобалкинская основная школа Дубовского муниципального района Волгоградской области,школа,"Дубовский район, с. Прямая Балка, ул.Мира, д. 32",х,дети,1,1,1,1,1,https://zhit-vmeste.ru/map/,49.2340538,44.7188344
90,85,Муниципальное казенное общеобразовательное учреждение Лозновская средняя школа Дубовского муниципального района Волгоградской области,школа,"Дубовский район, с. Лозное, ул.Республиканская, д. 1",х,дети,0,0,0,0,0,https://zhit-vmeste.ru/map/,49.2852146,44.4204022
91,86,Муниципальное казенное общеобразовательное учреждение Горнобалыклейская средняя школа Дубовского муниципального района Волгоградской области,школа,"Дубовский район, с. Горный Балыклей, ул. Пушкина, д. 18",х,дети,1,1,1,1,1,https://zhit-vmeste.ru/map/,49.5520436,45.0648126
92,87,Муниципальное бюджетное образовательное учреждение Иловлинская средняя общеобразовательная школа № 1 Иловлинского муниципального района Волгоградской области,школа,"Иловлинский район, р.п. Иловля, ул.Красноармейская, д. 39 а",х,дети,1,0,1,1,0,https://zhit-vmeste.ru/map/,49.3052798,43.9821255
93,88,Муниципальное бюджетное общеобразовательное учреждение средняя школа № 1 городского округа – город Камышин Волгоградской области,школа,"г. Камышин, ул. Республиканская, д. 36",х,дети,0,0,0,0,0,https://zhit-vmeste.ru/map/,50.08056389999999,45.4107449
94,89,Муниципальное бюджетное общеобразовательное учреждение средняя школа № 17 городского округа – город Камышин Волгоградской области,школа,"г. Камышин, ул. Некрасова, д. 13",х,дети,1,1,1,1,0,https://zhit-vmeste.ru/map/,50.0954156,45.4198277
95,90,Муниципальное бюджетное общеобразовательное учреждение средняя школа № 14 городского округа – город Камышин Волгоградской области,школа,"г. Камышин, ул. Мира, д. 21",х,дети,1,1,1,1,1,https://zhit-vmeste.ru/map/,50.1047641,45.415297
96,91,Муниципальное казенное общеобразовательное учреждение средняя школа № 31 г. Петров Вал Камышинского муниципального района Волгоградской области,школа,"Камышинский район, г. Петров Вал, ул. Пионерская, д. 14",х,дети,1,1,1,1,0,https://zhit-vmeste.ru/map/,50.1326697,45.2025205
97,92,"Муниципальное казенное общеобразовательное учреждение ""Преображенская средняя школа"" Киквидзенского района Волгоградской области",школа,"Киквидзенский район, ст.Преображенская, ул.Комсомольская, д. 25",х,дети,1,1,1,1,1,https://zhit-vmeste.ru/map/,50.7455969,43.0563602
98,93,"Муниципальное казенное общеобразовательное учреждение ""Мачешанская средняя школа"" ",школа,"Киквидзенский район, с. Мачеха, ул.Ленинская, д. 27",х,дети,1,1,1,1,1,https://zhit-vmeste.ru/map/,50.80093429999999,43.3045356
99,94,"Муниципальное казенное общеобразовательное учреждение ""Верхнебузиновская средняя школа"" Клетского муниципального района Волгоградской области",школа,"Клетский район, х. Верхняя Бузиновка, микрорайон Скопной, д. 19",х,дети,1,1,1,1,1,https://zhit-vmeste.ru/map/,49.0591224,43.2129909
100,95,"Муниципальное казенное общеобразовательное учреждение ""Верхнечеренская средняя школа"" Клетского муниципального района Волгоградской области",школа,"Клетский район, х. Верхнечеренский, ул. Центральная, д. 69",х,дети,1,1,1,1,1,https://zhit-vmeste.ru/map/,49.213232,42.6676752
101,96,"Муниципальное казенное общеобразовательное учреждение ""Захаровская средняя школа"" Клетского муниципального района Волгоградской области",школа,"Клетский район, х. Захаров, пер.Садовый, д. 2",х,дети,1,1,2,1,1,https://zhit-vmeste.ru/map/,49.1717091,42.9409475
102,97,"Муниципальное казенное общеобразовательное учреждение ""Калмыковская средняя школа"" Клетского муниципального района Волгоградской области",школа,"Клетский район, х. Калмыковский, ул.Школьная, д. 19",х,дети,0,0,0,0,0,https://zhit-vmeste.ru/map/,49.015846,42.802681
103,98,"Муниципальное казенное общеобразовательное учреждение ""Манойлинская средняя школа"" Клетского муниципального района Волгоградской области",школа,"Клетский район, х. Манойлин, ул.Школьная, д.12",х,дети,1,1,1,1,0,https://zhit-vmeste.ru/map/,49.0127323,42.9051028
104,99,"Муниципальное казенное общеобразовательное учреждение ""Перекопская средняя школа"" Клетского муниципального района Волгоградской области",школа,"Клетский район, х. Перекопка, ул.Центральная, д. 31",х,дети,1,0,0,0,0,https://zhit-vmeste.ru/map/,49.3573677,43.3356757
105,100,"Муниципальное казенное общеобразовательное учреждение ""Перелазовская средняя школа"" Клетского муниципального района Волгоградской области",школа,"Клетский район, х. Перелазовский, ул.Центральная, д. 1",х,дети,1,0,1,0,0,https://zhit-vmeste.ru/map/,49.141624,42.57336
106,101,"Муниципальное казенное общеобразовательное учреждение ""Клетская средняя школа"" Клетского муниципального района Волгоградской области",школа,"Клетский район, ст. Клетская, ул.Ленина, д. 32 а",х,дети,1,1,1,0,1,https://zhit-vmeste.ru/map/,49.3069277,43.0542141
107,102,"Муниципальное казенное общеобразовательное учреждение ""Кременская средняя школа"" Клетского муниципального района Волгоградской области",школа,"Клетский район, ст. Кременская, ул.Газовиков, д. 23",х,дети,0,0,0,1,0,https://zhit-vmeste.ru/map/,49.47773429999999,43.4570202
108,103,"Муниципальное казенное общеобразовательное учреждение ""Распопинская средняя школа"" Клетского муниципального района Волгоградской области",школа,"Клетский район, ст. Распопинская, пер.Б.Г. Ермака, д. 4",х,дети,1,1,1,1,1,https://zhit-vmeste.ru/map/,49.4034849,42.8670261
109,104,Муниципальное казенное общеобразовательное учреждение средняя школа № 2 г. Котельниково Волгоградской области,школа,"Котельниковский район, г.Котельниково, ул. Набережная, д. 14",х,дети,0,0,0,0,0,https://zhit-vmeste.ru/map/,47.6295474,43.1467667
110,105,"Муниципальное бюджетное общеобразовательное учреждение ""Средняя школа № 6 с углубленным изучением отдельных предметов г. Котово"" Котовского муниципального района Волгоградской области",школа,"Котовский район, г. Котово, ул.Синельникова, д. 2",х,дети,1,1,2,2,0,https://zhit-vmeste.ru/map/,50.3044734,44.8234577
111,106,"Муниципальное казенное общеобразовательное учреждение ""Ленинская средняя общеобразовательная школа № 1"" Ленинского муниципального района Волгоградской области",школа,"Ленинский район, г. Ленинск, ул.им.Ленина, д. 241",х,дети,2,2,2,2,2,https://zhit-vmeste.ru/map/,48.6943817,45.2016356
112,107,"Муниципальное казенное общеобразовательное учреждение ""Ленинская средняя общеобразовательная школа 
№ 3"" Ленинского муниципального района Волгоградской области
",школа,"Ленинский район, г. Ленинск, ул.им.Ленина, 33 а",х,дети,1,1,2,2,2,https://zhit-vmeste.ru/map/,48.71292099999999,45.1841917
113,108,"Муниципальное казенное общеобразовательное учреждение ""Средняя школа № 3 городского округа город Михайловка Волгоградской области""",школа,"г. Михайловка, ул. Мичурина, д. 26 а",х,дети,0,0,2,1,0,https://zhit-vmeste.ru/map/,50.0762898,43.22543690000001
114,109,"Муниципальное казенное общеобразовательное учреждение ""Средняя школа № 5 городского округа город Михайловка Волгоградской области""",школа,"г. Михайловка, ул. Энгельса, д. 20",х,дети,1,0,2,2,0,https://zhit-vmeste.ru/map/,50.0723142,43.2285458
115,110,"Муниципальное казенное общеобразовательное учреждение ""Средняя школа № 7 городского округа город Михайловка Волгоградской области""",школа,"г. Михайловка, ул. Энгельса, д. 19",х,дети,1,0,2,2,0,https://zhit-vmeste.ru/map/,50.0704573,43.230157
116,111,"Муниципальное казенное общеобразовательное учреждение ""Отрадненская средняя школа городского округа город Михайловка Волгоградской области""",школа,"Михайловский район, пос. Отрадное, ул. Чикунова, д. 24",х,дети,0,0,1,2,0,https://zhit-vmeste.ru/map/,50.0129209,43.1787113
117,112,"Муниципальное казенное общеобразовательное учреждение ""Нехаевская средняя школа"" Нехаевского муниципального района Волгоградской области",школа,"Нехаевский район, ст. Нехаевская, ул. Октябрьская, д. 54",х,дети,0,0,0,0,0,https://zhit-vmeste.ru/map/,50.405938,41.76523299999999
118,113,"Муниципальное общеобразовательное учреждение ""Средняя школа № 2"" г. Николаевска Волгоградской области",школа,"Николаевский район, г. Николаевск, ул. Свердлова, д. 30",х,дети,2,1,1,2,0,https://zhit-vmeste.ru/map/,50.0178068,45.4579144
119,114,"Муниципальное общеобразовательное учреждение ""Средняя школа № 3 с углубленным изучением отдельных предметов"" г. Николаевска Волгоградской области",школа,"Николаевский район, г. Николаевск, ул. Республиканская, д. 39",х,дети,0,0,0,0,0,https://zhit-vmeste.ru/map/,50.0328599,45.46754809999999
120,115,Муниципальное казенное образовательное учреждение Новоаннинская основная школа № 2 Новоаннинского муниципального района Волгоградской области,школа,"Новоаннинский район, г. Новоаннинский, ул. Калинина, д. 106",х,дети,0,0,0,0,0,https://zhit-vmeste.ru/map/,50.5129375,42.6628826
121,116,Муниципальное казенное образовательное учреждение Панфиловская средняя школа Новоаннинского муниципального района Волгоградской области,школа,"Новоаннинский район, п. Панфилово, ул. Рабочая, д. 21",х,дети,1,1,2,2,1,https://zhit-vmeste.ru/map/,50.404333,42.881542
122,117,"Муниципальное бюджетное общеобразовательное учреждение ""Новониколаевская средняя школа № 1 им. А.Н. Левченко"" Новониколаевского муниципального района Волгоградской области",школа,"Новониколаевский район, р.п. Новониколаевский, ул. Народная, д. 20",х,дети,0,0,1,0,0,https://zhit-vmeste.ru/map/,50.96219439999999,42.3718408
123,118,"Муниципальное бюджетное общеобразовательное учреждение ""Новониколаевская средняя школа № 2"" Новониколаевского муниципального района Волгоградской области",школа,"Новониколаевский район, р.п. Новониколаевский, ул. Первомайская, д. 1",х,дети,0,0,0,0,0,https://zhit-vmeste.ru/map/,50.963111,42.347222
124,119,"Муниципальное бюджетное общеобразовательное учреждение ""Новониколаевская средняя школа № 3"" Новониколаевского муниципального района Волгоградской области",школа,"Новониколаевский район, р.п. Новониколаевский, ул. Первомайская, д. 55",х,дети,0,0,0,0,0,https://zhit-vmeste.ru/map/,50.9704783,42.3643814
125,120,"Муниципальное казенное общеобразовательное учреждение ""Дуплятская средняя школа им. В.А. Кумскова"" Новониколаевского муниципального района Волгоградской области",школа,"Новониколаевский район, х. Дуплятский, ул. Центральная, д. 59",х,дети,0,0,0,0,0,https://zhit-vmeste.ru/map/,51.10290370000001,42.3489582
126,121,"Муниципальное бюджетное общеобразовательное учреждение ""Куликовская средняя школа"" Новониколаевского муниципального района Волгоградской области",школа,"Новониколаевский район, х. Куликовский, ул. Пролетарская, д. 34",х,дети,0,0,0,0,0,https://zhit-vmeste.ru/map/,50.839264,42.550945
127,122,"Муниципальное казенное общеобразовательное учреждение ""Серпомолотская средняя школа"" Новониколаевского муниципального района Волгоградской области",школа,"Новониколаевский район, п. Серп и молот, ул. Восточная, д. 9",х,дети ,1,0,0,0,0,https://zhit-vmeste.ru/map/,50.8475709,42.4924526
128,123,"Муниципальное казенное общеобразовательное учреждение ""Верхнекардаильская средняя школа"" Новониколаевского муниципального района Волгоградской области",школа,"Новониколаевский район, х. Верхнекардаильск, ул. Школьная, д. 23",х,дети ,0,0,0,0,0,https://zhit-vmeste.ru/map/,51.088334,42.665791
129,124,"Муниципальное казенное общеобразовательное учреждение ""Мирная средняя школа"" Новониколаевского муниципального района Волгоградской области",школа,"Новониколаевский район, п. Мирный, ул. Школьная, д. 17",х,дети,0,0,1,0,0,https://zhit-vmeste.ru/map/,50.97625499999999,42.6388296
130,125,"Муниципальное казенное общеобразовательное учреждение ""Хоперская средняя школа"" Новониколаевского муниципального района Волгоградской области",школа,"Новониколаевский район, п. Хоперский, ул. Советская, д. 20",х,дети,0,0,0,0,0,https://zhit-vmeste.ru/map/,51.0130194,42.79110970000001
131,126,"Муниципальное казенное общеобразовательное учреждение ""Красноармейская средняя школа"" Новониколаевского муниципального района Волгоградской области",школа,"Новониколаевский район, п. Красноармейский, ул. Школьная, д. 7",х,дети ,0,0,0,0,0,https://zhit-vmeste.ru/map/,47.00641599999999,42.210415
132,127,"Муниципальное казенное общеобразовательное учреждение ""Комсомольская средняя школа"" Новониколаевского муниципального района Волгоградской области",школа,"Новониколаевский район, п. Комсомольский, ул. Школьная, д. 1 а",х,дети ,0,0,0,0,0,https://zhit-vmeste.ru/map/,50.97625499999999,42.6388296
133,128,"Муниципальное казенное общеобразовательное учреждение ""Двойновская средняя школа"" Новониколаевского муниципального района Волгоградской области",школа,"Новониколаевский район,  х.Двойновский, пер. Школьный, д. 5",х,дети,0,0,0,0,0,https://zhit-vmeste.ru/map/,51.04498599999999,42.4660282
134,129,"Муниципальное бюджетное общеобразовательное учреждение ""Октябрьская средняя школа № 1"" Октябрьского муниципального района Волгоградской области",школа,"Октябрьский район,  р.п. Октябрьский, ул. им. Ю.Н. Небыкова, д. 2",х,дети,2,2,2,0,2,https://zhit-vmeste.ru/map/,47.9699296,43.64150129999999
135,130,"Муниципальное бюджетное общеобразовательное учреждение ""Октябрьская средняя школа № 2"" Октябрьского муниципального района Волгоградской области",школа,"Октябрьский район,  р.п. Октябрьский, ул. Ленина, д. 1",х,дети,1,2,1,2,2,https://zhit-vmeste.ru/map/,47.97122359999999,43.6443767
136,131,"Муниципальное казенное общеобразовательное учреждение ""Средняя школа № 2"" г. Палласовки Волгоградской области",школа,"Палласовский район, г. Палласовка, ул. Пугачева, д. 29",х,дети,2,2,2,2,2,https://zhit-vmeste.ru/map/,50.0498902,46.8908453
137,132,"Муниципальное казенное общеобразовательное учреждение ""Средняя школа № 11"" г. Палласовки Волгоградской области",школа,"Палласовский район, г. Палласовка, ул. Мира, д. 9",х,дети,2,2,2,2,2,https://zhit-vmeste.ru/map/,50.0411558,46.8926429
138,133,"Муниципальное казенное общеобразовательное учреждение ""Средняя школа № 17"" г. Палласовки Волгоградской области",школа,"Палласовский район, г. Палласовка, ул. Коммунистическая, д. 10",х,дети,2,2,2,2,2,https://zhit-vmeste.ru/map/,50.0516977,46.8817207
139,134,"Муниципальное казенное общеобразовательное учреждение ""Краснооктябрьская средняя школа имени В.Н. Фомина"" Палласовского муниципального района Волгоградской области",школа,"Палласовский район, п. Красный Октябрь, ул. Школьная, д. 1 а",х,дети,2,2,2,2,2,https://zhit-vmeste.ru/map/,49.9852145,46.5389849
140,135,"Муниципальное казенное общеобразовательное учреждение ""Савинская средняя школа"" Палласовского муниципального район Волгоградской области",школа,"Палласовский район, с. Савинка, ул. Иванчука, д. 65",х,дети,1,1,1,1,1,https://zhit-vmeste.ru/map/,50.0785274,47.1030771
141,136,"Муниципальное казенное общеобразовательное учреждение ""Щелканская средняя общеобразовательная школа ""Руднянского муниципального района",школа,"Руднянский район, р.п. Рудня, ул. Строителей, д. 2 а",х,дети,1,1,2,2,2,https://zhit-vmeste.ru/map/,50.8198677,44.5559351
142,137,"Муниципальное казенное общеобразовательное учреждение ""Лемешкинская средняя общеобразовательная школа"" Руднянского муниципального района",школа,"Руднянский район, с. Лемешкино, ул. Кирова, д. 99",х,дети ,1,1,2,2,2,https://zhit-vmeste.ru/map/,51.0060288,44.4730142
143,138,"Муниципальное казенное общеобразовательное учреждение ""Руднянская средняя общеобразовательная школа им. А.С. Пушкина"" Руднянского муниципального района",школа,"Руднянский район, р.п. Рудня, ул. Советская, д. 7",х,дети ,1,2,2,2,2,https://zhit-vmeste.ru/map/,50.79225,44.5597339
144,139,"Муниципальное казенное общеобразовательное учреждение ""Матышевская средняя общеобразовательная школа"" Руднянского муниципального района",школа,"Руднянский район, с. Матышево, ул. Московская, д. 58",х,дети ,1,2,1,1,0,https://zhit-vmeste.ru/map/,50.8253066,44.1979621
145,140,"Муниципальное казенное общеобразовательное учреждение ""Ильменская средняя общеобразовательная школа"" Руднянского муниципального района",школа,"Руднянский район, с. Ильмень, ул. Мира, д. 4",х,дети,1,1,2,2,2,https://zhit-vmeste.ru/map/,50.8383467,44.3982784
146,141,"Муниципальное казенное общеобразовательное учреждение ""Средняя школа № 1"" г. Серафимович Волгоградской области ",школа,"Серафимовичский район, г. Серафимович, ул. Пролетарская, д. 7",х,дети,0,0,0,0,0,https://zhit-vmeste.ru/map/,49.5845332,42.734634
147,142,"Муниципальное казенное общеобразовательное учреждение ""Зимняцкая средняя общеобразовательная школа"" Серафимовичского района Волгоградской области",школа,"Серафимовичский район, х. Зимняцкий, ул. Кирова, д. 37",х,дети,2,0,0,0,0,https://zhit-vmeste.ru/map/,49.7153793,42.8747347
148,143,"Муниципальное общеобразовательное учреждение ""Средняя общеобразовательная школа № 2"" г. Краснослободска",школа,"Среднеахтубинский район, г. Краснослободск, ул. Космонавтов, д. 16",х,дети,0,0,0,0,2,https://zhit-vmeste.ru/map/,48.7068441,44.5748246
149,144,"Муниципальное общеобразовательное учреждение ""Средняя общеобразовательная школа № 1"" р.п. Средняя Ахтуба",школа,"Среднеахтубинский район, р.п. Средняя Ахтуба, микрорайон 1",х,дети,2,1,2,1,1,https://zhit-vmeste.ru/map/,48.7193076,44.8573885
150,145,"Муниципальное общеобразовательное учреждение ""Средняя общеобразовательная школа № 3 имени М. Горького"" р.п. Средняя Ахтуба",школа,"Среднеахтубинский район, р.п. Средняя Ахтуба, ул. Садовая, д. 22",х,дети,1,1,1,1,1,https://zhit-vmeste.ru/map/,48.7002209,44.865612
151,146,"Муниципальное общеобразовательное учреждение ""Средняя общеобразовательная школа № 4"" г. Краснослободска",школа,"Среднеахтубинский район, г. Краснослободск, ул. Ленина, д. 164",х,дети,2,2,2,2,2,https://zhit-vmeste.ru/map/,48.7051702,44.5943025
152,147,"Муниципальное общеобразовательное учреждение ""Средняя общеобразовательная школа"" х. Клетский",школа,"Среднеахтубинский район, х. Клетский, ул. Школьная, д. 3",х,дети,2,1,2,1,1,https://zhit-vmeste.ru/map/,48.59889399999999,44.6973328
153,148,"Муниципальное казенное общеобразовательное учреждение ""Иловатская средняя школа"" ",школа,"Старополтавский район, с. Иловатка, ул. Школьная, д. 33",х,дети,0,0,0,1,0,https://zhit-vmeste.ru/map/,50.5127817,45.8821979
154,149,"Муниципальное казенное общеобразовательное учреждение ""Гмелинская средняя школа им. В.П. Агаркова"" ",школа,"Старополтавский район, с. Гмелинка, ул. Новостройка, д. 35",х,дети,0,0,0,1,0,https://zhit-vmeste.ru/map/,50.382307,46.900883
155,150,"Муниципальное казенное общеобразовательное учреждение ""Старополтавская средняя школа""",школа,"Старополтавский район, с. Старая Полтавка, ул. Победы, д. 90 а",х,дети,0,0,0,1,0,https://zhit-vmeste.ru/map/,50.4819977,46.4813567
156,151,"Муниципальное казенное общеобразовательное учреждение ""Харьковская средняя школа""",школа,"Старополтавский район, с. Харьковка, ул. Школьная, д. 1",х,дети,0,0,0,1,0,https://zhit-vmeste.ru/map/,50.4221359,46.8134114
157,152,"Муниципальное казенное общеобразовательное учреждение ""Новополтавская средняя школа имени А.Г. Кораблева"" ",школа,"Старополтавский район, с. Новая Полтавка, ул. 40 лет Победы, д. 1 а",х,дети,0,0,0,1,0,https://zhit-vmeste.ru/map/,50.4298009,46.3901238
158,153,"Муниципальное автономное общеобразовательное учреждение ""Гимназия"" городского округа город Урюпинск Волгоградской области ",гимназия,"Урюпинский район, г. Урюпинск, ул. Чапаева, д. 16",х,дети,1,1,1,1,1,https://zhit-vmeste.ru/map/,50.7913368,42.0000441
159,154,"Муниципальное автономное общеобразовательное учреждение ""Средняя школа № 7"" городского округа город Урюпинск Волгоградской области",школа,"Урюпинский район, г. Урюпинск, ул. Мичурина, д. 42",х,дети,1,1,1,1,1,https://zhit-vmeste.ru/map/,50.7896343,42.0241325
160,155,"Муниципальное бюджетное общеобразовательное учреждение ""Петровская средняя школа Урюпинского муниципального района Волгоградской области""",школа,"Урюпинский район, х. Петровский, ул. Ленина, д. 54 а",х,дети,1,1,2,2,0,https://zhit-vmeste.ru/map/,50.753252,41.9780065
161,156,"Муниципальное казенное общеобразовательное учреждение ""Средняя школа № 3"" им. А.С. Макаренко городского округа город Фролово",школа,"Фроловский район, г. Фролово, ул. Рабочая, д. 62",х,дети,1,0,2,2,2,https://zhit-vmeste.ru/map/,49.7677199,43.6751419
162,157,"Муниципальное казенное общеобразовательное учреждение ""Основная школа № 4 имени Ю.А. Гагарина"" городского округа город Фролово",школа,"Фроловский район, г. Фролово, ул. Гагарина, д. 23",х,дети,1,1,1,1,0,https://zhit-vmeste.ru/map/,49.7743307,43.6574684
163,158,"Муниципальное общеобразовательное учреждение ""Зеленовская средняя школа"" Фроловского муниципального района Волгоградской области",школа,"Фроловский район, п. Пригородный, ул. Подгорная, д. 300",х,дети,1,1,1,1,0,https://zhit-vmeste.ru/map/,49.8544413,43.7465784
164,159,"""Лычакская средняя школа"" филиал муниципального общеобразовательного учреждения ""Зеленовская средняя школа"" Фроловского муниципального района Волгоградской области",школа,"Фроловский район, п. Лычак, д. 353",х,дети,1,1,1,1,0,https://zhit-vmeste.ru/map/,49.8453512,43.7892529
165,160,"""Шуруповская основная школа"" филиал муниципального общеобразовательного учреждения ""Зеленовская средняя школа"" Фроловского муниципального района Волгоградской области",школа,"Фроловский район, х. Шуруповский, ул. Седова, д. 11 б",х,дети,1,1,1,1,0,https://zhit-vmeste.ru/map/,49.7317887,43.7048843
166,161,"Муниципальное казенное общеобразовательное учреждение ""Чернышковская средняя школа № 2"" Чернышковского муниципального района Волгоградской области",школа,"Чернышковский район, р.п. Чернышковский, ул. им. 2-ой Гвардейской Армии, д. 16",х,дети,0,0,1,0,0,https://zhit-vmeste.ru/map/,48.42726560000001,42.2178657
167,162,"Муниципальное общеобразовательное учреждение ""Гимназия № 4 Ворошиловского района Волгограда""",гимназия,"г. Волгоград, ул. Иркутская, д. 1",х,дети,2,2,2,2,1,https://zhit-vmeste.ru/map/,48.687546,44.48991909999999
168,163,"Муниципальное общеобразовательное учреждение ""Гимназия № 5 Ворошиловского района Волгограда""",гимназия,"г. Волгоград, ул. Пугачевская, д. 8",х,дети,2,2,2,2,1,https://zhit-vmeste.ru/map/,48.696564,44.5067593
169,164,"Муниципальное общеобразовательное учреждение ""Гимназия № 17 Ворошиловского района Волгограда""",гимназия,"г. Волгоград, ул. Ростовская, д. 4",х,дети,2,1,2,1,1,https://zhit-vmeste.ru/map/,48.7048175,44.4899087
170,165,"Муниципальное общеобразовательное учреждение ""Лицей № 6 Ворошиловского района Волгограда""",лицей,"г. Волгоград, ул. Социалистическая, д. 23",х,дети,2,2,2,2,2,https://zhit-vmeste.ru/map/,48.6975834,44.49217609999999
171,166,"Муниципальное общеобразовательное учреждение ""Лицей № 11 Ворошиловского района Волгограда""",лицей,"г. Волгоград, ул. Елецкая, д. 9 б",х,дети,1,1,2,1,1,https://zhit-vmeste.ru/map/,48.7000478,44.4814743
172,167,"Муниципальное общеобразовательное учреждение ""Начальная школа, реализующая адаптированные образовательные программы для детей с нарушением зрения, № 2 Ворошиловского района Волгограда""",школа,"г. Волгоград, ул. Ростовская, д. 2 а",х,дети,2,2,2,2,1,https://zhit-vmeste.ru/map/,48.70419500000001,44.4907012
173,168,"Муниципальное общеобразовательное учреждение ""Средняя школа № 11 Ворошиловского района Волгограда"" ",школа,"г. Волгоград, ул. Комитетская, д. 58",х,дети,2,2,2,2,1,https://zhit-vmeste.ru/map/,48.68919589999999,44.4703477
174,169,"Муниципальное общеобразовательное учреждение ""Средняя школа № 48 Ворошиловского района Волгограда""",школа,"г. Волгоград, ул. Ростовская, д. 15 а",х,дети,2,2,2,2,1,https://zhit-vmeste.ru/map/,48.7039,44.488354
175,170,"Муниципальное общеобразовательное учреждение ""Средняя школа № 123 Ворошиловского района Волгограда""",школа,"г. Волгоград, ул. Кузнецкая, д. 28",х,дети,2,2,2,2,1,https://zhit-vmeste.ru/map/,48.76255260000001,44.5559033
176,171,"Муниципальное общеобразовательное учреждение ""Средняя школа № 130 Ворошиловского района Волгограда""",школа,"г. Волгоград, ул. Рабоче-Крестьянская, д. 38",х,дети,2,2,2,2,1,https://zhit-vmeste.ru/map/,48.692008,44.490674
177,172,"Муниципальное общеобразовательное учреждение ""Лицей № 7 Дзержинского района Волгограда""",лицей,"г. Волгоград, ул. 51-й Гвардейской, д. 59",х,дети,2,2,2,2,2,https://zhit-vmeste.ru/map/,48.7663589,44.5276803
178,173,"Муниципальное общеобразовательное учреждение ""Лицей № 8 ""Олимпия"" Дзержинского района Волгограда""",лицей,"г. Волгоград, ул. им. 8-й Воздушной Армии, д. 27",х,дети,0,1,2,0,1,https://zhit-vmeste.ru/map/,48.7547592,44.4986189
179,174,"Муниципальное общеобразовательное учреждение ""Лицей № 9 Дзержинского района Волгограда""",лицей,"г. Волгоград, ул. им. 8-й Воздушной Армии, д. 26 а",х,дети,1,1,1,1,2,https://zhit-vmeste.ru/map/,48.751273,44.510132
180,175,"Муниципальное общеобразовательное учреждение ""Средняя школа с углубленным изучением отдельных предметов № 33 Дзержинского района Волгограда""",школа,"г. Волгоград, ул. им. Константина Симонова, д. 29",х,дети,1,1,1,1,1,https://zhit-vmeste.ru/map/,48.756065,44.50830819999999
181,176,"Муниципальное общеобразовательное учреждение ""Средняя школа № 40 Дзержинского района Волгограда""",школа,"г. Волгоград, ул. 51-й Гвардейской, д. 48",х,дети,0,0,1,1,0,https://zhit-vmeste.ru/map/,48.7663589,44.5276803
182,177,"Муниципальное общеобразовательное учреждение ""Средняя школа № 82 Дзержинского района Волгограда""",школа,"г. Волгоград, ул. Ангарская, д. 49",х,дети,1,1,1,0,2,https://zhit-vmeste.ru/map/,48.7188235,44.4774934
183,178,"Муниципальное общеобразовательное учреждение ""Средняя школа № 89 Дзержинского района Волгограда""",школа,"г. Волгоград, ул. Республиканская, д. 5",х,дети,1,1,0,0,2,https://zhit-vmeste.ru/map/,48.770473,44.4807919
184,179,"Муниципальное общеобразовательное учреждение ""Средняя школа № 96 Дзержинского района Волгограда""",школа,"г. Волгоград, ул. Рионская, д. 14",х,дети,1,1,1,1,1,https://zhit-vmeste.ru/map/,48.73781289999999,44.4886429
185,180,"Муниципальное общеобразовательное учреждение ""Средняя школа № 102 Дзержинского района Волгограда""",школа,"г. Волгоград, б-р 30-летия Победы, д. 66 а",х,дети,1,1,1,1,1,https://zhit-vmeste.ru/map/,48.7503354,44.5008634
186,181,"Муниципальное общеобразовательное учреждение ""Средняя школа № 128 Дзержинского района Волгограда""",школа,"г. Волгоград, ул. им. Гейне, д. 7",х,дети,1,1,2,1,1,https://zhit-vmeste.ru/map/,48.76038680000001,44.481819
187,182,"Муниципальное общеобразовательное учреждение ""Гимназия № 9 Кировского района Волгограда""",гимназия,"г. Волгоград, ул. им. Писемского, д. 38",х,дети,2,2,1,0,1,https://zhit-vmeste.ru/map/,48.5813308,44.4341747
188,183,"Муниципальное общеобразовательное учреждение ""Гимназия № 10 Кировского района Волгограда""",гимназия,"г. Волгоград, ул. 64 Армии, д. 63",х,дети,2,2,1,0,1,https://zhit-vmeste.ru/map/,48.6018159,44.4200812
189,184,"Муниципальное общеобразовательное учреждение ""Лицей № 10 Кировского района Волгограда""",лицей,"г. Волгоград, ул. им. Кирова, д. 141",х,дети,2,2,1,0,1,https://zhit-vmeste.ru/map/,48.6153756,44.429824
190,185,"Муниципальное общеобразовательное учреждение ""Средняя школа № 24 имени Героя Советского Союза А.В. Федотова Кировского района Волгограда""",школа,"г. Волгоград, ул. им. Кирова, д. 94 б",х,дети,2,2,1,0,1,https://zhit-vmeste.ru/map/,48.594822,44.424428
191,186,"Муниципальное общеобразовательное учреждение ""Средняя школа № 56 Кировского района Волгограда""",школа,"г. Волгоград, ул. им. Кирова, д. 128 б",х,дети,2,2,1,0,1,https://zhit-vmeste.ru/map/,48.6154339,44.4277926
192,187,"Муниципальное общеобразовательное учреждение ""Основная школа № 59 имени полного кавалера ордена Славы Н.П. Красюкова Кировского района Волгограда"" ",школа,"г. Волгоград, пос. Веселая Балка, д. 62 а",х,дети,2,2,1,0,1,https://zhit-vmeste.ru/map/,48.5519426,44.4434332
193,188,"Муниципальное общеобразовательное учреждение ""Средняя школа № 77 Кировского района Волгограда"" ",школа,"г. Волгоград, ул. им. гвардии майора Маресьева, д. 4",х,дети,2,2,1,1,1,https://zhit-vmeste.ru/map/,48.708048,44.5133034
194,189,"Муниципальное общеобразовательное учреждение ""Средняя школа № 100 Кировского района Волгограда""",школа,"г. Волгоград, ул. Турбинная, д. 182",х,дети,2,2,1,0,1,https://zhit-vmeste.ru/map/,48.6151462,44.4184844
195,190,"Муниципальное общеобразовательное учреждение ""Средняя школа № 112 Кировского района Волгограда""",школа,"г. Волгоград, ул. Алычевая, д. 1 а",х,дети,2,2,1,0,1,https://zhit-vmeste.ru/map/,48.5823945,44.4174138
196,191,"Муниципальное общеобразовательное учреждение ""Гимназия № 6 Красноармейского района Волгограда""",гимназия,"г. Волгоград, ул. Изобильная, д. 16",х,дети,1,2,2,2,2,https://zhit-vmeste.ru/map/,48.5094277,44.5491489
197,192,"Муниципальное общеобразовательное учреждение ""Гимназия № 8 Красноармейского района Волгограда""",гимназия,"г. Волгоград, ул. Удмуртская, д. 18",х,дети,1,1,2,2,2,https://zhit-vmeste.ru/map/,48.517289,44.568437
198,193,"Муниципальное общеобразовательное учреждение ""Лицей № 1 Красноармейского района Волгограда""",лицей,"г. Волгоград, ул. Брестская, д. 15",х,дети,1,1,0,0,0,https://zhit-vmeste.ru/map/,48.5095287,44.5662168
199,194,"Муниципальное общеобразовательное учреждение ""Лицей № 4 Красноармейского района Волгограда""",лицей,"г. Волгоград, ул. 50 лет Октября, д. 23",х,дети,0,0,2,2,2,https://zhit-vmeste.ru/map/,48.5230517,44.5576236
200,195,"Муниципальное общеобразовательное учреждение ""Средняя школа № 31 Красноармейского района Волгограда""",школа,"г. Волгоград, ул. им. Фадеева, д. 1",х,дети,2,0,0,2,2,https://zhit-vmeste.ru/map/,48.708048,44.5133034
201,196,"Муниципальное общеобразовательное учреждение ""Средняя школа с углубленным изучением отдельных предметов № 38 Красноармейского района Волгограда""",школа,"г. Волгоград, пр. им. Столетова, 50 а",х,дети,1,1,2,2,2,https://zhit-vmeste.ru/map/,48.5071479,44.5673337
202,197,"Муниципальное общеобразовательное учреждение ""Средняя школа № 75 Красноармейского района Волгограда""",школа,"г. Волгоград, ул. Пролетарская, д. 9",х,дети,1,0,2,2,2,https://zhit-vmeste.ru/map/,48.5195918,44.5408061
203,198,"Муниципальное общеобразовательное учреждение ""Средняя школа № 117 Красноармейского района Волгограда""",школа,"г. Волгоград, ул. 2-я Штурманская, д. 22",х,дети,1,0,2,0,0,https://zhit-vmeste.ru/map/,48.523289,44.599773
204,199,"Муниципальное общеобразовательное учреждение ""Средняя школа № 134 ""Дарование"" Красноармейского района Волгограда""",школа,"г. Волгоград, ул. им. Вучетича, д. 17",х,дети,1,0,2,0,2,https://zhit-vmeste.ru/map/,48.708048,44.5133034
205,200,"Муниципальное общеобразовательное учреждение ""Гимназия № 12 Краснооктябрьского района Волгограда""",гимназия,"г. Волгоград, ул. им. маршала Еременко, 116 а",х,дети,1,0,1,0,2,https://zhit-vmeste.ru/map/,48.7787917,44.5614684
206,201,"Муниципальное общеобразовательное учреждение ""Гимназия № 14 Краснооктябрьского района Волгограда""",гимназия,"г. Волгоград, пр. им. В.И. Ленина, д. 121",х,дети,2,2,2,2,2,https://zhit-vmeste.ru/map/,48.7758651,44.5698647
207,202,"Муниципальное общеобразовательное учреждение ""Лицей № 2 Краснооктябрьского района Волгограда""",лицей,"г. Волгоград, ул. Богунская, д. 18",х,дети,1,1,1,2,2,https://zhit-vmeste.ru/map/,48.7728158,44.5531505
208,203,"Муниципальное общеобразовательное учреждение ""Школа-интернат Краснооктябрьского района Волгограда""",школа-интернат,"г. Волгоград, ул. им. маршала Еременко, д. 57",х,дети,0,0,0,0,0,https://zhit-vmeste.ru/map/,48.7905786,44.5760774
209,204,"Муниципальное общеобразовательное учреждение ""Средняя школа № 5 Краснооктябрьского района Волгограда""",школа,"г. Волгоград, ул. им. Репина, д. 19",х,дети,0,0,0,0,2,https://zhit-vmeste.ru/map/,48.7639339,44.5447482
210,205,"Муниципальное общеобразовательное учреждение ""Средняя школа № 16 Краснооктябрьского района Волгограда""",школа,"г. Волгоград, пр. им. В.И. Ленина, д. 133",х,дети,0,1,1,1,0,https://zhit-vmeste.ru/map/,48.779249,44.5748526
211,206,"Муниципальное общеобразовательное учреждение ""Средняя школа № 35 Краснооктябрьского района Волгограда""",школа,"г. Волгоград, ул. Таращанцев, д. 11",х,дети,0,0,0,0,0,https://zhit-vmeste.ru/map/,48.769579,44.5557765
212,207,"Муниципальное общеобразовательное учреждение ""Средняя школа № 92 Краснооктябрьского района Волгограда""",школа,"г. Волгоград, ул. им. Вершинина, д. 5 а",х,дети,1,1,2,1,1,https://zhit-vmeste.ru/map/,48.708048,44.5133034
213,208,"Муниципальное общеобразовательное учреждение ""Средняя школа № 95 Краснооктябрьского района Волгограда""",школа,"г. Волгоград, пр. им. В.И. Ленина, д. 151 а",х,дети,1,0,1,0,0,https://zhit-vmeste.ru/map/,48.785056,44.5827874
214,209,"Муниципальное общеобразовательное учреждение ""Гимназия № 15 Советского района Волгограда""",гимназия,"г. Волгоград, ул. им. академика Королева, д. 1 а",х,дети,2,2,2,2,2,https://zhit-vmeste.ru/map/,48.6486663,44.43941359999999
215,210,"Муниципальное общеобразовательное учреждение ""Средняя школа № 15 Советского района Волгограда""",школа,"г. Волгоград, пос. Горьковский, ул. Волгоградская, д. 156",х,дети,0,0,0,0,0,https://zhit-vmeste.ru/map/,48.687955,44.3235344
216,211,"Муниципальное общеобразовательное учреждение ""Средняя школа № 55 ""Долина знаний"" Советского района Волгограда""",школа,"г. Волгоград, ул. им. полковника Добрушина, д. 1",х,дети,1,2,2,2,2,https://zhit-vmeste.ru/map/,48.658634,44.4094365
217,212,"Муниципальное общеобразовательное учреждение ""Средняя школа № 93 Советского района Волгограда""",школа,"г. Волгоград, ул. им. Тулака, д. 1",х,дети,0,0,0,0,0,https://zhit-vmeste.ru/map/,48.6739724,44.467185
218,213,"Муниципальное общеобразовательное учреждение ""Средняя школа с углубленным изучением отдельных предметов № 106 Советского района Волгограда""",школа,"г. Волгоград, ул. Тормосиновская, д. 23",х,дети,0,2,2,2,2,https://zhit-vmeste.ru/map/,48.6656104,44.4334279
219,214,"Муниципальное общеобразовательное учреждение ""Средняя школа № 111 Советского района Волгограда""",школа,"г. Волгоград, ул. им. Чебышева, д. 38",х,дети,0,0,0,0,0,https://zhit-vmeste.ru/map/,48.6724656,44.4495186
220,215,"Муниципальное общеобразовательное учреждение ""Средняя школа № 129 Советского района Волгограда"" ",школа,"г. Волгоград, ул. Даугавская, д. 5 а (корпус 1)",х,дети,0,0,1,0,0,https://zhit-vmeste.ru/map/,48.656064,44.441384
221,216,"Муниципальное общеобразовательное учреждение ""Средняя школа № 129 Советского района Волгограда"" ",школа,"г. Волгоград, пос. Горный, ул. им. Сёмушкина, д. 2 (корпус 2)",х,дети,1,1,1,1,1,https://zhit-vmeste.ru/map/,48.5813232,44.2083833
222,217,"Муниципальное общеобразовательное учреждение ""Средняя школа № 46 имени гвардии генерал-майора В.А. Глазкова Советского района Волгограда""",школа,"г. Волгоград, пос. Верхняя Ельшанка, ул. А. Навои, д. 2",х,дети,2,2,2,2,2,https://zhit-vmeste.ru/map/,48.6883849,44.413713
223,218,"Муниципальное общеобразовательное учреждение ""Гимназия № 13 Тракторозаводского района Волгограда""",гимназия,"г. Волгоград, ул. им. Быкова, д. 1",х,дети,0,1,0,2,0,https://zhit-vmeste.ru/map/,48.708048,44.5133034
224,219,"Муниципальное общеобразовательное учреждение ""Начальная школа, реализующая адаптированные образовательные программы для детей с нарушением зрения, № 1 Тракторозаводского района Волгограда""",школа,"г. Волгоград, ул. Николая Отрады, д. 38",х,дети,1,1,0,0,0,https://zhit-vmeste.ru/map/,48.820968,44.638512
225,220,"Муниципальное общеобразовательное учреждение ""Средняя школа № 3 Тракторозаводского района Волгограда""",школа,"г. Волгоград, пр. им. В.И. Ленина, 197 б",х,дети,1,1,0,0,0,https://zhit-vmeste.ru/map/,48.7935066,44.5971985
226,221,"Муниципальное общеобразовательное учреждение ""Средняя школа № 18 Тракторозаводского района Волгограда""",школа,"г. Волгоград, ул. им. академика Богомольца, д. 18",х,дети,1,1,1,1,0,https://zhit-vmeste.ru/map/,48.8243453,44.6321233
227,222,"Муниципальное общеобразовательное учреждение ""Средняя школа № 26 Тракторозаводского района Волгограда""",школа,"г. Волгоград, ул. им. Дзержинского, д. 68 а",х,дети,0,0,0,0,0,https://zhit-vmeste.ru/map/,48.708048,44.5133034
228,223,"Муниципальное общеобразовательное учреждение ""Средняя школа № 27 Тракторозаводского района Волгограда""",школа,"г. Волгоград, ул. им. Менжинского, д. 6",х,дети,0,0,0,0,0,https://zhit-vmeste.ru/map/,48.708048,44.5133034
229,224,"Муниципальное общеобразовательное учреждение ""Средняя школа № 51 имени Героя Советского Союза А.М. Числова Тракторозаводского района Волгограда"" ",школа,"г. Волгоград, ул. им. Кропоткина, д. 9",х,дети,0,0,0,0,0,https://zhit-vmeste.ru/map/,48.708048,44.5133034
230,225,"Муниципальное общеобразовательное учреждение ""Средняя школа № 61 Тракторозаводского района Волгограда""",школа,"г. Волгоград, ул. им. Грамши, д. 39",х,дети,0,0,1,1,1,https://zhit-vmeste.ru/map/,48.708048,44.5133034
231,226,"Муниципальное общеобразовательное учреждение ""Средняя школа № 87 Тракторозаводского района Волгограда""",школа,"г. Волгоград, ул. им. Колумба, д. 1",х,дети,0,0,0,0,0,https://zhit-vmeste.ru/map/,48.708048,44.5133034
232,227,"Муниципальное общеобразовательное учреждение ""Средняя школа с углубленным изучением отдельных предметов № 94 Тракторозаводского района Волгограда""",школа,"г. Волгоград, ул. Метростроевская, д. 3 а",х,дети,0,0,0,0,0,https://zhit-vmeste.ru/map/,48.7984223,44.5863436
233,228,"Муниципальное общеобразовательное учреждение ""Средняя школа № 99 имени дважды Героя Советского Союза А.Г. Кравченко Тракторозаводского района Волгограда""",школа,"г. Волгоград, ул. Загорская, д. 17",х,дети,1,0,2,1,0,https://zhit-vmeste.ru/map/,48.78861089999999,44.58734159999999
234,229,"Муниципальное общеобразовательное учреждение ""Гимназия № 1 Центрального района Волгограда""",гимназия,"г. Волгоград, ул. Ткачева, д. 10 а",х,дети,0,2,2,0,2,https://zhit-vmeste.ru/map/,48.7216058,44.5207872
235,230,"Муниципальное общеобразовательное учреждение ""Средняя школа с углубленным изучением отдельных предметов № 6 Центрального района Волгограда""",школа,"г. Волгоград, ул. Хиросимы, д. 10",х,дети,0,2,2,0,2,https://zhit-vmeste.ru/map/,48.7248507,44.5219471
236,231,"Муниципальное общеобразовательное учреждение ""Средняя школа № 19 Центрального района Волгограда""",школа,"г. Волгоград, ул. Советская, д. 24",х,дети,0,2,2,0,2,https://zhit-vmeste.ru/map/,48.7094175,44.52728399999999
237,232,"Муниципальное общеобразовательное учреждение ""Средняя школа с углубленным изучением отдельных предметов № 44 Центрального района Волгограда""",школа,"г. Волгоград, ул. им. Рокоссовского, д. 40",х,дети,0,2,2,0,2,https://zhit-vmeste.ru/map/,48.72035220000001,44.5125646
238,233,"Муниципальное общеобразовательное учреждение ""Средняя школа с углубленным изучением отдельных предметов № 81 Центрального района Волгограда""",школа,"г. Волгоград, ул. Школьная, д. 11",х,дети,0,2,2,0,2,https://zhit-vmeste.ru/map/,48.7249031,44.53131579999999
239,234,"Муниципальное общеобразовательное учреждение ""Средняя школа с углубленным изучением отдельных предметов № 81 Центрального района Волгограда""",школа,"г. Волгоград, ул. им. Чуйкова, д. 13",х,дети,0,2,2,0,2,https://zhit-vmeste.ru/map/,48.7066202,44.5223863
240,235,"Муниципальное общеобразовательное учреждение ""Средняя школа № 84 Центрального района Волгограда""",школа,"г. Волгоград, ул. Коммунистическая, д. 60",х,дети,0,2,2,2,2,https://zhit-vmeste.ru/map/,48.72107,44.530638
241,236,"Муниципальное общеобразовательное учреждение ""Лицей № 1 г. Волжского Волгоградской области""",лицей,"г. Волжский, ул. 40 лет Победы, д. 59",х,дети,2,2,2,2,2,https://zhit-vmeste.ru/map/,48.7606507,44.8109573
242,237,"Муниципальное общеобразовательное учреждение ""Средняя школа с углубленным изучением отдельных предметов № 2 г. Волжского Волгоградской области""",школа,"г. Волжский, ул. им. Карла Маркса, д. 13",х,дети,1,1,2,1,1,https://zhit-vmeste.ru/map/,48.8176494,44.7707294
243,238,"Муниципальное общеобразовательное учреждение ""Средняя школа № 3 г. Волжского Волгоградской области""",школа,"г. Волжский, ул. Прибрежная, д. 91",х,дети,1,1,1,1,1,https://zhit-vmeste.ru/map/,48.7733782,44.77141109999999
244,239,"Муниципальное общеобразовательное учреждение ""Средняя школа № 5 г. Волжского Волгоградской области""",школа,"г. Волжский, ул. С.Р. Медведева, д. 79",х,дети,1,1,2,1,0,https://zhit-vmeste.ru/map/,48.75415049999999,44.8318833
245,240,"Муниципальное общеобразовательное учреждение ""Средняя школа № 6 г. Волжского Волгоградской области""",школа,"г. Волжский, ул. Н. Нариманова, д. 27",х,дети,1,1,2,1,1,https://zhit-vmeste.ru/map/,48.7804168,44.7961012
246,241,"Муниципальное общеобразовательное учреждение ""Средняя школа № 10 г. Волжского Волгоградской области""",школа,"г. Волжский, ул. им. Аркадия Гайдара, д. 7",х,дети,1,1,2,2,2,https://zhit-vmeste.ru/map/,48.8176494,44.7707294
247,242,"Муниципальное общеобразовательное учреждение ""Средняя школа с углубленным изучением отдельных предметов № 12 г. Волжского Волгоградской области""",школа,"г. Волжский, ул. Пионерская, д. 1",х,дети,2,2,2,2,2,https://zhit-vmeste.ru/map/,48.7733548,44.7810307
248,243,"Муниципальное общеобразовательное учреждение ""Средняя школа № 14 ""Зеленый шум"" г. Волжского Волгоградской области""",школа,"г. Волжский, ул. Космонавтов, д. 19",х,дети,2,2,2,1,1,https://zhit-vmeste.ru/map/,48.7961081,44.7514143
249,244,"Муниципальное общеобразовательное учреждение ""Средняя школа № 17 имени К. Нечаевой г. Волжского Волгоградской области""",школа,"г. Волжский, ул. Клавы Нечаевой, д. 10 (корпус 1)",х,дети,1,1,1,1,2,https://zhit-vmeste.ru/map/,48.772349,44.8106014
250,245,"Муниципальное общеобразовательное учреждение ""Средняя школа № 17 имени К. Нечаевой г. Волжского Волгоградской области""",школа,"г. Волжский, ул. Клавы Нечаевой, д. 7 (корпус 2)",х,дети,2,2,2,2,2,https://zhit-vmeste.ru/map/,48.773376,44.810023
251,246,"Муниципальное общеобразовательное учреждение ""Средняя школа № 18 имени Героя Советского Союза Д.М. Карбышева г. Волжского Волгоградской области""",школа,"г. Волжский, ул. им. Генерала Карбышева, д. 40",х,дети,1,1,2,1,1,https://zhit-vmeste.ru/map/,48.790024,44.7605612
252,247,"Муниципальное общеобразовательное учреждение ""Средняя школа с углубленным изучением отдельных предметов № 19 г. Волжского Волгоградской области""",школа,"г. Волжский, ул. Советская, д. 39",х,дети,2,2,2,2,2,https://zhit-vmeste.ru/map/,48.7842461,44.7592448
253,248,"Муниципальное общеобразовательное учреждение ""Средняя школа № 22 г. Волжского Волгоградской области""",школа,"г. Волжский, ул. Академика Королева, д. 6",х,дети,2,2,2,2,2,https://zhit-vmeste.ru/map/,48.77991429999999,44.7625164
254,249,"Муниципальное общеобразовательное учреждение ""Средняя школа № 23 имени 87 Гвардейской стрелковой дивизии г. Волжского Волгоградской области""",школа,"г. Волжский, ул. Набережная, д. 12",х,дети,1,1,1,1,1,https://zhit-vmeste.ru/map/,48.8176494,44.7707294
255,250,"Муниципальное общеобразовательное учреждение ""Средняя школа  № 24 имени Героя Российской Федерации М.С. Аплеталина г. Волжского Волгоградской области""",школа,"г. Волжский, ул. Пушкина, д. 64 (корпус 1)",х,дети,1,1,1,1,1,https://zhit-vmeste.ru/map/,48.787878,44.7770376
256,251,"Муниципальное общеобразовательное учреждение ""Средняя школа  № 24 имени Героя Российской Федерации М.С. Аплеталина г. Волжского Волгоградской области""",школа,"г. Волжский, ул. Пушкина, д. 44 (корпус 2)",х,дети,1,1,1,1,1,https://zhit-vmeste.ru/map/,48.7926139,44.7684601
257,252,"Муниципальное общеобразовательное учреждение ""Средняя школа № 27 имени С.В. Лежнева г. Волжского Волгоградской области""",школа,"г. Волжский, пр. Дружбы, д. 9",х,дети,2,2,2,2,2,https://zhit-vmeste.ru/map/,48.77815709999999,44.7833517
258,253,"Муниципальное общеобразовательное учреждение ""Средняя школа № 28 г. Волжского Волгоградской области""",школа,"г. Волжский, пр. Дружбы, д. 36",х,дети,1,1,1,1,1,https://zhit-vmeste.ru/map/,48.7715243,44.7876626
259,254,"Муниципальное общеобразовательное учреждение ""Средняя школа № 34 г. Волжского Волгоградской области""",школа,"г. Волжский, ул. 40 лет Победы, д. 80",х,дети,1,1,1,1,1,https://zhit-vmeste.ru/map/,48.762225,44.821171
260,255,"Муниципальное общеобразовательное учреждение ""Средняя школа № 35 им. Дубины В.П. г. Волжского Волгоградской области""",школа,"г. Волжский, ул. 40 лет Победы, д. 37",х,дети,1,1,2,1,1,https://zhit-vmeste.ru/map/,48.7575177,44.80459219999999
261,256,"Муниципальное общеобразовательное учреждение ""Гимназия г. Волжского Волгоградской области""",гимназия,"г. Волжский, ул. 40 лет Победы, д. 48",х,дети,2,1,2,2,1,https://zhit-vmeste.ru/map/,48.7557029,44.8075799
262,257,"Государственное казенное общеобразовательное учреждение ""Дубовская школа-интернат""",школа-интернат,"Дубовский район, г. Дубовка, ул. Санджирова, д. 24",х,дети,2,2,2,2,0,https://zhit-vmeste.ru/map/,49.0528848,44.8356904
263,258,"Государственное казенное общеобразовательное учреждение ""Красноярская школа-интернат""",школа-интернат,"Жирновский район, р.п. Красный Яр, ул. Центральная, д. 17",х,дети,0,0,0,0,0,https://zhit-vmeste.ru/map/,50.6978498,44.7341132
264,259,"Государственное казенное общеобразовательное учреждение ""Котовская школа-интернат""",школа-интернат,"Котовский район, г. Котово, ул. Чапаева, д. 3",х,дети,1,1,1,1,0,https://zhit-vmeste.ru/map/,50.3182773,44.8049711
265,260,"Государственное казенное общеобразовательное учреждение ""Слащевская школа-интернат""",школа-интернат,"Кумылженский район, ст. Слащевская, ул. Свободы, д. 13",х,дети,2,2,2,2,2,https://zhit-vmeste.ru/map/,49.889142,42.369636
266,261,"Государственное казенное общеобразовательное учреждение ""Ленинская школа-интернат""",школа-интернат,"Ленинский р-н, г. Ленинск, ул. им. Ленина, д. 21",х,дети,2,2,2,1,1,https://zhit-vmeste.ru/map/,48.7143375,45.183147
267,262,"Государственное казенное общеобразовательное учреждение ""Михайловская школа-интернат""",школа-интернат,"г. Михайловка, ул. Двинская, д. 1",х,дети,2,2,0,2,0,https://zhit-vmeste.ru/map/,50.072964,43.2180146
268,263,"Государственное казенное общеобразовательное учреждение ""Лемешкинская школа-интернат""",школа-интернат,"Руднянский район, с. Лемешкино, ул. Кирова, д. 96",х,дети,2,2,2,2,2,https://zhit-vmeste.ru/map/,51.0060288,44.4730142
269,264,"Государственное казенное общеобразовательное учреждение ""Серафимовичская школа-интернат""",школа-интернат,"Серафимовичский район, г. Серафимович, ул. Макридина, д. 8",х,       дети,2,2,2,2,0,https://zhit-vmeste.ru/map/,49.5845332,42.734634
270,265,"Государственное казенное общеобразовательное учреждение ""Среднеахтубинская школа-интернат""",школа-интернат,"Среднеахтубинский район, р.п. Средняя Ахтуба, ул. Воровского, д. 12",х,дети,1,0,2,2,0,https://zhit-vmeste.ru/map/,48.7057377,44.8761728
271,266,"Государственное казенное общеобразовательное учреждение ""Нижнечирская школа-интернат""",школа-интернат,"Суровикинский район, ст. Нижний Чир, ул. Панчишкиной, д. 15",х,дети,2,0,1,0,0,https://zhit-vmeste.ru/map/,48.356194,43.0893509
272,267,"Государственное казенное общеобразовательное учреждение ""Урюпинская школа""",школа,"Урюпинский район, г. Урюпинск, ул. Пушкина, д. 50",х,дети,1,1,1,1,0,https://zhit-vmeste.ru/map/,50.8032938,41.9949598
273,268,"Государственное казенное общеобразовательное учреждение ""Тепикинская школа-интернат""",школа-интернат,"Урюпинский район, ст. Тепикинская, ул. Центральная, д. 51",х,дети,2,2,2,2,2,https://zhit-vmeste.ru/map/,50.6604459,41.9049003
274,269,"Государственное казенное общеобразовательное учреждение ""Волгоградская школа-интернат № 1""",школа-интернат,"г. Волгоград, ул. им. Циолковского, д. 38",х,дети,2,2,2,2,0,https://zhit-vmeste.ru/map/,48.708048,44.5133034
275,270,"Государственное казенное общеобразовательное учреждение ""Волгоградская школа-интернат № 2""",школа-интернат,"г. Волгоград, ул. им. Хорошева, д. 18 а ",х,дети,0,0,1,0,0,https://zhit-vmeste.ru/map/,48.7481907,44.5071527
276,271,"Государственное казенное общеобразовательное учреждение ""Волгоградская школа-интернат № 5""",школа-интернат,"г. Волгоград, пр. им. Столетова, д. 16",х,дети,2,2,2,2,0,https://zhit-vmeste.ru/map/,48.512608,44.5761637
277,272,"Государственное казенное общеобразовательное учреждение ""Волгоградская школа-интернат № 7""",школа-интернат,"г. Волгоград, ул. Криворожская, д. 1",х,дети,1,1,1,1,1,https://zhit-vmeste.ru/map/,48.6679786,44.43709279999999
278,273,"Государственное казенное общеобразовательное учреждение ""Волгоградская школа дифференцированного обучения""",школа-интернат,"г. Волгоград, ул. Богунская, д. 38",х,дети,2,2,2,2,2,https://zhit-vmeste.ru/map/,48.7756115,44.54214289999999
279,274,"Государственное казенное общеобразовательное учреждение ""Волгоградская школа дифференцированного обучения""",школа-интернат,"г. Волгоград, ул. им. Качалова, д. 42 а",х,дети,1,1,0,1,0,https://zhit-vmeste.ru/map/,48.708048,44.5133034
280,275,"Государственное казенное общеобразовательное учреждение ""Волгоградская школа-интернат ""Надежда""",школа-интернат,"г. Волгоград, ул. Лимоновая, д. 1",х,дети,1,1,1,1,1,https://zhit-vmeste.ru/map/,48.5824296,44.4207167
281,276,"Государственное бюджетное общеобразовательное учреждение ""Волгоградская школа-интернат ""Созвездие""",школа-интернат,"г. Волгоград, ул. Большая, д. 17 ",х,дети,0,0,2,2,1,https://zhit-vmeste.ru/map/,48.7191781,44.4851541
282,277,"Государственное казенное общеобразовательное учреждение ""Волгоградский центр образования детей-инвалидов""",центр образования детей-инвалидов,"г. Волгоград, ул. 64 Армии, д. 36 а",х,дети,0,0,0,0,0,https://zhit-vmeste.ru/map/,48.6169178,44.4250384
283,278,"Государственное казенное общеобразовательное учреждение ""Волжская школа-интернат""",школа-интернат,"г. Волжский, ул. Ташкентская, д. 3",х,дети,2,2,2,2,2,https://zhit-vmeste.ru/map/,48.9028717,44.7757627
284,279,"Государственное казенное общеобразовательное учреждение ""Волжская школа № 1""",школа,"г. Волжский, б-р Профсоюзов, д. 12",х,дети,1,1,1,1,0,https://zhit-vmeste.ru/map/,48.7763179,44.7786755
285,280,"Государственное казенное общеобразовательное учреждение ""Волжская школа № 2""",школа,"г. Волжский, ул. Мира, д. 106",х,дети,2,1,1,0,0,https://zhit-vmeste.ru/map/,48.762625,44.811467
286,281,"Государственное бюджетное учреждение для детей, нуждающихся в психолого-педагогической и медико-социальной помощи, ""Волгоградский областной центр психолого-медико-социального сопровождения""",центр психолого-медико-социального сопровождения,"г. Волгоград, ул. 64 Армии, 111 а",х,дети,2,2,2,2,2,https://zhit-vmeste.ru/map/,48.613649,44.421095
287,282,"Муниципальное бюджетное образовательное учреждение дополнительного образования ""Еланский дворец творчества"" Еланского муниципального района Волгоградской области",дворец творчества,"Еланский район, р.п. Елань, ул. Ленинская, д. 63",х,дети,0,0,1,0,0,https://zhit-vmeste.ru/map/,50.9458852,43.7479162
288,283,"Муниципальное бюджетное учреждение дополнительного образования ""Жирновский центр детского творчества"" Жирновского муниципального района Волгоградской области",центр детского творчества,"Жирновский район, г. Жирновск, ул. Советская, д. 25",х,дети,0,0,1,1,0,https://zhit-vmeste.ru/map/,50.980866,44.780527
289,284,"Муниципальное бюджетное учреждение ""Центр по работе с детьми и молодежью ""Спектр"" городского округа – город Камышин",центр по работе с детьми и молодежью,"г. Камышин, 5 микрорайон, д. 63 а",х,все возрастные категории,0,0,0,0,0,https://zhit-vmeste.ru/map/,50.0917427,45.3671081
290,285,"Муниципальное бюджетное образовательное учреждение ""Детско-юношеский центр"" городского округа – город Камышин",детско-юношеский центр,"г. Камышин, ул. Героя Советского Союза В.А. Федоркова, д. 2",х,все возрастные категории,1,1,1,1,1,https://zhit-vmeste.ru/map/,50.0917129,45.4183358
291,286,"Муниципальное бюджетное учреждение дополнительного образования ""Центр детского творчества г. Котово "" Котовского муниципального района Волгоградской области",центр детского творчества,"Котовский район, г. Котово, ул. Мира, д. 120 а",х,дети,1,1,2,2,0,https://zhit-vmeste.ru/map/,50.3194883,44.8060625
292,287,"Муниципальное образовательное учреждение дополнительного образования ""Центр детского творчества городского округа город Михайловка Волгоградской области""",центр детского творчества,"г. Михайловка, ул. 2-я Краснознаменская, д. 53",х,дети,0,0,1,2,0,https://zhit-vmeste.ru/map/,50.0695206,43.2247136
293,288,Муниципальное казенное учреждение дополнительного образования Нехаевская детско-юношеская спортивная школа Нехаевского муниципального района Волгоградской области,детско-юношеская спортивная школа,"Нехаевский район, ст. Нехаевская, ул. Октябрьская, д. 48 ",х,дети,0,0,0,0,0,https://zhit-vmeste.ru/map/,50.405938,41.76523299999999
294,289,"Муниципальное бюджетное образовательное учреждение дополнительного образования ""Новониколаевский центр спорта и творчества""",центр спорта и творчества,"Новониколаевский район, р.п. Новониколаевский, ул. Народная, д. 83 а",х,дети ,1,0,0,0,0,https://zhit-vmeste.ru/map/,50.9749785,42.3660033
295,290,"Муниципальное бюджетное учреждение дополнительного образования детей ""Новорогачинская детско-юношеская спортивная школа""",детско-юношеская спортивная школа,"Городищенский район, р.п. Новый Рогачик, ул. Ленина, д. 52",х,дети,1,1,0,0,0,https://zhit-vmeste.ru/map/,48.6790031,44.0539902
296,291,"Муниципальное казенное учреждение дополнительного образования ""Руднянский центр детского творчества"" Руднянского муниципального района",центр детского творчества,"Руднянский район, р.п. Рудня, ул. Октябрьская, д. 43",х,дети ,0,0,0,1,1,https://zhit-vmeste.ru/map/,50.7957759,44.5514253
297,292,"Муниципальное автономное учреждение дополнительного образования ""Детско- юношеская спортивная школа № 1"" городского округа город Урюпинск Волгоградской области",детско- юношеская спортивная школа,"Урюпинский район, г. Урюпинск, ул. Советская, д. 65",х,дети ,0,1,1,2,1,https://zhit-vmeste.ru/map/,50.80509,41.9975911
298,293,"Муниципальное учреждение дополнительного образования ""Центр детского творчества Кировского района Волгограда""",центр детского творчества,"г. Волгоград, ул. К. Минина, д. 12 а",х,дети,2,2,1,1,1,https://zhit-vmeste.ru/map/,48.610295,44.42468299999999
299,294,"Муниципальное учреждение дополнительного образования ""Дворец творчества детей и молодежи Красноармейского района Волгограда"" ",дворец творчества детей и молодежи,"г. Волгоград, ул. им. Вучетича, д. 15",х,дети,1,1,1,1,2,https://zhit-vmeste.ru/map/,48.708048,44.5133034
300,295,"Муниципальное учреждение дополнительного образования ""Детско-юношеский центр Краснооктябрьского района Волгограда""",детско-юношеский центр,"г. Волгоград, ул. им. Кузнецова, д. 43",х,все возрастные категории,1,1,2,1,1,https://zhit-vmeste.ru/map/,48.708048,44.5133034
301,296,"Муниципальное учреждение дополнительного образования ""Детско-юношеский центр Советского района Волгограда""",детско-юношеский центр,"г. Волгоград, ул. им. Ухтомского, д. 2",х,"дети, взрослые трудоспособного возраста",0,0,0,0,0,https://zhit-vmeste.ru/map/,48.6629185,44.4456944
302,297,"Муниципальное бюджетное учреждение дополнительного образования ""Дворец творчества ""Русинка""",дворец творчества,"г. Волжский, ул. Набережная, д. 4",х,"дети, взрослые трудоспособного возраста",2,1,2,1,1,https://zhit-vmeste.ru/map/,48.8176494,44.7707294
303,298,"Муниципальное бюджетное учреждение дополнительного образования ""Дворец творчества ""Русинка""",дворец творчества,"г. Волжский, пр. Дружбы, д. 55",х,"дети, взрослые трудоспособного возраста",1,1,1,2,2,https://zhit-vmeste.ru/map/,48.768608,44.7996679
304,299,"Государственное бюджетное детское оздоровительное учреждение Волгоградской области ""Зеленая волна""",детский лагерь,"Дубовский район, г. Дубовка",х,дети,2,2,2,2,2,https://zhit-vmeste.ru/map/,49.05455740000001,44.8272057
306,301,"Государственное бюджетное профессиональное образовательное учреждение ""Волгоградский профессиональный техникум кадровых ресурсов""",техникум кадровых ресурсов,"г. Волгоград, ул. Краснополянская, д. 11 (учебный корпус)",х,"дети, взрослые трудоспособного возраста",1,1,1,0,0,https://zhit-vmeste.ru/map/,48.770876,44.47742299999999
307,302,"Государственное бюджетное профессиональное образовательное учреждение ""Волгоградский профессиональный техникум кадровых ресурсов""",техникум кадровых ресурсов,"г. Волгоград, ул. Краснополянская, д. 11 (мастерская)",х,"дети, взрослые трудоспособного возраста",1,1,1,1,1,https://zhit-vmeste.ru/map/,48.770876,44.47742299999999
308,303,"Государственное бюджетное профессиональное образовательное учреждение ""Волгоградский профессиональный техникум кадровых ресурсов""",техникум кадровых ресурсов,"г. Волгоград, пер. Школьный, д. 1 (учебный корпус)",х,"дети, взрослые трудоспособного возраста",1,1,1,0,0,https://zhit-vmeste.ru/map/,48.607927,44.4187325
309,304,"Государственное бюджетное профессиональное образовательное учреждение ""Волгоградский социально-педагогический колледж""",колледж,"г. Волгоград, ул. Кутузовская, д. 5 ",х,"дети, взрослые трудоспособного возраста",2,2,1,1,0,https://zhit-vmeste.ru/map/,48.7707248,44.49147689999999
310,305,"Государственное бюджетное учреждение дополнительного образования Волгоградской области ""Центр ""Славянка""",центр дополнительного образования,"г. Волгоград, ул. Коммунистическая, д. 60 (аренда)",х,дети,2,2,2,2,2,https://zhit-vmeste.ru/map/,48.72107,44.530638
311,306,"Государственное бюджетное учреждение дополнительного образования Волгоградской области ""Центр ""Славянка""",центр дополнительного образования,"г. Волгоград, ул. Таращанцев, д. 27 (аренда)",х,дети,2,2,2,2,2,https://zhit-vmeste.ru/map/,48.774228,44.5601129
312,307,"Государственное бюджетное учреждение Волгоградской области ""Центр молодежной политики""",центр молодежной политики,"г. Волгоград, ул. Пархоменко, д. 5",х,все возрастные категории,0,2,2,2,0,https://zhit-vmeste.ru/map/,48.7144998,44.5109168
314,1,"Государственное автономное учреждение дополнительного образования Волгоградской области ""Спортивная школа по  адаптивным видам спорта""",профилакторий,"400016, город Волгоград, проспект Волжский, 16а",х,все возрастные категории,2,0,2,0,0,https://zhit-vmeste.ru/map/,48.7767743,44.5920218
315,2,Государственное автономное учреждение дополительного образования Волгоградской области  «Спортивная школа по зимним видам спорта»,крытый тренировочный каток,"400137,                      
г. Волгоград, ул. 8-й Воздушной Армии, д. 7",х,все возрастные категории,1,1,1,1,1,https://zhit-vmeste.ru/map/,48.7473867,44.5060481
316,3,"Государственное автономное учреждение дополнительного образования Волгоградской области  «Спортивная школа по водным видам спорта ""Спартак-Волгоград""",спортивный центр с плавательным бассейном,"400137,                            
 г. Волгоград, ул.8-й Воздушной Армии, 12",х,все возрастные категории,1,1,1,1,1,https://zhit-vmeste.ru/map/,48.7483915,44.5092119
318,1,"Отделы занятости населения Дзержинского,  Ворошиловского и Центрального районов Государственное казенное учреждение  Центр занятости населения города .Волгограда",центр занятости,"400001 г.Волгоград, ул. Рабоче-Крестьянская д.16",х,все возрастные категории,0,0,0,0,0,https://zhit-vmeste.ru/map/,48.6964555,44.49749389999999
319,2,Государственное казенное учреждение Волгоградской области Центр занятости населения города Волжского,центр занятости,"404127, Волгоградская область, 
г. Волжский, 
ул. Мира, 
д. 36 г",х,все возрастные категории,0,0,0,0,0,https://zhit-vmeste.ru/map/,48.7765003,44.7975512
320,3,Государственное казенное учреждение Волгоградской области Центр занятости населения города Камышина,центр занятости,"403882                   г. Камышин, Волгоградской области, площадь Павших Борцов 9, помещение 38 ",х,все возрастные категории,0,0,0,0,0,https://zhit-vmeste.ru/map/,50.0863799,45.3995199
321,4,Государственное казенное учреждение Волгоградской области Центр занятости населения города Михайловки,центр занятости,"403343, Волгоградская область, 
г. Михайловка,
ул.Подгорная,д.6б",х,все возрастные категории,1,0,0,1,0,https://zhit-vmeste.ru/map/,50.07995620000001,43.2241391
322,5,Государственное казенное учреждение Волгоградской области Центр занятости населения города Урюпинска,центр занятости,"403110, Волгоградская область, 
г. Урюпинск, проспект Ленина, 
д. 141",х,все возрастные категории,1,1,1,0,0,https://zhit-vmeste.ru/map/,50.7946566,41.9894642
323,6,Государственное казенное учреждение Волгоградской области Центр занятости населения города Фролово,центр занятости,"403538, Волгоградская область, г. Фролово, ул. Пролетарская, 
д. 12
",х,все возрастные категории,0,0,0,0,2,https://zhit-vmeste.ru/map/,49.7663199,43.6422693
324,7,Государственное казенное учреждение Волгоградской области Центр занятости населения Алексеевского района,центр занятости,"403240, Волгоградская область, Алексеевский район, станица Алексеевская,
пер.Советский, д.28",х,все возрастные категории,1,1,1,2,2,https://zhit-vmeste.ru/map/,50.2899797,42.1853712
325,8,Государственное казенное учреждение Волгоградской области Центр занятости населения Быковского района,центр занятости,"404062, Волгоградская область, Быковский район, р.п. Быково, ул. Куйбышева, д.24/2
",х,все возрастные категории,2,2,2,2,2,https://zhit-vmeste.ru/map/,49.76347879999999,45.3980291
326,9,Государственное казенное учреждение Волгоградской области Центр занятости населения Городищенского  района,центр занятости,"403003, Волгоградская область, Городищенский район, 
п.г.т. Городище, 
ул. Маршала Чуйкова, д. 3",х,все возрастные категории,1,1,1,1,1,https://zhit-vmeste.ru/map/,48.8048688,44.4838456
327,10,Государственное казенное учреждение Волгоградской области Центр занятости населения Даниловского  района,центр занятости,"403370, Волгоградская область, Даниловский район, р.п. Даниловка, 
ул. Центральная, 
д. 95а
",х,все возрастные категории,2,1,2,2,1,https://zhit-vmeste.ru/map/,50.357033,44.1049547
328,11,Государственное казенное учреждение Волгоградской области Центр занятости населения Дубовского  района,центр занятости,"404002, Волгоградская область, 
Дубовский район, 
г. Дубовка, 
ул. Ленина, д. 6а",х,все возрастные категории,1,1,1,1,0,https://zhit-vmeste.ru/map/,49.0510276,44.83116829999999
329,12,Государственное казенное учреждение Волгоградской области Центр занятости населения Еланского  района,центр занятости,"403731, Волгоградская область, Еланский район, р.п. Елань, ул. Вокзальная, 
д. 18в
",х,все возрастные категории,1,1,1,1,0,https://zhit-vmeste.ru/map/,50.9569534,43.78524720000001
330,13,Государственное казенное учреждение Волгоградской области Центр занятости населения Жирновского  района,центр занятости,"403792, Волгоградская область, Жирновский район, г. Жирновск,
ул. Чехова, д. 20
",х,все возрастные категории,2,1,2,2,2,https://zhit-vmeste.ru/map/,50.978679,44.79333949999999
331,14,Государственное казенное учреждение Волгоградской области Центр занятости населения Иловлинского  района,центр занятости,"403071, Волгоградская область, Иловлинский район, р.п. Иловля, 
ул.Красноармейскаяд. 19а
",х,все возрастные категории,2,2,2,2,2,https://zhit-vmeste.ru/map/,49.3073949,43.9803402
332,15,Государственное казенное учреждение Волгоградской области Центр занятости населения Калачевского  района,центр занятости,"404503, Волгоградская область, Калачевский район, г. Калач-на-Дону, ул. Революционная, д. 375а
",х,все возрастные категории,1,1,1,1,1,https://zhit-vmeste.ru/map/,48.68022819999999,43.5351439
333,16,Государственное казенное учреждение Волгоградской области Центр занятости населения Киквидзенского  района,центр занятости,"403221, Волгоградская область, Киквидзенский района, станица Преображенская, 
ул. К. Маркса, д.50а
",х,все возрастные категории,2,2,2,2,2,https://zhit-vmeste.ru/map/,50.7399531,43.0591734
334,17,Государственное казенное учреждение Волгоградской области Центр занятости населения Клетского  района,центр занятости,"403560, Волгоградская область, Клетский район, 
станица Клетская, ул. Платонова, д. 15
",х,все возрастные категории,2,2,2,2,0,https://zhit-vmeste.ru/map/,49.195167,43.075465
335,18,Государственное казенное учреждение Волгоградской области Центр занятости населения Котельниковского  района,центр занятости,"404354, Волгоградская область, Котельниковский район, 
г. Котельниково, 
ул. Ленина, д. 12а",х,все возрастные категории,1,1,1,1,1,https://zhit-vmeste.ru/map/,47.6291137,43.1457346
336,19,Государственное казенное учреждение Волгоградской области Центр занятости населения Котовского  района,центр занятости,"403805, Волгоградская область, 
Котовский район, 
г. Котово, 
ул. Чапаева, д. 2а",х,все возрастные категории,1,0,0,0,0,https://zhit-vmeste.ru/map/,50.3184788,44.8049013
337,20,Государственное казенное учреждение Волгоградской области Центр занятости населения Кумылженского  района,центр занятости,"403401, Волгоградская область, Кумылженский район, станица Кумылженская, 
ул.Межколхозстроя, 
д. 1г",х,все возрастные категории,2,2,2,2,2,https://zhit-vmeste.ru/map/,49.8900753,42.5980624
338,21,Государственное казенное учреждение Волгоградской области Центр занятости населения Ленинского  района,центр занятости,"404620, Волгоградская область, 
Ленинский район, 
г. Ленинск, 
ул. Чапаева, д. 5
",х,все возрастные категории,1,1,1,1,1,https://zhit-vmeste.ru/map/,48.69293020000001,45.1988248
339,22,Государственное казенное учреждение Волгоградской области Центр занятости населения Нехаевского  района,центр занятости,"403171, Волгоградская область, 
Нехаевский район, станица Нехаевская, ул. Гагарина, д. 28
",х,все возрастные категории,2,1,2,2,1,https://zhit-vmeste.ru/map/,50.405938,41.76523299999999
340,23,Государственное казенное учреждение Волгоградской области Центр занятости населения Николаевского  района,центр занятости,"404033, Волгоградская область, Николаевский район, г. Николаевск, проезд Гастелло, д. 2а",х,все возрастные категории,0,0,0,0,0,https://zhit-vmeste.ru/map/,50.0362506,45.4458846
341,24,Государственное казенное учреждение Волгоградской области Центр занятости населения Новоаннинского  района,центр занятости,"403950, Волгоградская область, Новоаннинский район, 
г. Новоаннинский, пер. Володарского, д. 3",х,все возрастные категории,0,0,0,0,0,https://zhit-vmeste.ru/map/,50.52845929999999,42.6655387
342,25,Государственное казенное учреждение Волгоградской области Центр занятости населения Новониколаевского  района,центр занятости,"403901, Волгоградская область, Новониколаевский район,
р.п.Новониколаевс-кий, ул. Народная, 
д. 81а
",х,все возрастные категории,0,0,0,0,0,https://zhit-vmeste.ru/map/,50.9754567,42.3658723
343,26,Государственное казенное учреждение Волгоградской области Центр занятости населения Октябрьского  района,центр занятости,"404321, Волгоградская область, Октябрьский район, р.п. Октябрьский, ул. Ленина, д. 42
",х,все возрастные категории,2,2,2,2,2,https://zhit-vmeste.ru/map/,47.9680076,43.6507781
344,27,Государственное казенное учреждение Волгоградской области Центр занятости населения Палласовского  района,центр занятости,"403650, Волгоградская область, 
Ольховский район, с. Ольховка, 
ул. Советская, д. 4",х,все возрастные категории,1,1,1,1,1,https://zhit-vmeste.ru/map/,49.8560738,44.565229
345,28,Государственное казенное учреждение Волгоградской области Центр занятости населения Ольховского  района,центр занятости,"404260, Волгоградская область, Палласовский район, 
г. Палласовка, 
ул. Ильича, д. 13",х,все возрастные категории,2,2,2,2,2,https://zhit-vmeste.ru/map/,50.0510728,46.8870477
346,29,Государственное казенное учреждение Волгоградской области Центр занятости населения Руднянского  района,центр занятости,"403601, Волгоградская область, 
Руднянский район, р.п. Рудня, 
ул. Дорожная, д.9а",х,все возрастные категории,2,2,2,2,2,https://zhit-vmeste.ru/map/,50.7981199,44.5592343
347,30,Государственное казенное учреждение Волгоградской области Центр занятости населения Светлоярского  района,центр занятости,"404171, Волгоградская область, Светлоярский район,
р.п. Светлый Яр, 
ул. Спортивная,д.13",х,все возрастные категории,1,1,1,1,1,https://zhit-vmeste.ru/map/,48.4743307,44.7813181
348,31,Государственное казенное учреждение Волгоградской области Центр занятости населения Среднеахтубинского  района,центр занятости,"404143, Волгоградская область, Среднеахтубинский район, р.п. Средняя Ахтуба, 
ул. Ленина, д. 65
",х,все возрастные категории,2,2,2,0,0,https://zhit-vmeste.ru/map/,48.705631,44.8601949
349,32,Государственное казенное учреждение Волгоградской области Центр занятости населения Старополтавского  района,центр занятости,"404210, Волгоградская область, Старополтавский район, село Старая Полтавка, 
ул. Центральная, д.83а",х,все возрастные категории,1,0,2,2,2,https://zhit-vmeste.ru/map/,50.4756266,46.48268299999999
350,33,Государственное казенное учреждение Волгоградской области Центр занятости населения Суровикинского  района,центр занятости,"404415, Волгоградская область, Суровикинский район, 
г. Суровикино, 
пер. Школьный, д. 7

",х,все возрастные категории,0,0,0,0,0,https://zhit-vmeste.ru/map/,48.6040264,42.839875
351,34,Государственное казенное учреждение Волгоградской области Центр занятости населения Чернышковского  района,центр занятости,"404462, Волгоградская область, Чернышковский район, 
р.п.Чернышковский, ул. Волгоградская, д.14",х,все возрастные категории,1,1,1,1,1,https://zhit-vmeste.ru/map/,48.42726560000001,42.2178657
353,1,"ГБУЗ ""Волгоградский областной клинический центр медицинской реабилитации""",поликлиника,"г Михайловка, ул Обороны д.38",х,все возрастные категории,1,1,1,1,1,https://zhit-vmeste.ru/map/,50.0614228,43.2429223
354,2,"ГБУЗ ""Волгоградский областной клинический центр медицинской реабилитации""",поликлиника,"г Волжский, пр-кт им Ленина д.97",х,все возрастные категории,2,2,2,2,2,https://zhit-vmeste.ru/map/,48.7812829,44.7550359
355,3,"ГБУЗ ""Волгоградский областной клинический центр медицинской реабилитации""",поликлиника,"г. Волгоград, ул 64 Армии д.125",х,все возрастные категории,1,1,1,1,1,https://zhit-vmeste.ru/map/,48.6192546,44.4231322
356,4,"ГБУЗ ""Волгоградский областной клинический центр медицинской реабилитации""",поликлиника,"г. Волгоград, ул им Наумова д.4",х,все возрастные категории,1,1,1,1,1,https://zhit-vmeste.ru/map/,48.708048,44.5133034
357,5,"ГБУЗ ""Волгоградский областной клинический противотуберкулезный диспансер""",поликлиника,"г. Волгоград, ул им генерала Штеменко д.49",х,все возрастные категории,2,2,2,2,2,https://zhit-vmeste.ru/map/,48.7773468,44.55139459999999
358,6,"ГБУЗ ""Волгоградский областной клинический кожно-венерологический диспансер"" ",поликлиника,"г. Волжский, ул. Московская, 8",х,все возрастные категории,2,2,2,2,2,https://zhit-vmeste.ru/map/,48.8018864,44.7394188
359,7,"ГБУЗ ""Волгоградский областной клинический кожно-венерологический диспансер"" ",поликлиника,"г Михайловка, ул Пирогова д.80А  ",х,все возрастные категории,2,2,2,2,2,https://zhit-vmeste.ru/map/,50.0611446,43.23424199999999
360,8,"ГБУЗ ""Волгоградская областная клиническая больница № 1"", Волгоград ",поликлиника,"г Волгоград, ул Ангарская д.13 корп.20 (Сурдологический центр)",х,все возрастные категории,1,1,1,1,1,https://zhit-vmeste.ru/map/,48.7130757,44.48994219999999
361,9,"ГБУЗ ""Волгоградский областной клинический онкологический диспансер "", Волжский",поликлиника,"г Волжский, ул Комсомольская д.25",х,все возрастные категории,2,2,2,2,2,https://zhit-vmeste.ru/map/,48.8176494,44.7707294
362,10,"ГБУЗ ""Волгоградский областной клинический кожно-венерологический диспансер"" ",поликлиника,"г. Волгоград, ул. Обливская, 5",х,все возрастные категории,2,2,2,2,2,https://zhit-vmeste.ru/map/,48.7896006,44.5830799
363,11,"ГБУЗ ""Волгоградский областной клинический перинатальный центр № 1 им. Л.И. Ушаковой"", Волжский",больница," г Волжский, ул Пушкина д.12а",х,все возрастные категории,1,1,1,1,1,https://zhit-vmeste.ru/map/,48.8004684,44.753217
364,12,"ГБУЗ ""Волгоградская областная клиническая психиатрическая больница № 2"", Волгоград",поликлиника,"г Волгоград, ул им Бажова д.11",х,все возрастные категории,1,1,1,1,0,https://zhit-vmeste.ru/map/,48.708048,44.5133034
365,13,"ГБУЗ ""Волгоградская областная клиническая психиатрическая больница № 2"", Волгоград",больница," г Волгоград, пр-кт Университетский д.104",х,все возрастные категории,1,1,1,1,2,https://zhit-vmeste.ru/map/,48.63965289999999,44.4314156
366,14,"ГБУЗ ""Волгоградская областная клиническая больница № 1"", Волгоград",больница,"г Волгоград, ул Ангарская д.13С корп.11 (Хирургия)",х,взрослое население,0,0,2,0,0,https://zhit-vmeste.ru/map/,48.7142545,44.4895778
367,15,"ГБУЗ ""Волгоградский областной клинический центр медицинской реабилитации""",поликлиника,"г Волгоград, ул им Ломакина д.26",х,все возрастные категории,2,2,2,2,2,https://zhit-vmeste.ru/map/,48.708048,44.5133034
368,16,"ГБУЗ ""Волгоградский областной клинический госпиталь ветеранов войн"", Волгоград",больница,"г Волгоград, ул им Землячки д.82",х,пожилые,1,1,1,1,0,https://zhit-vmeste.ru/map/,48.7566847,44.5233127
369,17,"ГБУЗ ""Волгоградская областная клиническая больница № 1"", Волгоград",поликлиника,"г. Волгоград, ул Ангарская д.13, корп.23 ",х,все возрастные категории,1,1,1,1,1,https://zhit-vmeste.ru/map/,48.7142545,44.4895778
370,18,"ГУЗ ""Больница №16"", Волгоград",больница,"г. Волгоград, ул. Пятиморская, д. 7 ",х,все возрастные категории,1,1,1,1,1,https://zhit-vmeste.ru/map/,48.5113101,44.5807103
371,19,"ГБУЗ ""Городская больница №2"", Волжский",поликлиника,"г Волжский, ул Пушкина д.49",х,"взрослые трудоспособного возраста, пожилые",1,1,1,1,1,https://zhit-vmeste.ru/map/,48.789189,44.787667
372,20,"ГБУЗ ""Камышинская детская городская больница"", Камышин ",больница,"Волгоградская область, г.Камышин, ул. Мира, 6",х,дети,1,1,1,1,1,https://zhit-vmeste.ru/map/,50.1031943,45.414981
373,21,"ГУЗ ""Детская клиническая поликлиника № 15""",поликлиника,"г. Волгоград, пр. Жукова, 173",х,дети,1,1,1,0,0,https://zhit-vmeste.ru/map/,48.752702,44.4822184
374,22,"ГБУЗ ""Волгоградский областной клинический онкологический диспансер "", Волжский",поликлиника,"г. Волжский, ул. Комсомольская, 25",х,все возрастные категории,1,1,1,2,2,https://zhit-vmeste.ru/map/,48.802028,44.74259199999999
375,23,"ГУЗ ""Детская больница № 1""",больница,"г Волгоград, ул им Кирова д.149б",х,дети,1,1,1,1,1,https://zhit-vmeste.ru/map/,48.6205605,44.4282367
376,24,"ГБУЗ ""Волгоградская областная клиническая психиатрическая больница № 2"", Волгоград",поликлиника,"г Волгоград, ул Ангарская д.13",х,все возрастные категории,1,1,1,1,0,https://zhit-vmeste.ru/map/,48.7142545,44.4895778
377,25,"ГБУЗ ""Волгоградская областная детская клиническая психиатрическая больница"" (Центр психического здоровья детей и подростков), Волгоград",больница,"г. Волгоград, ул. им. Глазкова, 15 а (стационар)",х,дети,1,1,1,1,0,https://zhit-vmeste.ru/map/,48.729962,44.536207
378,26,"ГАУЗ "" Клиническая стоматологическая поликлиника №3""",поликлиника,"г. Волгоград, ул. Быкова, 8 ",х,все возрастные категории,0,0,0,0,0,https://zhit-vmeste.ru/map/,48.7968322,44.5949859
379,27,"ГБУЗ ""Волгоградская областная клиническая больница № 1"", Волгоград",больница,"Волгоград, ул. Ангарская, 13, хирургический корпус №11",х,взрослое население,0,0,2,0,0,https://zhit-vmeste.ru/map/,48.7142545,44.4895778
380,28,"ГБУЗ ""Городская клиническая больница № 3""",больница,"г.Волжский, ул. Свердлова, 36",х,"взрослые трудоспособного возраста, пожилые",1,1,1,1,0,https://zhit-vmeste.ru/map/,48.7990874,44.7510261
381,29,"ГБУЗ ""Городская клиническая больница № 3""",поликлиника,"г. Волжский, ул. Пушкина, 12 ",х,"взрослые трудоспособного возраста, пожилые",1,1,1,1,0,https://zhit-vmeste.ru/map/,48.80082179999999,44.7517016
382,30,"ГБУЗ ""Даниловская ЦРБ""",поликлиника,"Волгоградская область, Даниловский р-н р.п. Даниловка ул. Северная, 31 (стационар, поликлиника)",х,все возрастные категории,1,1,1,1,1,https://zhit-vmeste.ru/map/,50.3630018,44.1173293
383,31,"ГБУЗ ""Михайловская детская городская больница""",больница,"г.Михайловка, ул. Леваневского, 2",х,дети,2,0,2,2,0,https://zhit-vmeste.ru/map/,50.0684392,43.2393149
384,32,"ГБУЗ ""Николаевская ЦРБ"" ",поликлиника,"г.Николаевск ул. Октябрьская, 38 (поликлиника)",х,все возрастные категории,0,0,2,2,0,https://zhit-vmeste.ru/map/,50.0244704,45.44437010000001
385,33,"ГБУЗ ""Еланская ЦРБ""",поликлиника,"Волгоградская область,Еланский р-н р.п. Елань ул. Мира, 1 (Детская поликлиника)",х,дети,0,0,2,2,2,https://zhit-vmeste.ru/map/,50.9537013,43.7307386
386,34,"ГБУЗ ""Волгоградский областной клинический противотуберкулезный диспансер""",больница,"г. Волгоград, ул. Ополченская, 40а",х,все возрастные категории,2,2,2,2,2,https://zhit-vmeste.ru/map/,48.79577099999999,44.586403
387,35,"ГУЗ ""Больница № 24""",больница,"г.Волгоград, ул. им. Голубева, 1 (Хоспис)6а(сестринский уход)",х,"взрослые трудоспособного возраста, пожилые",0,0,0,0,0,https://zhit-vmeste.ru/map/,48.5261066,44.56567889999999
388,36,"ГУЗ ""Больница № 24""",поликлиника,"г. Волгоград, ул. Николаевская, 9 Территориальная поликлиника)",х,"взрослые трудоспособного возраста, пожилые",1,1,1,1,1,https://zhit-vmeste.ru/map/,48.708048,44.5133034
389,37,"ГУЗ ""Детская поликлиника № 6"" ",поликлиника,"г. Волгоград, ул. Череповецкая, 92а ",х,дети,1,1,1,1,2,https://zhit-vmeste.ru/map/,48.6951197,44.4662732
390,38,"ГУЗ ""Детская поликлиника № 16"" ",поликлиника,"г. Волгоград, ул. Фадеева, 53",х,дети,1,1,1,1,1,https://zhit-vmeste.ru/map/,48.5228919,44.555012
391,39,"ГУЗ ""Детская поликлиника № 16"" ",поликлиника,"г. Волгоград, Копецкого, 9",х,дети,1,1,1,1,1,https://zhit-vmeste.ru/map/,48.5131197,44.5728429
392,40,"ГУЗ ""Детская поликлиника № 16"" ",поликлиника,"г. Волгоград, ул. Саушинская, 6",х,дети,1,1,1,1,1,https://zhit-vmeste.ru/map/,48.523988,44.588299
393,41,"ГУЗ ""Детская поликлиника № 16"" ",поликлиника,"г. Волгоград, Б-р Энгельса, 14 ",х,дети,1,1,0,0,0,https://zhit-vmeste.ru/map/,48.516043,44.542919
394,42,ГУЗ Детская поликлиника № 3,поликлиника,"г.Волгоград, ул.им. Мясникова, 2",х,дети,2,2,2,2,2,https://zhit-vmeste.ru/map/,48.819187,44.625604
395,43,"ГУЗ ""Клиническая больница скорой медицинской помощи № 7""",поликлиника,"г.Волгоград, ул. Казахская, 1 (поликлиника)",х,"взрослые трудоспособного возраста, пожилые",1,1,1,1,1,https://zhit-vmeste.ru/map/,48.6762441,44.4565171
396,44,"ГУЗ ""Клиническая больница скорой медицинской помощи № 7""",больница,"г.Волгоград, ул. Казахская, 1 (детский корпус)",х,дети,1,1,1,1,1,https://zhit-vmeste.ru/map/,48.6762441,44.4565171
397,45,"ГУЗ ""Клиническая больница скорой медицинской помощи № 7""",больница,"г.Волгоград, ул. Казахская, 1 (взрослый корпус, приемное отделение 1 этаж)",х,"взрослые трудоспособного возраста, пожилые",1,1,1,1,1,https://zhit-vmeste.ru/map/,48.6762441,44.4565171
398,46,"ГУЗ ""Клиническая больница № 11"" ",поликлиника,"г.Волгоград, ул. Краснопресненская, 11  (отделение профилактики и администрация государственного учреждения здравоохранения )",х,"взрослые трудоспособного возраста, пожилые",2,2,2,2,2,https://zhit-vmeste.ru/map/,48.6596194,44.44327759999999
399,47,"ГУЗ ""Поликлиника № 2""",поликлиника,"г.Волгоград, ул. Кузнецова, 29 а",х,"взрослые трудоспособного возраста, пожилые",2,2,2,2,2,https://zhit-vmeste.ru/map/,48.7615563,44.5535985
400,48,"ГУЗ ""Поликлиника № 30""",поликлиника,"г.Волгоград, ул. Ангарская, 114 а ",х,все возрастные категории,1,1,1,1,1,https://zhit-vmeste.ru/map/,48.7235822,44.469423
401,49,"ГУЗ ""Поликлиника № 4""",поликлиника,"г.Волгоград, ул. Академическая, 14",х,"взрослые трудостпособного возраста, пожилые",1,1,1,1,1,https://zhit-vmeste.ru/map/,48.69685070000001,44.4960561
402,50,"ГУЗ ""Городская клиническая больница №1""",больница,"г. Волгоград, ул. им. Федотова,18 (Родильный дом)",х,Взрослые трудоспособного возраста,1,1,1,1,1,https://zhit-vmeste.ru/map/,48.708048,44.5133034
403,51,"ГБУЗ ""Волгоградская областная клиническая больница № 3"" ",больница,"г.Волгоград, ул. Советская, 47 (стационар № 2)",х,взрослое население,2,2,2,2,2,https://zhit-vmeste.ru/map/,48.7197504,44.5349803
404,52,"ГУЗ ""Детская поликлиника № 6""",поликлиника,"г.Волгоград, ул. Рабоче-Крестьянская, 47",х,дети,1,1,1,1,1,https://zhit-vmeste.ru/map/,48.6887524,44.4865534
405,53,"ГУЗ ""Городская клиническая больница скорой медицинской помощи № 25""",больница,"г.Волгоград, ул. Землячки, 74",х,все возрастные категории,0,0,0,0,0,https://zhit-vmeste.ru/map/,48.7619362,44.5109449
406,54,"ГУЗ ""Клиническая больница скорой медицинской помощи № 15"" ",поликлиника,"г. Волгоград, ул. Андижанская, д. 1, лит. Б",х,"взрослые трудоспособного возраста, пожилые",1,1,1,1,1,https://zhit-vmeste.ru/map/,48.5110156,44.55478129999999
407,55,"ГУЗ ""Клиническая больница скорой медицинской помощи № 15"" ",больница,"г. Волгоград, ул. Андижанская, д. 1, лит. А",х,"взрослые трудоспособного возраста, пожилые",1,1,1,1,1,https://zhit-vmeste.ru/map/,48.5110156,44.55478129999999
408,56,"ГУЗ ""Поликлиника № 2"" ",поликлиника,"г.Волгоград, пр.Металлургов, 8 ",х,"взрослые трудоспособного возраста, пожилые",2,2,2,2,2,https://zhit-vmeste.ru/map/,48.767542,44.5570938
409,57,"ГУЗ ""Поликлиника № 4""",поликлиника,"г.Волгоград, ул. Елецкая, 9 ",х,"взрослые трудоспособного возраста, пожилые",1,1,1,1,1,https://zhit-vmeste.ru/map/,48.7014554,44.4836994
410,58,"ГУЗ ""Поликлиника № 2"" ",поликлиника,"г.Волгоград, пр.Ленина 145 ",х,"взрослые трудоспособного возраста, пожилые",2,2,2,2,2,https://zhit-vmeste.ru/map/,48.7820375,44.5798686
411,59,"ГУЗ ""Поликлиника № 5"" ",поликлиника,"Волгоград, ул. Воронкова, 3 ",х,"взрослые трудоспособного возраста, пожилые",1,1,1,1,1,https://zhit-vmeste.ru/map/,48.5773079,44.4310243
412,60,"ГУЗ ""Клиническая поликлиника № 28""",поликлиника,"г.Волгоград, ул.им. К.Симонова, 21",х,все возрастные категории,1,1,1,1,1,https://zhit-vmeste.ru/map/,48.7530963,44.4991913
413,61,"ГБУЗ ""Волгоградский областной клинический противотуберкулезный диспансер""",больница,"г. Волгоград, ул. Ополченская, 40а",х,все возрастные категории,2,2,2,2,2,https://zhit-vmeste.ru/map/,48.79577099999999,44.586403
414,62,"ГБУЗ ""Городская больница №2"", Волжский",поликлиника,"г. Волжский, ул. Мира, 41",х,"взрослые трудоспособного возраста, пожилые",0,0,0,0,0,https://zhit-vmeste.ru/map/,48.7763755,44.79992190000001
415,63,"ГБУЗ ""ЦРБ Клетского муниципального района"" ",поликлиника,"Волгоградская область, ст. Клетская ул. Пролетарская, 21",х,все возрастные категории,1,1,1,1,1,https://zhit-vmeste.ru/map/,49.3069277,43.0542141
416,64,"ГБУЗ ""Котельниковская ЦРБ""",больница,"г. Котельниково, Гагарина, 48 (стационар)  1985",х,все возрастные категории,1,1,1,1,1,https://zhit-vmeste.ru/map/,47.6337519,43.1584041
417,65,"ГБУЗ ""Котельниковская ЦРБ""",поликлиника,"г. Котельниково, ул. Советская, 2 (Поликлиника) 1936",х,все возрастные категории,1,1,1,1,1,https://zhit-vmeste.ru/map/,47.6320996,43.1459471
418,66,"ГБУЗ ""Котельниковская ЦРБ""",поликлиника,"г. Котельниково, ул. Ленина, 14 (Поликлиника) ",х,все возрастные категории,1,1,1,1,1,https://zhit-vmeste.ru/map/,47.6295465,43.1470767
419,67,"ГБУЗ ""Котельниковская ЦРБ""",поликлиника,"г. Котельниково, ул. Ленина, 29 (Детская поликлиника) 1981",х,дети,1,1,1,1,1,https://zhit-vmeste.ru/map/,47.631805,43.14555
420,68,"ГБУЗ ""Новониколаевская ЦРБ""",поликлиника,"Волгоградская область, р.п.Новониколаевский ул. Октябрьская, 57 ",х,"взрослые трудоспособного возраста, пожилые",1,1,1,1,1,https://zhit-vmeste.ru/map/,50.96849659999999,42.3612746
421,69,"ГБУЗ ""Среднеахтубинская ЦРБ""",больница,"Волгоградская область, р.п. Средняя Ахтуба ул. Больничная, 2 (Педиатрическое отделение)",х,дети,1,1,1,2,1,https://zhit-vmeste.ru/map/,48.7110894,44.8703039
422,70,"ГБУЗ ""Старополтавская ЦРБ""",больница,"Волгоградская область, Старополтавский р-н с.Старая Полтавка ул. Ерусланская, 148 (Инфекционное отделение)",х,дети,2,2,2,2,2,https://zhit-vmeste.ru/map/,50.4819977,46.4813567
423,71,"ГБУЗ ""Фроловская ЦРБ""",поликлиника," г. Фролово ул. 40 лет Октября, 7",х,"взрослые трудоспособного возраста, пожилые",2,2,2,2,2,https://zhit-vmeste.ru/map/,49.7549539,43.66323
424,72,"ГБУЗ ""Волгоградский областной клинический противотуберкулезный диспансер""",поликлиника,"г. Волгоград, ул. Аджарская, 9 ",х,все возрастные категории,2,2,2,2,2,https://zhit-vmeste.ru/map/,48.674038,44.4756712
425,73,"ГБУЗ ""Волгоградский областной клинический противотуберкулезный диспансер""",больница,"г. Волжский, ул. Набережная, 55",х,"взрослые трудоспособного возраста, пожилые",1,1,1,2,1,https://zhit-vmeste.ru/map/,48.8176494,44.7707294
426,74,"ГБУЗ ""Урюпинская  ЦРБ""",больница,"г. Урюпинск, ул. Весенняя, 2 (главный корпус)",х,все возрастные категории,0,0,0,1,0,https://zhit-vmeste.ru/map/,50.8125763,42.0227101
427,75,"ГБУЗ ""Урюпинская  ЦРБ""",поликлиника,"г. Урюпинск, ул. Фридек Мистек, 2 (поликлиника для взрослых)",х,"взрослые трудоспособного возраста, пожилые",0,0,0,1,0,https://zhit-vmeste.ru/map/,50.7974183,42.0056002
428,76,"ГБУЗ ""Урюпинская  ЦРБ""",поликлиника,"г. Урюпинск, ул. Доценко, 4 (детская поликлиника)",х,дети,0,0,0,1,0,https://zhit-vmeste.ru/map/,50.7956204,42.0062826
429,77,"ГБУЗ ""Урюпинская  ЦРБ""",поликлиника,"г. Урюпинск, ул. Штеменко, 47 (стоматологическое отделение)",х,"взрослые трудоспособного возраста, пожилые",0,0,0,1,0,https://zhit-vmeste.ru/map/,50.81332519999999,42.0157538
430,78,"ГБУЗ ""Урюпинская  ЦРБ""",больница,"г. Урюпинск, ул. Лизы Чайкиной, 11 (противотуберкулезное отделение)",х,"взрослые трудоспособного возраста, пожилые",0,0,0,1,0,https://zhit-vmeste.ru/map/,50.7986462,42.003923
431,79,"ГБУЗ ""Урюпинская  ЦРБ""",поликлиника,"г. Урюпинск, ул. Чапаева, 10 (женская консультация)",х,все возрастные категории,0,0,0,1,0,https://zhit-vmeste.ru/map/,50.7943765,42.0007105
432,80,"ГБУЗ ""Урюпинская  ЦРБ""",поликлиника,"г. Урюпинск, пер. Дзержинского,9 (кожно-венерологическое отделение)",х,все возрастные категории,1,0,0,1,0,https://zhit-vmeste.ru/map/,50.7951839,42.0018809
433,81,"ГБУЗ ""Волгоградский областной клинический онкологический диспансер""",поликлиника,"г. Урюпинск, ул. Фридек Мистек, 8 (онкологическое отделение)",х,все возрастные категории,0,0,0,1,0,https://zhit-vmeste.ru/map/,49.6819305,18.3673216
434,82,"ГБУЗ ""Волгоградская областная детская клиническая психиатрическая больница"" (Центр психического здоровья детей и подростков), Волгоград",больница,"г. Волгоград, ул. им. Глазкова, 15 а (стационар)",х,дети,1,1,1,1,0,https://zhit-vmeste.ru/map/,48.729962,44.536207
435,83,"ГБУЗ ""Волгоградская областная клиническая психиатрическая больница № 2"", Волгоград",больница,"г. Волгоград, ул. Удмуртская, 32",х,все возрастные категории,1,1,2,2,0,https://zhit-vmeste.ru/map/,48.5140797,44.5639622
436,84,"ГБУЗ ""Волгоградская областная клиническая психиатрическая больница № 2"", Волгоград",поликлиника,"г. Волгоград, ул. Кирова, 126",х,все возрастные категории,1,1,2,2,0,https://zhit-vmeste.ru/map/,48.61392439999999,44.4282716
437,85,"ГБУЗ ""Волгоградская областная клиническая психиатрическая больница № 2"", Волгоград",поликлиника,"г. Волгоград, ул. Чуйкова, 51",х,все возрастные категории,1,1,2,2,0,https://zhit-vmeste.ru/map/,48.7175646,44.5358333
438,86,"ГБУЗ ""Волгоградский областной клинический кожно-венерологический диспансер"" ",поликлиника,"г. Волгоград, пр. Ленина, 45",х,все возрастные категории,2,2,2,2,2,https://zhit-vmeste.ru/map/,48.72334439999999,44.5350895
439,87,"ГБУЗ ""Волгоградский областной клинический кожно-венерологический диспансер"" ",поликлиника,"Волгоград, ул. Новосибирская, 71",х,все возрастные категории,2,2,2,2,2,https://zhit-vmeste.ru/map/,48.6739512,44.4527509
440,88,"ГУЗ ""Клиническая поликлиника № 28""",поликлиника,"г. Волгоград, ул. Колпинская 3/5 ",х,"взрослые трудоспособного возраста, пожилые",1,1,1,1,1,https://zhit-vmeste.ru/map/,48.7735916,44.4836104
441,89,"ГУЗ ""Клиническая поликлиника № 28""",поликлиника,"г. Волгоград, ул. 51-я Гвардейская, 19 (ДПО)",х,дети,1,1,1,1,1,https://zhit-vmeste.ru/map/,48.708048,44.5133034
442,90,"ГУЗ ""Больница № 22""",поликлиника,"г. Волгоград, ул. Доценко, 66а (Территориальная поликлиника)",х,"взрослые трудоспособного возраста, пожилые",1,1,1,1,1,https://zhit-vmeste.ru/map/,48.51229679999999,44.5322703
443,91,"ГБУЗ ""Городская клиническая больница № 1 им. С.З.Фишера"" ",больница,"г.Волжский, пр. Ленина, д.137",х,"взрослые трудоспособного возраста, пожилые",0,0,2,0,0,https://zhit-vmeste.ru/map/,48.7752078,44.7662695
444,92,"ГБУЗ ""Городская детская больница""",поликлиника,"г. Волжский, ул. Волгодонская, д. 15",х,дети,0,0,0,0,0,https://zhit-vmeste.ru/map/,48.801762,44.7375538
445,93,"ГБУЗ ""Городская детская больница""",поликлиника,"г. Волжский, ул. Советская, д. 57-59",х,дети,1,1,1,1,1,https://zhit-vmeste.ru/map/,48.7812886,44.7593204
446,94,"ГУЗ ""Городская клиническая больница №1""",поликлиника,"г. Волгоград, ул. 64 Армии, д. 65 (Женская консультация)",х,взрослые трудоспособного возраста,2,2,2,2,2,https://zhit-vmeste.ru/map/,48.603162,44.42087799999999
447,95,"ГБУЗ ""Волгоградский областной клинический наркологический диспансер""",поликлиника,"г. Волгоград, ул. Кузнецова, 29а",х,"взрослые трудоспособного возраста, пожилые",1,1,1,1,1,https://zhit-vmeste.ru/map/,48.7615563,44.5535985
448,96,"ГБУЗ ""Волгоградский областной клинический наркологический диспансер""",клинико-диагностическая лаборатория,"г. Волгоград, ул. Арсеньева, 10",х,все возрастные категории,1,1,1,1,1,https://zhit-vmeste.ru/map/,48.517626,44.518448
449,97,"ГУЗ ""Клиническая поликлиника №1""",поликлиника,"г. Волгоград, ул. Ополченская, 8",х,"взрослые трудоспособного возраста, пожилые",1,1,2,1,1,https://zhit-vmeste.ru/map/,48.80168399999999,44.59935300000001
450,98,"ГУЗ ""Родильный дом №1""",поликлиника,"г. Волгоград, ул. Дегтярева, 45 (Женская консультация)",х,все возрастные категории,2,2,2,2,2,https://zhit-vmeste.ru/map/,48.8078767,44.5902969
451,99,"ГУЗ ""Поликлиника № 5"" ",поликлиника,"г.Волгоград, ул. 64-й Армии, д. 20",х,"взрослые трудоспособного возраста, пожилые",1,1,1,1,1,https://zhit-vmeste.ru/map/,48.708048,44.5133034
452,100,"ГБУЗ ""Городская поликлиника №5"" ",поликлиника,"г. Волжский, ул. Оломоуцкая, д. 21а",х,"взрослые трудоспособного возраста, пожилые",1,1,1,1,1,https://zhit-vmeste.ru/map/,48.765,44.805905
453,101,"ГУЗ ""Детская поликлиника № 1""",поликлиника,"г. Волгоград, ул. им. Штеменко, д. 62",х,дети,1,1,0,0,0,https://zhit-vmeste.ru/map/,48.7790786,44.5493158
454,102,"ГУЗ ""Детская поликлиника № 1""",поликлиника,"г. Волгоград, ул. Еременко, д. 132",х,дети,1,1,1,1,1,https://zhit-vmeste.ru/map/,48.7853191,44.5664703
455,103,ГУЗ Детская поликлиника № 3,поликлиника,"г. Волгоград, ул. Н.Отрады, 10а",х,дети,2,2,2,2,2,https://zhit-vmeste.ru/map/,48.815413,44.625896
456,104,"ГБУЗ ""Городская детская больница""",поликлиника,"г. Волжский, ул. Пушкина, д. 92а",х,дети,0,0,0,0,0,https://zhit-vmeste.ru/map/,48.7860009,44.7899022
457,105,"ГБУЗ ""Калачевская ЦРБ"" ",поликлиника,"г. Калач-на-Дону, ул. Маяковского, д. 27 (Поликлиника)",х,"взрослые трудоспособного возраста, пожилые",1,1,1,1,1,https://zhit-vmeste.ru/map/,48.6851996,43.5434202
458,106,"ГБУЗ ""Ленинская ЦРБ"" ",больница,"г. Ленинск, ул. Ястребова, 33а (стационар)",х,все возрастные категории,2,2,2,2,2,https://zhit-vmeste.ru/map/,48.70794799999999,45.1974294
459,107,"ГБУЗ ""Ленинская ЦРБ"" ",поликлиника,"г. Ленинск, ул. Ленина, 102 (стоматология)",х,все возрастные категории,2,2,2,2,2,https://zhit-vmeste.ru/map/,48.7028712,45.1908636
460,108,"ГБУЗ ""Михайловская ЦРБ""",поликлиника,"г. Михайловка, ул. Некрасова, 1б (поликлиника)",х,"взрослые трудоспособного возраста, пожилые",0,1,1,0,0,https://zhit-vmeste.ru/map/,50.0786042,43.2316404
461,109,"ГБУЗ ""ЦРБ Ольховского муниципального района""",больница,"с. Ольховка, ул. Ленинская, 39",х,все возрастные категории,1,1,1,1,1,https://zhit-vmeste.ru/map/,45.0239852,133.3740074
462,110,"ГБУЗ ""Светлоярская ЦРБ""",больница,"р.п. Светлый Яр, ул. Мелиоративная, 6",х,все возрастные категории,1,1,2,1,1,https://zhit-vmeste.ru/map/,48.4663877,44.7902622
463,111,"ГБУЗ ""Чернышковская ЦРБ""",больница,"р.п. Чернышковский, ул. Восточная, 36",х,все возрастные категории,1,0,0,1,0,https://zhit-vmeste.ru/map/,48.42726560000001,42.2178657
464,112,"ГБУЗ ""Михайловская ЦРБ""",больница,"г. Михайловка, ул. Пирогова, д. 79а",х,"взрослые трудоспособного возраста, пожилые",0,0,1,0,2,https://zhit-vmeste.ru/map/,50.05989520000001,43.2339287
465,113,"ГБУЗ ""Городищенская ЦРБ""",поликлиника,"пгт Городище, ул. Маршала Чуйкова, д. 1 (Поликлиника № 3)",х,"взрослые трудоспособного возраста, пожилые",1,1,1,1,1,https://zhit-vmeste.ru/map/,48.8065702,44.4762552
466,114,"ГБУЗ ""Городищенская ЦРБ""",поликлиника,"пгт Городище, ул. Маршала Чуйкова, д. 11 (Поликлиника № 4)",х,"взрослые трудоспособного возраста, пожилые",1,1,1,1,1,https://zhit-vmeste.ru/map/,48.808166,44.4758276
467,115,"ГБУЗ г. Камышина ""Городская больница № 1""",больница,"г. Камышин, ул. Пролетарская, 115 (хирургический корпус)",х,"взрослые трудоспособного возраста, пожилые",2,2,2,2,2,https://zhit-vmeste.ru/map/,50.07306740000001,45.3964434
468,116,"ГБУЗ г. Камышина ""Городская больница № 1""",больница,"с. Антиповка, Камышинский р-он, ул. Дружбы, д. 89",х,"взрослые трудоспособного возраста, пожилые",2,2,2,2,2,https://zhit-vmeste.ru/map/,49.8259441,45.3034883
469,117,"ГБУЗ ""Иловлинская ЦРБ"" ",больница,"Волгоградская область, р.п. Иловля Больничный городок 2 а",х,все возрастные категории,1,1,1,1,1,https://zhit-vmeste.ru/map/,49.3066028,43.9805394
470,118,"ГУЗ ""Клиническая больница №4""",больница,"г. Волгоград, ул. Ополченская, 40 (терапевтический корпус) ",х,"взрослые трудоспособного возраста, пожилые",1,1,1,1,1,https://zhit-vmeste.ru/map/,48.795383,44.587328
471,119,"ГУЗ ""Клиническая больница №4""",больница,"г. Волгоград, ул. Ополченская, 40 (хирургический корпус) ",х,"взрослые трудоспособного возраста, пожилые",1,1,1,1,1,https://zhit-vmeste.ru/map/,48.795383,44.587328
472,120,"ГБУЗ ""Волгоградская областная детская клиническая больница"" ",больница,"г.Волгоград, ул.им.Землячки, 76",х,дети,1,1,1,1,1,https://zhit-vmeste.ru/map/,48.76274610000001,44.5135361
473,121,"ГУЗ ""Деткая клиническая поликлиника № 15""",поликлиника,"г. Волгоград, пр. Ленина, 30",х,дети,0,0,1,0,0,https://zhit-vmeste.ru/map/,48.7143384,44.5271424
474,122,"ГУЗ ""Деткая клиническая поликлиника № 15""",поликлиника,"г. Волгоград, ул. Советская, 6",х,дети,1,0,1,0,0,https://zhit-vmeste.ru/map/,48.7022896,44.51404609999999
475,123,"ГБУЗ ""Николаевская ЦРБ""",больница,"г. Николаевск, ул. Октябрьская, 38 (терапевтический корпус)",х,все возрастные категории,1,1,2,2,1,https://zhit-vmeste.ru/map/,50.0244704,45.44437010000001
476,124,"ГБУЗ ""Нехаевская ЦРБ""",поликлиника,"ст-ца Нехаевская, ул.Победы д.3 (поликлиника)",х,все возрастные категории,1,1,2,1,1,https://zhit-vmeste.ru/map/,50.405938,41.76523299999999
477,125,"ГАУЗ ""Волгоградская областная клиническая стоматологическая поликлиника""",поликлиника,"г. Волгоград, ул. Коммунистическая, 31",х,все возрастные категории,0,0,0,0,0,https://zhit-vmeste.ru/map/,48.7221556,44.5294084
478,126,"ГБУЗ ""Чернышковская ЦРБ""",поликлиника,"р.п.Чернышковский ул.Советская,68 (Поликлиника)",х,все возрастные категории,1,0,0,1,0,https://zhit-vmeste.ru/map/,48.423543,42.2229494
479,127,"ГБУЗ ""Киквидзенская ЦРБ""",больница,"ст-ца Преображенская ул.Комсомольская, 62 (Больница, Поликлиника, терапевтический корпус)",х,все возрастные категории,1,1,1,1,1,https://zhit-vmeste.ru/map/,50.74633859999999,43.0648632
480,128,"ГБУЗ ""Быковская ЦРБ""",поликлиника,"р.п. Быково, ул. Волжская, 50 (главный корпус, поликлиника)",х,все возрастные категории,0,0,0,0,0,https://zhit-vmeste.ru/map/,49.7600854,45.3761707
481,129,"ГБУЗ ""Волгоградский областной клинический перинатальный центр № 2""",больница,"г.Волгоград, ул.им. маршала Василевского, 70",х,"дети, взрослые трудоспособного возраста",0,0,0,0,0,https://zhit-vmeste.ru/map/,48.642867,44.416749
482,130,"ГУЗ ""Клиническая больница скорой медицинской помощи № 7""",больница,"г. Волгоград, ул. Казахская, 1 (родильный дом)",х,"взрослые трудоспособного возраста, пожилые",1,1,1,1,1,https://zhit-vmeste.ru/map/,48.6762441,44.4565171
483,131,"ГАУЗ ""Клиническая поликлиника № 3""",поликлиника,"г. Волгоград, ул. Новороссийская, 26",х,взрослое население,1,1,1,1,1,https://zhit-vmeste.ru/map/,48.7171217,44.5132813
484,132,"ГБУЗ ""Жирновская ЦРБ""",больница,"г. Жирновск, ул. Строителей, 1-9 (хирургический корпус)",х,все возрастные категории,1,1,1,1,1,https://zhit-vmeste.ru/map/,50.9777761,44.7822433
485,133,"ГБУЗ ""Жирновская ЦРБ""",поликлиника,"г. Жирновск, ул. Строителей, 10  (поликлиника) ",х,все возрастные категории,1,1,1,1,1,https://zhit-vmeste.ru/map/,50.97683749999999,44.7820405
486,134,"ГБУЗ ""ЦРБ Суровикинского муниципального района""",больница,"г. Суровикино, ул. Сысоева ,61  (детское отделение)",х,дети,1,1,1,1,1,https://zhit-vmeste.ru/map/,48.6171414,42.8582713
487,135,"ГБУЗ ""Урюпинская  ЦРБ""",больница,"г. Урюпинск, ул. Весенняя, 2 (главный корпус)",х,все возрастные категории,0,0,0,1,0,https://zhit-vmeste.ru/map/,50.8125763,42.0227101
488,136,"ГБУЗ ""Городская клиническая больница № 3""",поликлиника,"г. Волжский, ул. Советская, 1 (поликлиника)",х,"взрослые трудоспособного возраста, пожилые",1,1,1,1,0,https://zhit-vmeste.ru/map/,48.7929995,44.7544465
489,137,"ГУЗ ""Детская клиническая поликлиника № 31""",поликлиника,"г. Волгоград, пр. Университетский, 56",х,дети,2,2,2,2,2,https://zhit-vmeste.ru/map/,48.6611011,44.4374375
490,138,"ГБУЗ ""Калачевская ЦРБ"" ",больница,"г. Калач-на-Дону, ул. Маяковского, 27 (стационар)",х,все возрастные категории,1,1,1,1,1,https://zhit-vmeste.ru/map/,48.6851996,43.5434202
491,139,"ГБУЗ ""Жирновская ЦРБ""",больница,"г. Жирновск, ул. Строителей, 1-9 (терапевтический корпус)",х,"взрослые трудоспособного возраста, пожилые",1,1,1,1,1,https://zhit-vmeste.ru/map/,50.9777761,44.7822433
492,140,"ГБУЗ ""Жирновская ЦРБ""",больница,"г. Жирновск, ул. Строителей, 8 (педиатрическое отделение)",х,дети,1,1,1,1,1,https://zhit-vmeste.ru/map/,50.9774313,44.78121
493,141,"ГБУЗ ""Городская детская больница"" ",поликлиника,"г. Волжский, п. Краснооктябрьский, ул. Луганская, 3",х,дети,1,1,1,1,1,https://zhit-vmeste.ru/map/,48.9043672,44.775634
494,142,"ГУЗ ""Детская больница № 1""",поликлиника,"г. Волгоград, ул. Воронкова, 78а",х,дети,1,1,1,1,1,https://zhit-vmeste.ru/map/,48.582837,44.430471
495,143,"ГУЗ ""Детская больница № 1""",поликлиника,"г Волгоград, ул им Кирова д.149б (первое педиатрическое отделение)",х,дети,1,1,1,1,1,https://zhit-vmeste.ru/map/,48.708048,44.5133034
496,144,"ГБУЗ ""Фроловская ЦРБ""",поликлиника,"г. Фролово, ул. 40 лет Октября, 7 (поликлиника для взрослых)",х,"взрослые трудоспособного возраста, пожилые",2,2,2,2,2,https://zhit-vmeste.ru/map/,49.7549539,43.66323
497,145,"ГБУЗ ""Городская клиническая больница № 1 им. С.З.Фишера"" ",поликлиника,"г.Волжский, пр. Ленина, д.137",х,"взрослые трудоспособного возраста, пожилые",0,0,2,0,0,https://zhit-vmeste.ru/map/,48.7752078,44.7662695
498,146,"ГБУЗ ""Новониколаевская ЦРБ""",больница,"р.п. Новониколаевский, ул. Октябрьская, 57 (хирургическое отделение)",х,"взрослые трудоспособного возраста, пожилые",2,2,2,2,2,https://zhit-vmeste.ru/map/,50.96849659999999,42.3612746
499,147,"ГБУЗ ""Новониколаевская ЦРБ""",больница,"р.п. Новониколаевский, ул. Октябрьская, 57 (терапевтическое отделение)",х,"взрослые трудоспособного возраста, пожилые",2,2,2,2,2,https://zhit-vmeste.ru/map/,50.96849659999999,42.3612746
500,148,"ГБУЗ ""Новоаннинская ЦРБ""",больница,"г. Новоаннинский, пер. Восточный, 88 (Стационар)",х,все возрастные категории,2,2,2,2,2,https://zhit-vmeste.ru/map/,50.5333907,42.6907686
501,149,"ГБУЗ ""Волгоградская областная клиническая больница № 3"" ",больница,"г. Волгоград, ул. Циолковского, 1 (стационар)",х,взрослое население,2,2,2,2,2,https://zhit-vmeste.ru/map/,48.6988569,44.5094489
502,150,"ГБУЗ ""Волгоградская областная клиническая больница № 3"" ",поликлиника,"г. Волгоград, ул. Циолковского, 1 (поликлиника)",х,взрослое население,2,2,2,2,2,https://zhit-vmeste.ru/map/,48.6988569,44.5094489
503,151,"ГБУЗ ""Ленинская ЦРБ"" ",поликлиника,"г. Ленинск, ул. Ястребова, 33а (Поликлиника, Стационар)",х,все возрастные категории,1,1,1,1,1,https://zhit-vmeste.ru/map/,48.7081612,45.197151
504,152,"ГБУЗ ""Ленинская ЦРБ"" ",больница,"с. Заплавное, ул. Ленинградская, 7 (Заплавинская участковая больница, стационар)",х,все возрастные категории,2,2,2,2,2,https://zhit-vmeste.ru/map/,48.7021945,45.0115716
505,153,"ГБУЗ ""Ленинская ЦРБ"" ",поликлиника,"с. Заплавное, ул. Ленинградская, 7 (Заплавинская участковая больница, поликлиника)",х,все возрастные категории,2,2,2,2,2,https://zhit-vmeste.ru/map/,48.7021945,45.0115716
506,154,"ГБУЗ ""Центральная городская больница г.Камышина"" ",больница,"г Камышин, ул Терешковой д.3Ж (хирургический корпус)",х,все возрастные категории,2,2,2,2,2,https://zhit-vmeste.ru/map/,50.10211330000001,45.41696229999999
507,155,"ГБУЗ ""Центральная городская больница г.Камышина"" ",больница," г Камышин, ул Терешковой д.3И (терапевтический корпус)",х,все возрастные категории,2,2,2,2,2,https://zhit-vmeste.ru/map/,50.10211330000001,45.41696229999999
508,156,"ГБУЗ ""Центральная городская больница г.Камышина"" ",поликлиника,"г Камышин, мкр 4-й д.63  (отделение восстановительного лечения)",х,Поликлиника,2,2,2,2,2,https://zhit-vmeste.ru/map/,50.0741893,45.3967309
509,157,"ГБУЗ ""Центральная городская больница г.Камышина"" ",поликлиника,"г Камышин, ул Циолковского д.2А (поликлиника № 3)",х,поликлиника,2,2,2,2,2,https://zhit-vmeste.ru/map/,50.11103079999999,45.4172249
510,158,"ГУЗ ""Клиническая больница № 5""",больница,"г. Волгоград,  ул. Пельше, 2 А (главный корпус)",х,"взрослые трудоспособного возраста, пожилые",1,1,2,2,2,https://zhit-vmeste.ru/map/,48.7843243,44.57855860000001
511,159,"ГУЗ ""Клиническая больница скорой медицинской помощи № 15""",больница,"г Волгоград, ул Андижанская д.1а (детский корпус)",х,дети,2,2,2,2,2,https://zhit-vmeste.ru/map/,48.51047399999999,44.554067
512,160,"ГУЗ ""Клиническая больница № 12""",больница,"г Волгоград, ул им Бажова д.2а (стационар)",х,"взрослые трудоспособного возраста, пожилые",1,1,2,1,1,https://zhit-vmeste.ru/map/,48.708048,44.5133034
513,161,"ГУЗ ""Детская клиническая поликлиника № 31""",поликлиника,"г Волгоград, ул Запорожская д.3 (I лечебно-педиатрическое отделение)",х,дети,1,1,1,1,1,https://zhit-vmeste.ru/map/,48.6706657,44.44828769999999
514,162,"ГБУЗ ""Новоаннинская ЦРБ""",поликлиника,"г.Новоаннинский, пер Восточный д.88 (детская поликлиника)",х,дети,2,2,2,2,2,https://zhit-vmeste.ru/map/,50.5333907,42.6907686
515,163,"ГБУЗ ""Фроловская ЦРБ""",больница,"г Фролово, ул 40 лет Октября д.7  (лечебный корпус 2)",х,все возрастные категории,0,0,0,0,0,https://zhit-vmeste.ru/map/,49.7549539,43.66323
516,164,"ГБУЗ ""Центральная районная больница Дубовского муниципального района""",поликлиника,"г Дубовка, ул Октябрьская д.17",х,"взрослые трудоспособного возраста, пожилые",1,1,2,1,1,https://zhit-vmeste.ru/map/,49.05455740000001,44.8272057
517,165,"ГБУЗ ""Центральная районная больница Дубовского муниципального района""",поликлиника,"г.Дубовка, ул. Московская, д.61 (педиатическое отделение поликлиники)",х,дети,1,1,2,1,1,https://zhit-vmeste.ru/map/,49.06131620000001,44.8204602
518,166,"ГБУЗ ""Волгоградский областной клинический онкологический диспансер"", г. Михайловка",поликлиника,"г. Михайловка, ул. Мичурина, 8",х,все возрастные категории,2,2,2,2,2,https://zhit-vmeste.ru/map/,50.0782485,43.2313158
519,167,"ГБУЗ ""Суровикинская ЦРБ""",больница,"Дом сестринского ухода, х. Новомаксимовский, ул. Северная 13",х,"взрослые трудостпособного возраста, пожилые",2,2,2,2,2,https://zhit-vmeste.ru/map/,48.4812056,43.1619604
520,168,"ГБУЗ ""Старополтавская ЦРБ"" ",поликлиника,"Терапевтический ЦРБ, с. Старая Полтавка, ул. Еруслановская, 148",х,"взрослые трудоспособного возраста, пожилые",1,1,1,1,1,https://zhit-vmeste.ru/map/,50.4819977,46.4813567
521,169,"ГБУЗ ""Старополтавская ЦРБ"" ",поликлиника,"Детская поликлиника, с. Старая Полтавка, ул. Еруслановская, 148",х,дети,2,2,2,2,2,https://zhit-vmeste.ru/map/,50.4819977,46.4813567
522,170,"ГБУЗ ""Кумылженская ЦРБ"" ",поликлиника,"ст-ца Кумылженская, ул. Лермонтова, 1а (поликлиника)",х,все возрастные категории,2,2,2,2,2,https://zhit-vmeste.ru/map/,49.8867916,42.5739793
523,171,"ГБУЗ ЦРБ ""Руднянского муниципального района""",больница,"р.п. Рудня, ул. Пионерская, 50 (главный корпус)",х,все возрастные категории,1,1,2,2,2,https://zhit-vmeste.ru/map/,50.8110778,44.5601183
524,172,"ГБУЗ ""Среднеахтубинская ЦРБ"" ",поликлиника,"Поликлиника, Краснослободск, ул. Свердлова, 29а",х,все возрастные категории,1,1,1,2,1,https://zhit-vmeste.ru/map/,48.7018958,44.55771800000001
525,173,"ГБУЗ ""Среднеахтубинская ЦРБ"" ",поликлиника,"Поликлиника, Краснослободск, ул. Свердлова, 29а",х,дети,1,1,1,2,1,https://zhit-vmeste.ru/map/,48.7018958,44.55771800000001
526,174,"ГБУЗ ""Среднеахтубинская ЦРБ"" ",больница,"Терапевтическое отделение, Средняя Ахтуба ул. Больничная,2",х,"взрослые трудоспособного возраста, пожилые",2,2,2,2,2,https://zhit-vmeste.ru/map/,48.7110894,44.8703039
527,175,"ГУЗ ""Клиническая больница № 11"" ",больница,"Стационар, г.Волгоград, ул. Краснопресненская, 24",х,"взрослые трудоспособного возраста, пожилые",2,2,2,2,2,https://zhit-vmeste.ru/map/,48.6603567,44.4421332
528,176,"ГУЗ ""Клиническая больница № 11"" ",поликлиника,"Диагностическое отделение, г. Волгоград, ул. Ухтомского, 27",х,"взрослые трудоспособного возраста, пожилые",2,2,2,2,2,https://zhit-vmeste.ru/map/,48.6615945,44.4425459
529,177,"ГБУЗ ""Городская клиническая больница № 1 им. С.З.Фишера"" ",поликлиника,"Поликлиника, г. Волжский, ул. Луганская, 3",х,"взрослые трудоспособного возраста, пожилые",1,1,2,1,1,https://zhit-vmeste.ru/map/,48.8176494,44.7707294
530,178,"ГУЗ ""Поликлиника № 5"" ",поликлиника,"г. Волгоград, ул. 64 Армии, 18",х,"взрослые трудоспособного возраста, пожилые",1,1,1,1,1,https://zhit-vmeste.ru/map/,48.6080041,44.4229643
531,179,"ГАУЗ ""Стоматологическая поликлиника № 11""",поликлиника,"г. Волгоград, пер. Краснодонский, 1",х,все возрастные категории,0,0,0,0,0,https://zhit-vmeste.ru/map/,48.5844919,44.4314784
532,180,"ГБУЗ ""Городская детская больница""",поликлиника,"Детская поликлиника № 4, г. Волжский, ул. Александрова, 32",х,дети,2,2,0,0,0,https://zhit-vmeste.ru/map/,48.7755106,44.8095147
533,181,"ГБУЗ ""Городская детская больница""",поликлиника,"Детская поликлиника № 3, г. Волжский, ул. Пушкина, 92а",х,дети,0,0,0,0,0,https://zhit-vmeste.ru/map/,48.7859264,44.7901738
534,182,"ГУЗ ""Родильный дом № 4"" ",больница,"г. Волгоград, ул. Городовикова, 10а",х,все возрастные категории,2,2,2,2,2,https://zhit-vmeste.ru/map/,48.507115,44.556945
535,183,"ГУЗ ""Больница №16"", Волгоград",больница,"Главный корпус, г. Волгоград, ул. Пятиморская, 7 (Детское инфекционное отделение, гинекология, главный корпус, ГХИ, поликлиника)",х,все возрастные категории,1,1,1,1,1,https://zhit-vmeste.ru/map/,48.51124859999999,44.5806408
536,184,"ГАУЗ ""Волжская городская стоматологическая поликлиника"" г. Волжский",поликлиника,"г. Волжский, б. Профсоюзов, 1",х,все возрастные категории,0,0,2,0,0,https://zhit-vmeste.ru/map/,48.77663099999999,44.77526
537,185,"ГБУЗ ""Волгоградская областная инфекционная больница № 2"" ",больница,"Стационар, г.Волжский, ул. Пушкина, 32",х,все возрастные категории,2,1,2,1,1,https://zhit-vmeste.ru/map/,48.7935727,44.7643962
538,186,"ГБУЗ ""Волгоградская областная детская клиническая психиатрическая больница"" (Центр психического здоровья детей и подростков), Волгоград",поликлиника,"г. Волгоград, ул. Батальонная, 15 (диспансер)",х,дети,1,1,1,1,0,https://zhit-vmeste.ru/map/,48.7295117,44.54232
539,187,"ГУЗ ""Детская клиническая больница № 8""",больница,"Здание А-I, круглосуточный стационар, г. Волгоград, ул. Ковровская, 2 ",х,дети,1,2,2,2,2,https://zhit-vmeste.ru/map/,48.7011283,44.5021651
540,188,"ГУЗ ""Клиническая больница скорой медицинской помощи № 7""",больница,"г. Волгоград, ул. Казахская, 1 (Гинекологическое отделение) (нет новых фото)",х,"взрослые трудоспособного возраста, пожилые",1,1,1,1,1,https://zhit-vmeste.ru/map/,48.6762441,44.4565171
541,189,"ГУЗ ""Клиническая больница скорой медицинской помощи № 7""",больница,"г. Волгоград, ул. Казахская, 1 (Гинекологическое отделение)",х,"взрослые трудоспособного возраста, пожилые",1,1,1,1,1,https://zhit-vmeste.ru/map/,48.6762441,44.4565171
542,190,"ГБУЗ ""Камышинская детская городская больница"", Камышин ",поликлиника,"г. Камышин, ул. Мира, 26 (Детская поликлиника № 2)",х,дети,1,1,1,1,1,https://zhit-vmeste.ru/map/,50.1078501,45.4207244
543,191,"ГУЗ ""Детская клиническая поликлиника № 15""",поликлиника,"г. Волгоград, ул. Пархоменко, 19 II педиатрическое отделение)",х,дети,1,1,1,1,1,https://zhit-vmeste.ru/map/,48.7156678,44.5133642
544,192,"ГБУЗ ""Быковская ЦРБ""",больница,"р.п. Быково, ул. Волжская, 50 (приемное отделение)",х,все возрастные категории,0,0,0,0,0,https://zhit-vmeste.ru/map/,49.7600854,45.3761707
546,1,"ГБУК ""Волгоградский музей изобразительных искусств им.И.И.Машкова""",музей,"г.Волгоград, пр-кт .им.В.И.Ленина, д.21",х,все возрастные категории,1,1,1,1,1,https://zhit-vmeste.ru/map/,48.708048,44.5133034
547,2,"ГБУК ""Волгоградская областная универсальная научная библиотека им.М.Горького""",библиотека,"г.Волгоград, ул.Мира, д. 15",х,все возрастные категории,1,1,1,1,1,https://zhit-vmeste.ru/map/,48.7125887,44.5200635
548,3,"ГБУК ""Волгоградская филармония""",концертное учреждение,"г. Волгоград, ул.Набережная 62-й Армии, д.4",х,все возрастные категории,1,1,1,1,1,https://zhit-vmeste.ru/map/,48.7251852,44.5374777
549,4,"ГБУК ""Волгоградский областной центр народного творчества""",центр народного творчества,"г.Волгоград, пр. Энгельса, д.1а",х,все возрастные категории,1,1,2,2,1,https://zhit-vmeste.ru/map/,48.5202853,44.5484562
550,5,"ГБУК ""Волгоградский театр юного зрителя""",театр,"г.Волгоград, ул. Рабоче-Крестьянская, 42",х,"дети, все возрастные категории",1,1,1,2,1,https://zhit-vmeste.ru/map/,48.691074,44.487953
551,6,"ГБУК ""Волгоградский театр юного зрителя""",театр,"г.Волгоград, пр-кт им.В.И.Ленина, д.15",х,"дети, все возрастные категории",0,0,0,0,0,https://zhit-vmeste.ru/map/,48.708048,44.5133034
552,7,"ГБУК ""Волгоградский музыкально-драматический казачий театр""",театр,"г.Волгоград, ул. Академическая, д.3",х,все возрастные категории,1,1,1,1,1,https://zhit-vmeste.ru/map/,48.6950418,44.4973785
553,8,"ГКУК ВО ""Волгоградская областная библиотека для молодежи""",библиотека,"г.Волгоград, ул. Череповецкая, д.1",х,"молодежь, все возрастные категории",1,1,1,1,1,https://zhit-vmeste.ru/map/,48.705894,44.486404
554,9,"ГКУК ВО ""Волгоградская областная детская библиотека""",библиотека,"г.Волгоград, ул. Рокоссовского, д.48",х,"дети, все возрастные категории",1,1,1,1,1,https://zhit-vmeste.ru/map/,48.7246734,44.5169545
555,10,"ГКУК ВО ""Волгоградская областная специальная библиотека для слепых""",библиотека,"г.Волгоград, ул. Невская, д.7",х,"инвалиды по зрению, все возрастные категории",1,1,1,1,1,https://zhit-vmeste.ru/map/,48.7155,44.51087099999999
556,11,"ГОБУК ВО ""Волгоградский государственный институт искусств и культуры"" (учебный корпус)",ВУЗ,"г.Волгоград, ул. Циолковского, д.4",х,"молодежь, дети, все возрастные категории",1,1,1,1,1,https://zhit-vmeste.ru/map/,48.69828090000001,44.5058461
557,12,"ГОБУК ВО ""Волгоградский государственный институт искусств и культуры"" (общежитие)",ВУЗ (общежитие),"г.Волгоград, ул. Ковровская, д.4",х,"молодежь, дети, все возрастные категории",1,1,1,1,1,https://zhit-vmeste.ru/map/,48.6998541,44.502063
558,13,"ГБУК ""Историко-этнографический и архитектурный музей-заповедник ""Старая Сарепта""",музей,"г.Волгоград, ул. Изобильная, д.10",х,все возрастные категории,1,1,1,1,1,https://zhit-vmeste.ru/map/,48.512343,44.550802
559,14,"ГБУК ""Волгоградский государственный театр ""Царицынская Опера""",театр,"г.Волгоград, пр-кт им.В.И.Ленина, д.97",х,все возрастные категории,1,1,1,1,1,https://zhit-vmeste.ru/map/,48.708048,44.5133034
560,15," ГОБУК ВО ""Волгоградский государственный институт искусств и культуры"" филиал в г.Камышин ",ВУЗ,"г.Камышин,ул.Октябрьская, д.42",х,"молодежь, дети, все возрастные категории",1,1,1,1,1,https://zhit-vmeste.ru/map/,50.0848116,45.4057286
561,16,"ГОБУК ВО ""Волгоградский государственный институт искусств и культуры"" филиал в г.Камышин ",ВУЗ (общежитие),"г.Камышин, ул.Пролетарская. д.111",х,"молодежь, дети, все возрастные категории",1,1,1,1,1,https://zhit-vmeste.ru/map/,50.07438089999999,45.3974125
562,17,"ГКУ ВО ""Государственный архив Волгоградской области""",архив,"г.Волгоград, ул.Коммунистическая, д.30",х,все возрастные категории,1,1,1,1,1,https://zhit-vmeste.ru/map/,48.7142585,44.5206475
563,18,"ГБУК ""Волгоградский областной краеведческий музей""",музей,"г.Волгоград, пр-кт им.В.И.Ленина, д.5а",х,все возрастные категории,1,1,1,1,1,https://zhit-vmeste.ru/map/,48.708048,44.5133034
564,19,"ГБУК ""Волгоградский областной краеведческий музей""",музей,"г.Волгоград, пр-кт им.В.И.Ленина, д.7",х,все возрастные категории,1,1,1,1,1,https://zhit-vmeste.ru/map/,48.708048,44.5133034
565,20,"ГБУК ""Центр документации новейшей истории Волгоградской области""",архив,"г.Волгоград, ул.Дымченко , д.16",х,все возрастные категории,1,1,1,1,1,https://zhit-vmeste.ru/map/,48.729648,44.5347839
566,21,"ГБУК ""Волгоградский областной театр кукол""",театр,"г.Волгоград, ул.Коммунистическая, д.1",х,"дети, все возрастные категории",1,1,1,1,1,https://zhit-vmeste.ru/map/,48.707867,44.507223
568,1,"ГКУ ""Центр социальной защиты населения по Алексеевскому району"" ",центр социальной защиты населения,"Волгоградская область, Алексеевский район, ст.Алексеевская, пер. Советский, 26",х,все возрастные категории,2,1,2,1,1,https://zhit-vmeste.ru/map/,50.28998920000001,42.1856381
569,2,"ГКУ ""Центр социальной защиты населения  по Быковскому району""",центр социальной защиты населения,"Волгоградская область, р.п. Быково, ул.Куйбышева, 1",х,"взрослые трудоспособного возраста, пожилые, все возрастные категории",2,1,2,2,1,https://zhit-vmeste.ru/map/,49.7657235,45.384856
570,3,"ГКУ ""Центр социальной защиты населения  по Городищенскому району""",центр социальной защиты населения,"Волгоградская область, Городищенский район, р.п. Городище, ул. Промышленная, 6",х,"врослые трудоспособного возраста, пожилые",1,0,1,1,0,https://zhit-vmeste.ru/map/,48.8084369,44.4838017
571,4,"ГКУ ""Центр социальной защиты населения  по Даниловскому району""",центр социальной защиты населения,"Волгоградская область, Даниловский район, р.п. Даниловка, ул. Центральная, д.8 ",х,"взрослые трудоспособного возраста, пожилые",2,1,1,1,1,https://zhit-vmeste.ru/map/,50.3513143,44.12175939999999
572,5,"ГКУ ""Центр социальной защиты населения  по Дубовскому району""",центр социальной защиты населения,"Волгоградская область, г.Дубовка, ул.Первомайская,д.56",х,"дети, взрослые трудоспособного возраста, пожилые",0,0,0,0,0,https://zhit-vmeste.ru/map/,49.0551245,44.82641779999999
573,6,"ГКУ ЦСЗН по Еланскому району""",центр социальной защиты населения,"Еланский район, р.п. Елань, ул. Гоголя, д. 5",х,все возрастные категории,2,1,1,1,1,https://zhit-vmeste.ru/map/,50.9407393,43.7369632
574,7,"ГКУ ""Центр социальной защиты населения  по Жирновскому району""",центр социальной защиты населения,"Волгоградская область, г. Жирновск, ул. Ломоносова, д.62",х,"взрослые трудоспособного возраста, пожилые",1,1,2,0,0,https://zhit-vmeste.ru/map/,50.9732665,44.7812612
575,8,"ГКУ ""Центр социальной защиты населения  по Иловлинскому району""",центр социальной защиты населения,"Волгоградская область, р.п.Иловля, пл.Ленина, д.1",х,все возрастные категории,1,1,0,0,0,https://zhit-vmeste.ru/map/,49.3065126,43.9786631
576,9,"ГКУ""Центр социальной защиты населения  по Калачевскому району""",центр социальной защиты населения,"г.Калач-на-Дону, ул.Октябрьская, д.125 ",х,все возрастные категории,1,1,1,1,1,https://zhit-vmeste.ru/map/,48.6813984,43.5405407
577,10,"ГКУ ""Центр социальной защиты населения  по Камышинскрому району"" ",центр социальной защиты населения,"Волгоградская область, г. Камышин, ул. Юбилейная, д. 4а",х,все возрастные категории,0,0,2,1,0,https://zhit-vmeste.ru/map/,50.10736499999999,45.418511
578,11,"ГКУ ""Центр социальной защиты населения  по Киквидзенскому району""",центр социальной защиты населения,"Волгоградская область, Киквидзенский район, ст.Преображенская, ул.Энгельса,22",х,все возрастные категории,0,0,1,1,0,https://zhit-vmeste.ru/map/,50.7445068,43.0528531
579,12,"ГКУ ""Центр социальной защиты населения  по Клетскому району""",центр социальной защиты населения,"Волгоградская область, Клетский район., ст.Клетская., ул.Ленина, д.45",х,все возрастные категории,1,1,1,1,1,https://zhit-vmeste.ru/map/,49.3069277,43.0542141
580,13,"ГКУ ""Центр социальной защиты населения  по Котельниковскому району""",центр социальной защиты населения,"Волгоградская область, г. Котельниково, ул. Советская, 19",х,"дети, взрослые трудоспособного возраста, пожилые, все возрастные категории",1,1,2,1,1,https://zhit-vmeste.ru/map/,47.632323,43.1461762
581,14,"ГКУ ""Центр социальной защиты населения  по Котовскому району""",центр социальной защиты населения,"Волгоградской область, г.Котово, ул. Школьная, д.1",х,все возрастные категории,2,1,2,1,1,https://zhit-vmeste.ru/map/,50.3196423,44.8029281
582,15,"ГКУ ""Центр социальной защиты населения  по Ленинскому району""",центр социальной защиты населения,"Ленинский район, г.Ленинск, ул.Ленина, д.205",х,все возрастные категории,2,0,0,0,0,https://zhit-vmeste.ru/map/,48.6971406,45.1951565
583,16,"ГКУ ""Центр социальной защиты населения  по Нехаевскому району""",центр социальной защиты населения,"Волгоградская область, Нехаевский р-н, ст.Нехаевская, ул.Рабочая, д.7",х,все возрастные категории,1,0,0,0,0,https://zhit-vmeste.ru/map/,50.405938,41.76523299999999
584,17,"ГКУ ""Центр социальной защиты населения  по Николаевскому району""",центр социальной защиты населения,"Николаевский район, г.Николаевск, ул.Мира д.9/4",х,"дети, взрослые трудоспособного возраста, пожилые, все возрастные категории",0,0,2,0,0,https://zhit-vmeste.ru/map/,50.0310824,45.4507887
585,18,"ГКУ ""Центр социальной защиты населения  по Новоаннинскому району""",центр социальной защиты населения,403958 Волгоградская обл. г.Новоаннинский ул.Мира 41,х,все возрастные категории,0,0,0,0,0,https://zhit-vmeste.ru/map/,50.5296361,42.6639112
586,19,"ГКУ ""Центр социальной защиты населения  по Новониколаевскому району""",центр социальной защиты населения,"Новониколаевский р-н, рп Новониколаевский, ул. Советская, д.10А",х,все возрастные категории,1,1,1,1,1,https://zhit-vmeste.ru/map/,50.9741539,42.36865299999999
587,20,"ГКУ ""Центр социальной защиты населения  по  Октябрьскому району""",центр социальной защиты населения,"Волгоградская область, р.п.Октябрьский, ул.Центральная, д.20",х,все возрастные категории,1,1,1,1,1,https://zhit-vmeste.ru/map/,47.9684617,43.65333649999999
588,21,"ГКУ ""Центр социальной защиты населения  по Ольховскому району""",центр социальной защиты населения,"Волгоградская область, Ольховский район, с. Ольховка, ул. Советская, д. 24",х,все возрастные категории,0,0,2,0,0,https://zhit-vmeste.ru/map/,49.8551704,44.5669207
589,22,"ГКУ ""Центр социальной защиты населения  по Палласовскому району""",центр социальной защиты населения,"Волгоградская область, Палласовский район, г.Палласовка ул. Первомайская,1Б",х,все возрастные категории,2,2,1,1,2,https://zhit-vmeste.ru/map/,50.05049460000001,46.8833495
590,23,"ГКУ ""Центр социальной защиты населения  по Кумылженскому району""",центр социальной защиты населения,"Волгоградская область, Кумылженский район, ст-ца Кумылженская ул.Пушкина,3",х,все возрастные категории,2,1,1,1,1,https://zhit-vmeste.ru/map/,49.8794969,42.59326900000001
591,24,"ГКУ ""Центр социальной защиты населения  по Руднянскому району""",центр социальной защиты населения,"Руднянский район, р.п.Рудня, ул.Октябрьская, д.112",х,"дети,взрослые трудоспособного возраста, пожилые",2,1,2,1,1,https://zhit-vmeste.ru/map/,50.79226389999999,44.557104
592,25,"ГКУ ""Центр социальной защиты населения  по Светлоярскому району""",центр социальной защиты населения,"Волгоградская область, р.п.Светлый Яр, пер.Театральный,д.19  ",х,"дети, взрослые трудоспособного возраста, пожилые",2,1,1,1,1,https://zhit-vmeste.ru/map/,48.4790559,44.7808312
593,26,"ГКУ ""Центр социальной защиты населения  по Серафимовичскому району""",центр социальной защиты населения,"Волгоградская область, г. Серафимович, ул. Октябрьская, д. 65",х,"взрослые трудоспособного возраста, пожилые",2,2,2,2,0,https://zhit-vmeste.ru/map/,49.58337040000001,42.733565
594,27,"ГКУ ""Центр социальной защиты населения  по Среднеахтубинскому району""",центр социальной защиты населения,"404143, Среднеахтубинский район, р.п.Средняя Ахтуба, ул.Партизанская, д.51",х,все возрастные категории,1,0,2,2,0,https://zhit-vmeste.ru/map/,48.7132011,44.8581353
595,28,"ГКУ ""Центр социальной защиты населения  по Старополтавскому району""",центр социальной защиты населения,"Волгоградская область Старополтавский район, с. Старая Полтавка, ул. Центральная, 87",х,все возрастные категории,2,2,2,2,2,https://zhit-vmeste.ru/map/,50.4767211,46.48390819999999
596,29,"ГКУ ""Центр социальной защиты населения  по Суровикинскому району""",центр социальной защиты населения,"Волгоградская область, г.Суровиикно, МКР 2, д.3",х,все возрастные категории,1,1,1,1,1,https://zhit-vmeste.ru/map/,48.6102216,42.8528334
597,30,"ГКУ ""Центр социальной защиты населения  по Чернышковскому району"" ",центр социальной защиты населения,"Волгоградская область, р.п.Чернышковский, ул.Советская, 84",х,все возрастные категории,1,1,1,1,1,https://zhit-vmeste.ru/map/,48.4236246,42.22272479999999
598,31,"ГКУ ""Центр социальной защиты населения  по городу Волжскому""",центр социальной защиты населения,"Волгоградская область, г. Волжский, ул. Кирова, д. 17",х,все возрастные категории,0,0,0,0,0,https://zhit-vmeste.ru/map/,48.810435,44.7501473
599,32,"ГКУ ""Центр социальной защиты населения  по городу Камышину""",центр социальной защиты населения,"Волгоградская область, г. Камышин, 6 мкр., д. 1",х,"дети, взрослые трудоспособного возраста, пожилые, все возрастные категории",0,0,1,1,0,https://zhit-vmeste.ru/map/,50.0909762,45.4170779
600,33,"ГКУ ""Центр социальной защиты населения  по городскому округу г.Михайловка""",центр социальной защиты населения,"Волгоградская область, г.Михайловка, ул. Некрасова, 24/2",х,"дети, взрослые трудоспособного возраста, пожилые",1,1,1,1,1,https://zhit-vmeste.ru/map/,50.07516690000001,43.2345834
601,34,"ГКУ ""Центр социальной защиты населения  по г.Урюпинску и Урюпинскому р-ну""",центр социальной защиты населения,"Волгоградская область, г. Урюпинск, пер. Селиверстова, д.19",х,все возрастные категории,2,1,1,1,1,https://zhit-vmeste.ru/map/,50.7876995,41.9990665
602,35,"ГКУ ""Центр социальной защиты населения  по городу Фролово и Фроловскому району""",центр социальной защиты населения,"Фроловский район, г. Фролово, ул.Пролетарская, д. 14/2",х,все возрастные категории,2,1,0,0,0,https://zhit-vmeste.ru/map/,49.7687992,43.6425336
603,36,"ГКУ ""Центр социальной защиты населения  по Ворошиловскому району Волгограда""",центр социальной защиты населения,"Волгоград, ул. Козловская, д.3",х,все возрастные категории,2,1,2,1,1,https://zhit-vmeste.ru/map/,48.7009992,44.5005852
604,37,"ГКУ ""Центр социальной защиты населения  по Дзержинскому району Волгограда"" ",центр социальной защиты населения,"Волгоград, ул. Полесская, д.3А",х,все возрастные категории,0,0,2,1,0,https://zhit-vmeste.ru/map/,48.7691524,44.4805567
605,38,"ГКУ ""Центр социальной защиты населения  по Кировскому району Волгограда""",центр социальной защиты населения,"Волгоград, ул. 64 Армии,16",х,все возрастные категории,2,1,1,1,1,https://zhit-vmeste.ru/map/,48.607484,44.422996
607,40,"ГКУ ""Центр социальной защиты населения  по Красноармейскому району Волгограда""",центр социальной защиты населения,"Волгоград, ул.Фадеева, 17",х,"дети, взрослые трудоспособного возраста, пожилые, все возрастные категории",2,1,1,1,1,https://zhit-vmeste.ru/map/,48.5143874,44.559425
608,41,"ГКУ ""Центр социальной защиты населения  по Краснооктябрьскому району Волгограда""",центр социальной защиты населения,"Волгоград, ул. Депутатская, 1",х,все возрастные категории,2,2,2,1,1,https://zhit-vmeste.ru/map/,48.7821335,44.5718319
609,42,"ГКУ ""Центр социальной защиты населения  по Советскому району",центр социальной защиты населения,"Волгоград, пр. Университетский, д. 45",х,"дети, взрослые трудоспособного возраста, пожилые",1,0,0,0,0,https://zhit-vmeste.ru/map/,48.6660714,44.4420732
610,43,"ГКУ ""Центр социальной защиты населения  по Тракторозаводскому району Волгограда""",центр социальной защиты населения,"Волгоград, ул. Дзержинского, д. 2 А",х,все возрастные категории,2,1,1,1,1,https://zhit-vmeste.ru/map/,48.80365159999999,44.605125
611,44,"ГКУ ""Центр социальной защиты населения  по Центральному району Волгограда""",центр социальной защиты населения,"Волгоград, ул.Невская, д.8.",х,"дети, взрослые трудоспособного возраста, пожилые",2,1,2,1,1,https://zhit-vmeste.ru/map/,48.7173755,44.5111125
612,45,"ГКУ СО ""Алексеевский центр социального обслуживания населения""", центр социального обслуживания населения,"Волгоградская область, ст.Алексеевская, пер.Советский, 26 ",х,все возрастные категории,2,1,1,2,1,https://zhit-vmeste.ru/map/,50.28998920000001,42.1856381
613,46,"ГКУ СО ""Городищенский центр социального обслуживания населения""", центр социального обслуживания населения,"Волгоградская область, р.п.Городище, ул.Промышленная, д.3",х,все возрастные категории,2,1,0,0,1,https://zhit-vmeste.ru/map/,48.8066853,44.48259609999999
614,47,"ГКУ СО ""Даниловский центр социального обслуживания населения""", центр социального обслуживания населения,"Волгоградская область, р.п. Даниловка, ул.Коммунистическая, 13",х,все возрастные категории,2,2,2,2,2,https://zhit-vmeste.ru/map/,50.3604767,44.1175046
616,49,"ГКУ СО ""Еланский центр социального обслуживания населения""", центр социального обслуживания населения,"Волгоградская область, Еланский район, р.п. Елань, ул. Большая Казанская, 61",х,все возрастные категории,2,1,2,2,1,https://zhit-vmeste.ru/map/,50.9491064,43.7236375
617,50,"ГКУ СО ""Жирновский центр социального обслуживания населения""", центр социального обслуживания населения,"Жирновский район, г. Жирновск, ул. Строителей, д. 9 А",х,все возрастные категории,2,2,1,2,2,https://zhit-vmeste.ru/map/,50.97618190000001,44.7840113
618,51,"ГКУ СО ""Иловлинский центр социального обслуживания населения""", центр социального обслуживания населения,"Волгоградская область р.п. Иловля, ул. Спортивная, д.20",х,все возрастные категории,1,1,0,0,0,https://zhit-vmeste.ru/map/,49.2980448,43.9817534
620,53,"ГКУ СО ""Калачевский центр социального обслуживания населения""", центр социального обслуживания населения,"Калачевский район, г.Калач-на-Дону, ул.Маяковского, д.6",х,все возрастные категории,1,1,1,0,0,https://zhit-vmeste.ru/map/,48.67947239999999,43.54085509999999
621,54,"ГКУ СО ""Камышинский центр социального обслуживания населения""", центр социального обслуживания населения,"Волгоградская область, г. Камышин, 6 мкр.,д.1",х,"дети, взрослые трудоспособного возраста, пожилые, все возрастные категории",1,1,1,1,1,https://zhit-vmeste.ru/map/,50.0909762,45.4170779
624,57,"ГКУ СО ""Киквидзенский центр социального обслуживания населения""",центр социального обслуживания населения,"Волгоградская область, Киквидзенский район, ст. Преображенская, ул.Ленина, д.67",х,все возрастные категории,0,0,0,0,0,https://zhit-vmeste.ru/map/,50.7417461,43.0543862
625,58,"ГКУ СО ""Клетский центр социального обслуживания населения""",центр социального обслуживания населения,"Волгоградская область, Клетский район, станица Клетская, улица Сушкова, д. 56",х,все возрастные категории,0,2,2,0,0,https://zhit-vmeste.ru/map/,49.3069277,43.0542141
626,59,"ГКУ СО ""Котельниковский центр социального обслуживания населения""",центр социального обслуживания населения,"Волгоградская область, Котельниковский район, г.Котельниково, ул.Ленина, д.6",х,"дети, взрослые трудоспособного возраста,пожилые",2,2,1,1,1,https://zhit-vmeste.ru/map/,47.6271863,43.1455497
627,60,"ГКУ СО ""Ленинский центр социального обслуживания населения""",центр социального обслуживания населения,"Волгоградская область, Ленинский район, г. Ленинск, ул. Ленина, 208 г.",х,все возрастные категории,0,0,2,2,0,https://zhit-vmeste.ru/map/,48.69366580000001,45.1987517
628,61,"ГКУ СО ""Михайловский центр социального обслуживания населения""", центр социального обслуживания населения,"Волгоградская область, г. Михайловка, ул. Мира, д. 65.",х,все возрастные категории,0,0,0,1,1,https://zhit-vmeste.ru/map/,50.0552212,43.2391411
630,63,"ГКУ СО ""Нехаевский центр социального обслуживания населения""", центр социального обслуживания населения,"Волгоградская обл., Нехаевский район, ст.Нехаевская, Гагарина ул., д. 17",х,все возрастные категории,0,0,0,0,0,https://zhit-vmeste.ru/map/,50.405938,41.76523299999999
632,65,"ГКУ СО ""Новониколаевский центр социального обслуживания населения""",центр социального обслуживания населения,"Новониколаевский  район, р.п.Новониколаевский ул.Советская д.10 А",х,все возрастные категории,1,1,1,1,1,https://zhit-vmeste.ru/map/,50.9741539,42.36865299999999
633,66,"ГКУ СО  ""Октябрьский центр социального обслуживания населения""",центр социального обслуживания населения,"Октябрьский район, р.п. Октябрьский, ул.Центральная, д.19",х,все возрастные категории,1,1,1,0,0,https://zhit-vmeste.ru/map/,47.9682988,43.651975
634,67,"ГКУ СО""Палласовский центр социального обслуживания населения""",центр социального обслуживания населения,"Волгоградская обл., г. Палласовка, ул. Ушакова, д. 2",х,все возрастные категории,2,2,2,2,2,https://zhit-vmeste.ru/map/,50.0448051,46.9085929
635,68,"ГКУ СО ""Кумылженский центр социального обслуживания населения""",центр социального обслуживания населения,"Кумылженский район ст.Кумылженская, ул. Ленина5/2",х,все возрастные категории,2,2,2,2,2,https://zhit-vmeste.ru/map/,49.8852321,42.5959233
636,69,"ГКУ СО ""Ольховский центр социального обслуживания населения""",центр социального обслуживания населения,"Волгоградская область, Ольховский рацон, с.Ольховка, ул.Базарная, д.10",х,все возрастные категории,2,0,0,0,1,https://zhit-vmeste.ru/map/,49.8529815,44.5599041
637,70,"ГКУ СО ""Руднянский центр социального обслуживания населения""",центр социального обслуживания населения," Волгоградская область, Руднянский район, р.п. Рудня, ул. Красная, д.4а",х,все возрастные категории,2,2,2,2,2,https://zhit-vmeste.ru/map/,50.80005449999999,44.5552469
638,71,"ГКУ СО ""Светлоярский центр социального обслуживания населения""",центр социального обслуживания населения,"Светлоярский район, р.п.Светлый Яр, ул. Мелиоративная д.3",х,все возрастные категории,1,1,1,1,1,https://zhit-vmeste.ru/map/,48.4698123,44.7833134
639,72,"ГКУ СО ""Серафимовичский центр социального обслуживания населения""", центр социального обслуживания населения,"Волгоградская область, г. Серафимович, ул.Октябрьская, 65",х,все возрастные категории,1,1,1,1,0,https://zhit-vmeste.ru/map/,49.58337040000001,42.733565
641,74,"ГКУ СО ""Среднеахтубинский центр социального обслуживания населения""", центр социального обслуживания населения,"Среднеахтубинский район, г.Краснослободск, ул.Октябрьская, д.2",х,"дети, взрослые трудоспособного возраста, пожилые",2,0,0,0,0,https://zhit-vmeste.ru/map/,48.7081956,44.56232809999999
645,78,"ГКУ СО ""Старополтавский центр социального обслуживания населения""", центр социального обслуживания населения,"Волгоградская область, с.Старая Полтавка, ул.Победа, д.53/1",х,"дети, взрослые трудоспособного возраста, пожилые",1,2,2,1,1,https://zhit-vmeste.ru/map/,50.4819977,46.4813567
646,79,"ГКУ СО ""Суровикинский центр социального обслуживания населения""", центр социального обслуживания населения,"г.Суровикино, Микрорайон 2, д.3",х,все возрастные категории,2,1,2,1,1,https://zhit-vmeste.ru/map/,48.6102216,42.8528334
649,82,"ГКУ СО ""Урюпиский  центр социального обслуживания населения""", центр социального обслуживания населения,"г.Урюпинск, пр.Ленина, д.85",х,"дети,взрослые трудоспособного возраста пожилые",1,1,1,1,1,https://zhit-vmeste.ru/map/,50.7982547,42.012622
651,84,"ГКУ СО ""Фроловский центр социального обслуживания населения""", центр социального обслуживания населения,"Фроловский район, г. Фролово, ул. Фроловская, д.1",х,"взрослые трудоспособного возраста, пожилые",2,0,1,1,0,https://zhit-vmeste.ru/map/,49.7649478,43.6524556
654,87,"ГКУ СО ""Чернышковский центр социального обслуживания населения""", центр социального обслуживания населения,"Волгоградская область, р.п. Чернышковский, ул.Цимлянская, 10",х,все возрастные категории,0,0,0,1,0,https://zhit-vmeste.ru/map/,48.42726560000001,42.2178657
655,88,"ГКУ СО ""Дзержинский центр социального обслуживания населения""", центр социального обслуживания населения,"г. Волгоград, ул. Полесская, д.3, корп А",х,"дети, взрослые трудоспособного возраста",1,1,1,1,1,https://zhit-vmeste.ru/map/,48.7690276,44.4808812
656,89,"ГКУ СО ""Советский центр социального обслуживания населения""", центр социального обслуживания населения,"г. Волгоград, ул. Электролесовская, д.5, кор. А",х,"дети, взрослые трудоспособного населения, пожилые",1,1,1,0,0,https://zhit-vmeste.ru/map/,48.6644634,44.4537903
657,90,"ГБУ СО ""Быковский центр социального обслуживания населения""", центр социального обслуживания населения,"Волгоградская область, р.п. Быково, ул.Куйбышева, 1",х,все возрастные категории,1,1,1,1,1,https://zhit-vmeste.ru/map/,49.7657235,45.384856
658,91,, центр социального обслуживания населения,"Волгоградская область, р.п. Быково, ул. Ленина, 79",х,все возрастные категории,1,1,1,1,1,https://zhit-vmeste.ru/map/,49.76509530000001,45.3808849
659,92,"ГБУ СО ""Волжский центр социального обслуживания населения""",центр социального обслуживания населения,"г. Волжский, ул.19 Партсъезда, 65",х,все возрастные категории,2,2,1,1,1,https://zhit-vmeste.ru/map/,48.8055674,44.7521923
666,99,"ГБУ СО ""Дубовский центр социального обслуживания населения""",центр социального обслуживания населения,"Волгоградская область, г. Дубовка, ул. Ленина,3",х,Дети,2,2,2,2,0,https://zhit-vmeste.ru/map/,49.0495197,44.8262017
668,101,"ГБУ СО ""Котовский центр социального обслуживания населения""",центр социального обслуживания населения,"Волгоградская область, г. Котово, ул.Победы, д.11",х,"дети, взрослые трудоспособного возраста",2,2,2,2,2,https://zhit-vmeste.ru/map/,50.3200029,44.7986626
671,104,"ГБУ СО ""Николаевский центр социального обслуживания населения""",центр социального обслуживания населения,"Волгоградская область, г. Николаевск, ул.Свердлова, д. 24",х,"дети, взрослые трудоспособного возраста, пожилые, все возрастные категории",0,0,1,1,0,https://zhit-vmeste.ru/map/,50.0191239,45.4555884
674,107,"ГБУ СО ""Новоаннинский центр социального обслуживания населения""",центр социального обслуживания населения,"Новоаннинский район, г.Новоаннинский, пер.К.Либкнехта, 5",х,все возрастные категории,0,0,0,0,0,https://zhit-vmeste.ru/map/,50.5311082,42.66854590000001
677,110,"ГБУ СО ""Красноармейский центр социального обслуживания населения""",центр социального обслуживания населения," г.Волгоград, ул. Судостроительная, д.43",х,все возрастные категории,1,1,1,1,0,https://zhit-vmeste.ru/map/,48.50824859999999,44.5281372
678,111,"ГБУ СО ""Кировский центр социального обслуживания населения""",центр социального обслуживания населения,"г. Волгоград, ул. Губкина, 11",х,"дети, взрослые трудоспособного возраста; пожилые",1,1,1,1,0,https://zhit-vmeste.ru/map/,48.6022819,44.4242283
680,113,"ГБУ СО ""Тракторозаводский ЦСОН""",центр социального обслуживания населения,"г. Волгоград, ул. Н.Отрады, 26а",х,все возрастные категории,2,2,2,2,1,https://zhit-vmeste.ru/map/,48.8188943,44.6329068
683,116,"ГБУ СО ""Центральный ЦСОН""",центр социального обслуживания населения,"г.Волгоград, ул.Невская,18",х,все возрастные категории,2,2,2,1,1,https://zhit-vmeste.ru/map/,48.7196866,44.5079562
688,121,"ГКУ СО ""Волгоградский областной центр психолого-педагогической помощи населению""",центр психолого-педагогической помощи населению,"г.Волгоград, ул.Таращанцев, д.1А",х,все возрастные категории,1,0,0,0,0,https://zhit-vmeste.ru/map/,48.7669364,44.5534144
689,122,"ГКСУ СО ""Быковский социально-реабилитационный центр для несовершеннолетних""",социально-реабилитационный центр для несовершеннолетних,"Волгоградская область, Быковский район, р.п.Быково, ул. Дзержинского, д.95/1",х,дети ,2,2,2,2,2,https://zhit-vmeste.ru/map/,49.7567264,45.3963066
690,123,"ГКСУ СО ""Городищенский социально-реабилитационный центр для несовершеннолетних""",социально-реабилитационный центр для несовершеннолетних,"Волгоградская область, р.п.Городище, ул.Ворошилова,35",х,дети ,2,2,2,2,2,https://zhit-vmeste.ru/map/,48.8033788,44.47049
692,125,"ГКСО СО ""Калачевский социально-реабилитационный центр для несовершеннолетних""",Социально-реабилитационный  центр для несовершеннолетних,Волгоградская область г.Калач на Дону пер.Пионерский д.5 (спальный корпус № 1),х,дети ,2,2,2,2,2,https://zhit-vmeste.ru/map/,48.6891684,43.5417591
696,129,"ГКСУ СО "" Камышинский социально реабилитационный центр для несовершеннолетних""",Социально - реабилитационный центр для несовершеннолетних,"г. Камышин, ул. Короленко, д. 1а",х,дети ,2,2,2,2,1,https://zhit-vmeste.ru/map/,50.1098958,45.4168288
697,130,"ГКСУ СО ""Новоаннинский социально-реабилитационный центр для несовершеннолетних""",социальная защита населения,"Волгоградская область, г.Новоаннинский, пер.Краснопартизанский,4а",х,дети ,2,2,2,2,0,https://zhit-vmeste.ru/map/,50.52113259999999,42.6684609
698,131,"ГКСУ СО ""Волжский социально-реабилитационный центр для несовершеннолетних""",социально-реабилитационный центр для несовершеннолетних,"Волгоградская область, г.Волжский, ул.Пушкина, д.180",х,дети ,2,2,2,1,1,https://zhit-vmeste.ru/map/,48.7618831,44.8242899
699,132,"ГКСУ СО ""Волгоградский областной социально-реабилитационный центр для несовершеннолетних""",социально-реабилитационный центр для несовершеннолетних,"г. Волгоград, ул. им. Циолковского, д.11.",х,дети ,1,1,1,1,2,https://zhit-vmeste.ru/map/,48.708048,44.5133034
700,133,"ГКСУ СО ""Красноармейский социально-реабилитационный центр для несовершеннолетних""",социально-реабилитационный центр для несовершеннолетних,"г. Волгоград, ул. Героев Малой Земли, 54",х,дети ,2,2,2,2,2,https://zhit-vmeste.ru/map/,48.50928469999999,44.5214606
701,134,"ГКСУ СО ""Волгоградский областной реабилитационный центр для детей-инвалидов ""Доверие""",Реабилитационный центр,"г.Волгоград, пос. Веселая балка, д.48 (здание 1)",х,дети-инвалиды,1,1,1,1,1,https://zhit-vmeste.ru/map/,48.55383699999999,44.44236
703,136,"ГБУ СО ""Волгоградский областной реабилитационный центр  ""Вдохновение"" ",реабилитационный центр,"г. Волгоград, ул. Рокоссовского, 3 Б",х," дети- инвалиды, дети испытывающие трудности  в социальной адаптации",0,0,2,0,0,https://zhit-vmeste.ru/map/,48.7146502,44.4977251
705,138,"ГБСУ СО Областной реабилитационный центр для детей-инвалидов  ""Надежда""",реабилитационный центр для детей-инвалидов,"Волгоградская область, г. Волжский, ул.Александрова, 29",х,дети ,1,1,1,1,1,https://zhit-vmeste.ru/map/,48.7805726,44.81447319999999
708,141,"ГКССУ СО ""Детский психоневрологический интернат ""Солнечный дом""",детский психоневрологический интернат,"Волгоградская область, Камышинский район, г.Петров Вал, ул.Ленина, д.84",х,дети-инвалиды,1,1,1,1,0,https://zhit-vmeste.ru/map/,50.146142,45.2059168
710,143,"ГБССУ СО ГПВИ ""Абганеровский дом-интернат для престарелых и инвалидов""",дом-интернат для престарелых и инвалидов,"Октябрьский район, с.Абганерово, ул.Чапаева, д.19",х,пожилые ,1,1,2,0,0,https://zhit-vmeste.ru/map/,48.0807748,44.1801524
711,144,"ГБССУ СО ГПВИ ""Даниловский дом-интернат для престарелых и инвалидов""",дом-интернат для престарелых и инвалидов,"Даниловский район, р.п.Даниловка, ул.Мордовцева, д.29",х,граждане пожилого возраста и инвалиды,1,1,2,1,2,https://zhit-vmeste.ru/map/,50.3582273,44.1077072
713,146,"ГБССУ СО ГПВИ ""Мачешанский дом-интернат для престарелых и инвалидов""",дом-интернат для престарелых и инвалидов,"Киквидзенский район с.Мачеха, ул.Больничная, д.10 ",х,граждане пожилого возраста и инвалиды,0,0,0,0,2,https://zhit-vmeste.ru/map/,50.8005266,43.3020146
714,147,"ГБССУ СО ГПВИ ""Палласовский дом-интернат для престарелых и инвалидов""",  социальное обслуживание,"Волгоградская область, г.Палласовка, ул. Мира 7",х,граждане пожилого возраста и инвалиды,2,2,2,2,2,https://zhit-vmeste.ru/map/,50.0408009,46.89239509999999
715,148,"ГБССУ СО ГПВИ ""Харьковский дом-интернат для престарелых и инвалидов""",дом-интернат для престарелых и инвалидов,"Старополтавский район,с.Харьковка, ул.Телеграфная, 2",х,граждане пожилого возраста и инвалиды,2,2,2,2,2,https://zhit-vmeste.ru/map/,50.4221359,46.8134114
716,149,"ГБССУ СО ГПВИ ""Бударинский психоневрологический дом-интернат"" ",психоневрологический дом-интернат,"Волгоградская область, Новоаннинский район, х.Черкесовский (жилой корпус №1)",х,взрослые трудоспособного возраста; пожилые,1,1,1,1,1,https://zhit-vmeste.ru/map/,50.681362,42.568668
725,158,"ГБССУ СО ГПВИ ""Жирновский психоневрологический интернат""",психоневрологический интернат,"Жирновский район, г.Жирновск, ул.35 лет Победы, д.4А корпус 1",х,граждане пожилого возраста и инвалиды,1,1,2,2,1,https://zhit-vmeste.ru/map/,50.9758731,44.7919583
728,161,"ГБССУ СО ГПВИ ""Волгоградский психоневрологический интернат""",дом-интернат для престарелых и инвалидов,"г.Волгоград, ул.Криворожская, д.2А",х,граждане пожилого возраста и инвалиды,2,0,2,0,2,https://zhit-vmeste.ru/map/,48.670342,44.43266
730,163,"ГБССУ СО ГПВИ ""Волжский психоневрологический интернат""",психоневрологический интернат," Волгоградская область, г. Волжский, ул. Набережная, д. 51 (баня)",х,все возрастные категории,1,1,2,1,1,https://zhit-vmeste.ru/map/,48.8176494,44.7707294
734,167,"ГБССУ СО ГПВИ ""Иловатский психоневрологический интернат""",психоневрологический интернат,"Волгоградская область, Старополтавский район, с.Иловатка, ул Комсомольская 62/2",х,граждане пожилого возраста и инвалиды,1,0,2,0,0,https://zhit-vmeste.ru/map/,50.5127817,45.8821979
735,168,"ГБССУ СО ГПВИ ""Калачевский психоневрологический интернат""",психоневрологический интернат,"Калачевский район, п. Пятиморск, ул.Озерная, д.1 ( корпус № 1)",х,граждане пожилого возраста и инвалиды,2,1,0,0,0,https://zhit-vmeste.ru/map/,48.649311,43.6108756
738,171,"ГБССУ СО ГПВИ ""Котовский психоневрологический интернат""",психоневрологический интернат,"Котовский район, г.Котово, ул.Тополиная, д.1а (корпус спальный)",х,граждане пожилого возраста и инвалиды,1,1,2,2,1,https://zhit-vmeste.ru/map/,50.3044734,44.8234577
741,174,"ГБССУ СО ГПВИ ""Нижнедобринский психоневрологический интернат""",психоневрологический интернат,"Волгоградская область, Камышинский район, с.Нижняя Добринка, переулок  Школьный, 7",х,граждане пожилого возраста и инвалиды,1,1,1,1,1,https://zhit-vmeste.ru/map/,50.316409,45.702141
742,175,"ГБССУ СО ГПВИ ""Нижнечирский психоневрологический интернат""",психоневрологический интернат,"Суровикинский район, ст.Нижний Чир, ул.Промышленная, д.8 (корпус 1)",х,граждане пожилого возраста и инвалиды,1,1,1,1,1,https://zhit-vmeste.ru/map/,48.3756394,43.0842361
744,177,"ГБССУ СО ГПВИ ""Суровикинский психоневрологический интернат""",психоневрологический интернат,"Волгоградская область, г.Суровикино, ул.Автострадная, 14",х,граждане пожилого возраста и инвалиды,2,2,1,1,2,https://zhit-vmeste.ru/map/,48.6124217,42.8627904
746,179,"ГБССУ СО ГПВИ ""Урюпинский  психоневрологический интернат""",психоневрологический интернат,"Волгоградская область, Урюпинский район, х.Ольшанка, ул. Комарова, 37а  ",х,граждане пожилого возраста и инвалиды,0,0,2,1,0,https://zhit-vmeste.ru/map/,50.8191835,42.0365768
747,180,"ГБССУ СО ГПВИ ""Усть-Бузулукский психоневрологический интернат""",психоневрологический интернат,"Алексеевский район, ст.Усть-Бузулукская, ул.Хопёрская, д.35 ",х,граждане пожилого возраста и инвалиды,1,1,1,1,2,https://zhit-vmeste.ru/map/,50.1789374,42.1512754
750,183,"ГБССУ СО ГПВИ ""Царевский психоневрологический интернат""",психоневрологический интернат,"Ленинский район с. Царев ул.Матросова, 16 (административный корпус)",х,граждане пожилого возраста и инвалиды,2,2,2,2,2,https://zhit-vmeste.ru/map/,48.6639631,45.3689262
758,191,"ГБССУ СО ГПВИ ""Ергенинский дом-интернат для престарелых и инвалидов""",дом-интернат для престарелых и инвалидов,"г.Волгоград ул. Строительная, 31 А  (корпус № 1)",х,граждане пожилого возраста и инвалиды,2,2,2,2,2,https://zhit-vmeste.ru/map/,48.5869727,44.39215249999999
764,197,"ГБССУ СО ГПВИ ""Волгоградский областной геронтологический центр""",геронтологический центр,г.Волгоград ул. Восточная д.42,х,граждане пожилого возраста и инвалиды,1,1,1,1,2,https://zhit-vmeste.ru/map/,48.764059,44.548177
765,198,"ГКСУ СО ""Волжский центр помощи детям, оставшимся без попечения родителей""","центр помощи детям, оставшимся без попечения родителей","г.Волжский, ул.40 лет Победы,89",х,дети,1,1,2,1,1,https://zhit-vmeste.ru/map/,48.7646216,44.8197438
766,199,"ГКСУ СО "" Камышинский центр помощи детям, оставшимся без попечения родителей ""","центр помощи детям, оставшимся без попечения родителей","г.Камышин,  5-й МКР, д.61а;",х,дети,2,2,2,2,2,https://zhit-vmeste.ru/map/,50.0741893,45.3967309
767,200,"ГКСУ СО ""Новоаннинский центр помощи детям, оставшимся без попечения родителей""","центр помощи детям, оставшимся без попечения родителей","Волгоградская область, Новоаннинский район,ст.Филоновская, ул.Советская, 7",х,дети,2,2,2,2,2,https://zhit-vmeste.ru/map/,50.582676,42.73063399999999
768,201,"ГКСУ СО ""Серафимовичский центр помощи детям, оставшимся без попечения родителей""","центр помощи детям, оставшимся без попечения родителей","Волгоградская область, Серафимовичский р-он, г.Серафимович, ул. Советская, 3",х,дети,1,1,2,1,2,https://zhit-vmeste.ru/map/,49.5815227,42.72443
769,202,"Автономная некомерческая организация социального обслуживания ""Милосердие""",социально ориентированная некоммерческая организация ,г.Волгоград ул.Бородинская д.18,х,"взрослые трудоспособного возраста, пожилые",2,2,2,2,2,https://zhit-vmeste.ru/map/,48.7013579,44.45030269999999
771,204,"Автономная некомерческая организация социального обслуживания ""Забота""",социально ориентированная некоммерческая организация ,"Волгоградская область Клетский район х. Верхнечеренский пер. Больничный, 1",х,"взрослые трудоспособного возраста, пожилые",2,2,2,2,2,https://zhit-vmeste.ru/map/,49.216347,42.673625
773,206,"Автономная некоммерческая организация социального обслуживания ""Территория добра""",социально ориентированная некоммерческая организация ,"Волгоградская область, г.Волжский, о.Зеленый, ул.Зеленая, д. 5 ",х,"лица без определенного места жительства и занятий, старше 18 лет, в том числе освободившиеся из мест лишения свободы, сохранившие способность к самообслуживанию и передвижению",2,2,2,0,0,https://zhit-vmeste.ru/map/,48.7977111,44.7035346
776,1,Государственное унитарное предприятие «Волгоградское областное предприятие «Вокзал-Авто»,Центральный автовокзал г.Волгограда,"г. Волгоград, ул.им. М. Балонина, д.11",х,все,1,1,1,1,1,https://zhit-vmeste.ru/map/,48.7155104,44.5159584
777,2,Государственное унитарное предприятие «Волгоградское областное предприятие «Вокзал-Авто»,Южная автостанция г.Волгограда,"г. Волгоград, ул. Кооперативная, д.29",х,все,1,1,1,1,1,,48.5050289,44.54744729999999
778,3,Государственное унитарное предприятие «Волгоградское областное предприятие «Вокзал-Авто»,Михайловский автовокзал,"Волгоградская область, г.Михайловка, ул.Серафимовича, д. 15",х,все,1,1,1,1,1,,50.0745263,43.2406772
779,4,Государственное унитарное предприятие «Волгоградское областное предприятие «Вокзал-Авто»,Камышинская автостанция,"Волгоградская область, г. Камышин, ул.Волгоградская, д. 28",х,все,1,1,1,1,1,,50.0756977,45.3903831
780,5,Государственное унитарное предприятие «Волгоградское областное предприятие «Вокзал-Авто»,Даниловская автостанция,"Волгоградская область, р.п. Даниловка, ул.Центральная, д.95",х,все,1,1,1,1,1,https://zhit-vmeste.ru/map/,50.357033,44.1049547
781,6,Государственное унитарное предприятие «Волгоградское областное предприятие «Вокзал-Авто»,Чернышковская автостанция,"Волгоградская область, р.п.Чернышковский, ул.Красногвардейская, д.80А",х,все,1,1,1,1,1,https://zhit-vmeste.ru/map/,48.4246243,42.2253366
782,7,Государственное унитарное предприятие «Волгоградское областное предприятие «Вокзал-Авто»,Ольховская автостанция,"Волгоградская область, с.Ольховка, ул.Базарная, д.20",х,все,1,1,1,1,1,https://zhit-vmeste.ru/map/,49.8561771,44.558448
783,8,Государственное унитарное предприятие «Волгоградское областное предприятие «Вокзал-Авто»,Нехаевская автостанция,"Волгоградская область, ст-ца Нехаевская, ул.Победы, д.13",х,все,1,1,1,1,1,https://zhit-vmeste.ru/map/,50.405938,41.76523299999999
784,9,Государственное унитарное предприятие «Волгоградское областное предприятие «Вокзал-Авто»,Киквидзенская автостанция,"Волгоградская область, ст-ца Преображенская, ул.Ленина, д.95/1",х,все,1,1,1,1,1,https://zhit-vmeste.ru/map/,50.7522905,43.06777930000001
785,10,Государственное унитарное предприятие «Волгоградское областное предприятие «Вокзал-Авто»,Кумылженская автокасса,"Волгоградская область, ст-ца Кумылженская, пер.Островского, д.31",х,все,1,1,1,1,1,https://zhit-vmeste.ru/map/,49.883574,42.5811308
786,11,Государственное унитарное предприятие «Волгоградское областное предприятие «Вокзал-Авто»,Быковская автокасса,"Волгоградская область, р.п. Быково, ул.Московская, д.21",х,все,1,1,1,1,1,https://zhit-vmeste.ru/map/,49.7663936,45.3898714
